ID,NAME,URL,TELEPHONE,LONGITUDE,LATITUDE,ADDRESS_REGION,ADDRESS_LOCALITY,ADDRESS_COUNTRY
12,Bison Bar & BBQ,http://www.bisonbar.ie,+353(0)860563144,-6.26631,53.345529,Dublin,Dublin City,Republic of Ireland
16,Sammys Bar,http://www.inchbeach.com,+353(0)669158118,-9.98145,52.14267,Kerry,Inch,Republic of Ireland
38,Jennings Pub,,+353(0)16615868,-6.248352,53.341479,Dublin,Dublin City,Republic of Ireland
39,Dicey Reillys Bar,,+353(0)14784066,-6.26367,53.335825,Dublin,Dublin City,Republic of Ireland
45,Quinns Bar and Bistro,http://www.royalhotel.ie,+353(0)12862935,-6.10897,53.204913,Wicklow,Bray,Republic of Ireland
86,O’Dowd’s Seafood Bar and Restaurant,http://www.odowdsseafoodbar.com/,+353(0)9535809,-9.9193160171967,53.3971617139903,Galway,Roundstone,Republic of Ireland
141,The Belfry Pub and Embassy Restaurant,http://www.belfrypub.com,+353(0)719161250,-8.471527,54.270974,Sligo,Sligo Town,Republic of Ireland
146,Langton's Bar and Restaurant,http://www.langtons.ie,+353(0)567765133,-7.24817747238728,52.6533283395928,Kilkenny,Kilkenny City,Republic of Ireland
147,O Connors Pub,,+353(0)719167267,-8.508725,54.209757,Sligo,Ballisodare,Republic of Ireland
148,Gilroy's Bar,http://www.gilroysbar.com/,+353(0)9637222,-9.09331353984635,54.2128917672035,Sligo,Enniscrone,Republic of Ireland
149,O'Donoghue's Pub,,+353(0)2770007,-9.910222,51.650956,Cork,Castletownbere,Republic of Ireland
150,Fisherman's Bar And Skellig Restaurant,,+353(0)669477103,-10.366482,51.885577,Kerry,Portmagee,Republic of Ireland
151,Fitzpatrick's Pub,,+353(0)40467392,-6.044288,52.980604,Wicklow,Wicklow Town,Republic of Ireland
174,Kielys Bar & Lounge,http://www.kielysbar.com,+353(0)6251239,-8.162292,52.473432,Tipperary,Tipperary Town,Republic of Ireland
177,Jack Meades Pub,http://www.jackmeades.com,+353(0)51850950,-7.034471,52.235415,Waterford,Waterford City,Republic of Ireland
184,Beaufort Bar and Restaurant,http://www.beaufortbar.com,+353(0)646644032,-9.633145,52.0697,Kerry,Killarney,Republic of Ireland
230,Cons Bar,http://www.facebook.com/Consbar/,+353(0)449340925,-7.34574194973754,53.524764798656,Westmeath,Mullingar,Republic of Ireland
244,The Old Oak Bar and Cyprus Avenue,http://www.cyprusavenue.ie,+353(0)214276165,-8.470067,51.898141,Cork,Cork City,Republic of Ireland
247,Boston Bar,,+353(0)2752080,-9.451439,51.678713,Cork,Bantry,Republic of Ireland
248,Bushe's Bar,http://www.bushesbar.com,+353(0)2820125,-9.372976,51.483238,Cork,Baltimore,Republic of Ireland
249,Causkey's Bar,,+353(0)2774161,-9.958037,51.694151,Cork,Eyeries,Republic of Ireland
257,An Sugan Seafood Bar & Restaurant,http://www.ansugan.com,+353(0)238833498,-8.88585299999999,51.623167,Cork,Clonakilty,Republic of Ireland
259,Rolf's Country House Restaurant & Wine Bar,http://www.rolfscountryhouse.com/,+353(0)2820289,-9.368592,51.479594,Cork,Baltimore,Republic of Ireland
265,Lord Baker's Seafood Restaurant & Bar,http://www.lordbakers.ie/,+353(0)669151277,-10.268422,52.141525,Kerry,Dingle,Republic of Ireland
266,Mary Ann's Bar & Restaurant,,+353(0)2836146,-9.174864,51.528243,Cork,Skibbereen,Republic of Ireland
272,The Bosun Restaurant and Bar,http://www.thebosun.ie,+353(0)214842172,-8.331986,51.849601,Cork,Monkstown,Republic of Ireland
279,Franciscan Well Brewery and Brew Pub,http://www.franciscanwellbrewery.com,+353(0)214393434,-8.4818983999653,51.9010555445841,Cork,Cork City,Republic of Ireland
280,McSorley's Bar & Nightclub,http://www.mcsorleyskillarney.com,+353(0)646639770,-9.506744,52.059036,Kerry,Killarney,Republic of Ireland
302,Oliver's Bar & Restaurant,http://oliversonclegganpier.ie,+353(0)9544640,-10.1121914088521,53.556600957255,Galway,Cleggan,Republic of Ireland
320,Daniel McNello's Bar,https://www.facebook.com/daniel.mcnellosbar,+353(0)429378355,-6.579488,54.003062,Monaghan,Inniskeen,Republic of Ireland
331,Maddens Bridge Bar,,+353(0)719842050,-8.28118388950349,54.4775649157353,Donegal,Bundoran,Republic of Ireland
342,The Lobster Pot Pub and Restaurant,,+353(0)539131110,-6.374431,52.198725,Wexford,Rosslare,Republic of Ireland
359,Boston's Bar & Restaurant,,+353(0)669476140,-10.292033,51.92543,Kerry,Valentia Island,Republic of Ireland
396,McGinleys Pub & Off Sales,,+353(0)749131150,-7.783744,54.799512,Donegal,Ballybofey,Republic of Ireland
400,Bodéga Restaurant & Wine Bar,http://www.bodegawaterford.com,+353(0)51844177,-7.111617,52.25784,Waterford,Waterford City,Republic of Ireland
404,Kruger's Bar,http://www.krugers.ie/index.php/ie/,+353(0)669156127,-10.453559,52.134166,Kerry,Ballyferriter,Republic of Ireland
414,Courtney's Bar,http://www.courtneysbar.com,+353(0)646632689,-9.508203,52.058547,Kerry,Killarney,Republic of Ireland
420,The Fáilte Restaurant & Bar,http://www.failtekillarney.com,+353(0)646633404,-9.506826,52.059397,Kerry,Killarney,Republic of Ireland
431,Boardwalk Café and Bar,http://www.thelandmarkhotel.com/food/the-boardwalk,+353(0)719622222,-8.092845,53.94355,Leitrim,Carrick-On-Shannon,Republic of Ireland
432,Mallard Bar,http://www.thelandmarkhotel.com/food/landmark-bars,+353(0)719622222,-8.092845,53.94355,Leitrim,Carrick-On-Shannon,Republic of Ireland
435,Caheny's Pub and Off-License,,+353(0)719161455,-8.471468,54.266048,Sligo,Sligo Town,Republic of Ireland
438,Dom Breslin's Bar & Restaurant,http://www.Pier1.itgo.com,+353(0)749722719,-8.111504,54.652945,Donegal,Donegal Town,Republic of Ireland
439,Dicey Reilly's Pub,http://www.diceys.com,+353(0)719851371,-8.190075,54.502836,Donegal,Ballyshannon,Republic of Ireland
445,Yeats Tavern Restaurant & Davis's Pub,http://www.yeatstavernrestaurant.com,+353(0)719163117,-8.501451,54.32891,Sligo,Drumcliffe,Republic of Ireland
446,The Strand Bar &  Restaurants,http://www.thestrandbar.ie,+353(0)719168140-Bar,-8.608431,54.270688,Sligo,Strandhill,Republic of Ireland
451,Gene Anderson's Thatch Pub,http://www.andersonspub.com,+353(0)872283288,-8.129801,53.909298,Leitrim,Carrick On Shannon,Republic of Ireland
452,O'Grady's Bar and Restaurant,http://www.ogradysgort.net,+353(0)91631096,-8.819298,53.066596,Galway,Gort,Republic of Ireland
453,Cooke's Restaurant & Wine Bar,http://www.cookesrestaurantgalway.com,+353(0)91568203,-9.052722,53.273693,Galway,Galway City,Republic of Ireland
454,Keogh's Bar and Restaurant,,+353(0)91637145,-8.937647,53.138623,Galway,Kinvara,Republic of Ireland
455,"Mount Gable House, Bar & Restaurant",http://www.burkes-clonbur.com,+353(0)949546175,-9.365542,53.545039,Galway,Clonbur,Republic of Ireland
478,The Brandywell Bar and Restaurant,http://www.brandywell.ie/,+353(0)719638278,-7.922623,53.859685,Leitrim,Dromod,Republic of Ireland
492,The Brewery Bar,http://www.thebrewerybar.ie,+353(0)749127330,-7.738006,54.949819,Donegal,Letterkenny,Republic of Ireland
517,Corcoran's Pub,,+353(0)51425920,-6.930637,52.398851,Wexford,New Ross ,Republic of Ireland
532,Fiddlers Creek Bar & Restaurant,http://www.fiddlerscreek.ie,+353(0)719141866,-8.473691,54.271217,Sligo,Sligo Town,Republic of Ireland
534,The Locke Bar,http://www.lockebar.com,+353(0)61413733,-8.62307103525882,52.6672177059966,Limerick,Limerick City,Republic of Ireland
537,Brogans Bar and Restaurant,http://www.brogansbarandrestaurant.com/,+353(0)656829480,-8.982675,52.843508,Clare,Ennis,Republic of Ireland
538,Knoxs Pub & Restaurant,http://www.knoxs.ie,+353(0)656829264,-8.982371,52.84494,Clare,Ennis,Republic of Ireland
541,The Old Thatch Bar,,+353(0)2495116,-7.992607,51.94265,Cork,Killeagh,Republic of Ireland
545,Raftery's  Bar & Restaurant,https://www.facebook.com/rafterysbar.craughwell,+353(0)91846708,-8.73386681349189,53.2294433967689,Galway,Craughwell,Republic of Ireland
561,Hi-Way Restaurant & Lounge Bar,http://www.hiwaybar.ie/,+353(0)61227449,-8.653787,52.63693,Limerick,Limerick City,Republic of Ireland
567,Finnegans Bar & Restaurant,,+353(0)61337338,-8.517996,52.672298,Limerick,Annacotty,Republic of Ireland
609,Murphy's Bar,,+353(0)91564589,-9.053615,53.271959,Galway,Galway City,Republic of Ireland
617,The Venue Bar & Restaurant,,+353(0)719168167,-8.596121,54.266859,Sligo,Strandhill,Republic of Ireland
621,Andy's Bar & Restaurant,http://www.andysmonaghan.com,+353(0)4782277,-6.972138,54.247728,Monaghan,Monaghan Town,Republic of Ireland
631,Hannigan's Bar & Restaurant,http://www.killarneyinternational.com,+353(0)646631816,-9.507589,52.058227,Kerry,Killarney,Republic of Ireland
636,McGilloway's Oyster Bar,,+353(0)749136438,-7.970647,55.183384,Donegal,Dunfanaghy,Republic of Ireland
642,John Benny's Pub,http://www.johnbennyspub.com,+353(0)669151215,-10.274483,52.139396,Kerry,Dingle ,Republic of Ireland
644,"Crockets on the Quay, Restaurant & Bar",,+353(0)9675930,-9.137234,54.131542,Mayo,Ballina,Republic of Ireland
656,Breathnach's Bar,http://www.breathnachs.ie,+353(0)567756737,-7.247966,52.653912,Kilkenny,Kilkenny City,Republic of Ireland
659,Lanigan's Bar & Restaurant,http://www.lanigans.ie,+353(0)567721718,-7.25137604239716,52.6515617662266,Kilkenny,Kilkenny City,Republic of Ireland
667,"Allo's Restaurant, Bar & Bistro",,+353(0)6822880,-9.484211,52.446586,Kerry,Listowel,Republic of Ireland
669,Horseshoe Bar & Restaurant,,+353(0)6821083,-9.486148,52.44625,Kerry,Listowel,Republic of Ireland
688,Garvey's Bar and Restaurant,http://www.garveysinn.com,+353(0)91562224,-9.047857,53.274315,Galway,Galway City,Republic of Ireland
693,The Dingle Pub,,+353(0)669151370,-10.267767,52.141447,Kerry,Dingle,Republic of Ireland
697,Clancys Bar & Istabraq Restaurant,,+353(0)61382488,-8.54794,52.476802,Limerick,Bruff,Republic of Ireland
735,Bulman Bar & Restaurant,http://www.thebulman.ie/,+353(0)214772131,-8.499702,51.700105,Cork,Kinsale,Republic of Ireland
770,Cellar Bar,http://www.merrionhotel.com/,+353(0)16030600,-6.252847,53.338538,Dublin,Dublin city centre,Republic of Ireland
771,Chorus Café,,+353(0)16167088,-6.269597,53.3443,Dublin,Temple Bar,Republic of Ireland
780,Duffy's Bar & Lounge,http://www.duffys.ie,+353(0)18450735,-6.154546,53.450756,Dublin,Malahide,Republic of Ireland
787,Harbourmaster Pub and Restaurant,http://www.harbourmaster.ie,+353(0)16701688,-6.24911,53.349766,Dublin,Dublin City,Republic of Ireland
792,Knightsbridge Bar,http://www.arlington.ie/knightsbridge-bar.html,+353(0)18049100,-6.260918,53.347243,Dublin,Dublin city centre,Republic of Ireland
794,La Cave Wine Bar & Restaurant,http://www.lacavewinebar.com,+353(0)16794409,-6.259714,53.341034,Dublin,Dublin City,Republic of Ireland
810,"Porterhouse, Temple Bar",http://www.porterhousebrewco.com,+353(0)16798847,-6.267354,53.3451,Dublin,Dublin City,Republic of Ireland
813,Sinnotts Bar,http://www.sinnotts.ie,+353(0)14784698,-6.262002,53.339967,Dublin,Dublin City,Republic of Ireland
818,The Octagon Bar,http://theclarence.ie/the-octagon/,+353(0)14070800,-6.266718,53.34525,Dublin,Dublin City,Republic of Ireland
820,The Temple Bar,http://www.thetemplebarpub.com,+353(0)16725287,-6.264189,53.345475,Dublin,Dublin City,Republic of Ireland
822,Toners Pub,http://www.tonerspub.ie,+353(0)16763090,-6.25238953372957,53.3377648315365,Dublin,Dublin City,Republic of Ireland
824,The Queens Bar & Restaurant,http://www.thequeens.ie,+353(0)12854569,-6.105047,53.277846,Dublin,Dalkey,Republic of Ireland
841,The Quays Bar & Restaurant,http://www.louisfitzgerald.com/quaystemplebar,+353(0)16713922,-6.263116,53.345635,Dublin,Dublin City,Republic of Ireland
849,O'Reilly's Bar,http://sublounge.ie/,+353(0)16716769,-6.254203,53.347168,Dublin,Dublin city centre,Republic of Ireland
851,The Vathouse Bar of Temple Bar,http://www.vathouse.ie,+353(0)16715622,-6.262143,53.344811,Dublin,Temple Bar,Republic of Ireland
874,Man O'War Pub and Restaurant,http://www.manowar.ie,+353(0)18415528,-6.184144,53.561764,Dublin,Balbriggan,Republic of Ireland
876,Ukiyo Bar,http://www.ukiyobar.com,+353(0)16334071,-6.263727,53.3429239999999,Dublin,Dublin City,Republic of Ireland
892,"McSwiggan's Restaurant, Pub and Cafe Bar",http://www.mcswiggans.com,+353(0)91568917,-9.052594,53.275025,Galway,Galway City,Republic of Ireland
1000,Temple Bar Food Market,http://www.templebar.ie/markets/article/temple-bar-food-market,+353(0)16772255,-6.265743,53.345328,Dublin,Dublin City Centre,Republic of Ireland
1040,O'Connor's Traditional Pub,,+353(0)646631115,-9.50959,52.059791,Kerry,Killarney ,Republic of Ireland
1057,McCaul's Bar,http://www.facebook.com/mccaulsbar/,+353(0)494331327,-7.361253,53.989853,Cavan,Cavan Town,Republic of Ireland
1058,Cruises Pub,http://www.irishcourthotels.com,+353(0)656841800,-8.981673,52.845492,Clare,Ennis,Republic of Ireland
1060,Gus O'Connors Pub,http://www.gusoconnorsdoolin.com,+353(0)657074168,-9.386564,53.012464,Clare,Doolin,Republic of Ireland
1061,McDermotts Bar and Restaurant,http://www.mcdermottspubdoolin.com,+353(0)657074328,-9.38513262375647,53.0162854188955,Clare,Doolin,Republic of Ireland
1063,Vaughans Pub Thatched Barn,http://www.vaughanspub.ie/index.php,+353(0)657088004,-9.219745,52.990062,Clare,Kilfenora,Republic of Ireland
1064,Corkery's Bar,,+353(0)2970153,-9.064081,52.060569,Cork,Millstreet,Republic of Ireland
1065,Cronin's Pub,http://www.croninspub.com,+353(0)214831207,-8.294643,51.801918,Cork,Crosshaven,Republic of Ireland
1068,The Hawthorn Bar,http://www.hawthornbar.com,+353(0)214962768,-8.488858,51.886167,Cork,Cork City,Republic of Ireland
1076,O'Donoghues Bar,http://www.odonoghues.ie,+353(0)16607194,-6.254168,53.338185,Dublin,Dublin City Centre,Republic of Ireland
1077,O'Sheas Merchant Pub,http://www.nedosheas.ie,+353(0)16793797,-6.27579046627045,53.3450062025317,Dublin,Dublin City,Republic of Ireland
1078,Old Punch Bowl Bar,http://www.theoldpunchbowl.ie,+353(0)12832356,-6.196742,53.308746,Dublin,Booterstown,Republic of Ireland
1081,The Oval Bar,http://www.theovalbar.com/,+353(0)18721264,-6.260296,53.348463,Dublin,Dublin 1,Republic of Ireland
1082,An Pucan Bar,http://www.twitter.com/anpucangalway,+353(0)857704605,-9.047446,53.274514,Galway,Galway City Centre,Republic of Ireland
1086,Richardson's,https://www.facebook.com/pages/Richardsons-Bar/145903408788441,+353(0)91562812,-9.048975,53.275065,Galway,Galway City Centre,Republic of Ireland
1087,Taaffes Bar,http://www.facebook.com/TaaffesBarGalway/,+353(0)91564066,-9.053145,53.27236,Galway,Galway City Centre,Republic of Ireland
1088,The Crane Bar,http://www.thecranebar.com,+353(0)91587419,-9.060512,53.269881,Galway,Galway City,Republic of Ireland
1089,Anglers Rest Bar,,+353(0)9543628,-9.963678,53.58852,Galway,Renvyle,Republic of Ireland
1090,Caitin's Pub,http://www.caitins.com,+353(0)669477614,-10.069571545429,52.0263279611113,Kerry,Kells,Republic of Ireland
1091,The Kings Head Bar,http://www.facebook.com/thekingsheadgalway/,+353(0)91566630,-9.053298,53.272134,Galway,Galway City Centre,Republic of Ireland
1096,O’Neills The Point Seafood Bar,http://www.oneillsthepoint.ie,+353(0)669472165,-10.2772447876968,51.9292530788385,Kerry,Cahersiveen,Republic of Ireland
1100,Timmy Mac's Bar And Bistro,http://www.woodlands-hotel.ie,+353(0)61605100,-8.76621951058962,52.5629877290945,Limerick,Adare,Republic of Ireland
1102,Golden Acres Pub,,+353(0)9632183,-9.223039,54.211398,Mayo,Killala,Republic of Ireland
1103,Bounty Bar,,+353(0)469431640,-6.79075,53.556411,Meath,Trim,Republic of Ireland
1105,Ryans Bar and Lounge,http://www.facebook.com/HelloRyans/,+353(0)61378438,-8.404965,52.710651,Tipperary,Newport,Republic of Ireland
1107,Holycross Bar And Restaurant,,+353(0)51358865,-7.178838,52.238458,Waterford,Waterford City,Republic of Ireland
1109,Gertie Browne's Bar,http://www.hatterslane.ie/gertie-brownes-pub-athlone.php,+353(0)906474848,-7.940225,53.423618,Westmeath,Athlone,Republic of Ireland
1111,Sean's Bar,http://www.seansbar.ie/home,+353(0)906492358,-7.942336,53.42266,Westmeath,Athlone,Republic of Ireland
1119,Mannions  Pub,http://www.mannionspub.ie,+353(0)51426510,-6.93689279046725,52.4144624913497,Wexford,New Ross,Republic of Ireland
1131,McNamaras Bar And Restaurant,,+353(0)61361050,-8.812279,52.696842,Clare,Bunratty,Republic of Ireland
1132,Myles Creek Bar and Restaurant,http://www.mylescreekbarguesthouse.ie/,+353(0)659056900,-9.648974,52.67823,Clare,Kilkee,Republic of Ireland
1140,Max's Wine Bar,http://www.maxs.ie/,+353(0)214772443,-8.522213,51.704585,Cork,Kinsale,Republic of Ireland
1154,Lanyons Restaurant,http://www.davenporthotel.ie/restaurant-bar.aspx,+353(0)16073500,-6.249883,53.341645,Dublin,Dublin City Centre,Republic of Ireland
1156,Old Street Wine Bar,,+353(0)18451882,-6.154802,53.451461,Dublin,Malahide,Republic of Ireland
1158,McGettigans Cookhouse & Bar,http://www.mcgettiganscookhouse.com/,+353(0)18559638,-6.250084,53.351796,Dublin,Dublin City Centre,Republic of Ireland
1173,The Mermaids Bar And Restaurant,,+353(0)6821184,-9.485721,52.447392,Kerry,Listowel,Republic of Ireland
1174,Lawlors Hotel Bar Food and Carvery,http://www.lawlors.ie/Lunch.htm,+353(0)45906444,-6.66049,53.219555,Kildare,Naas,Republic of Ireland
1182,The Marine Bar,,+353(0)5842520,-7.659584,52.04133,Waterford,Ring,Republic of Ireland
1317,La Boheme Restaurant and Wine Bar,http://www.labohemerestaurant.ie,+353(0)51875645,-7.11377853067108,52.261713872907,Waterford,Waterford City,Republic of Ireland
1340,Killeens Pub And Tackle Shop,,+353(0)909674112,-8.044893,53.27976,Offaly,Shannonbridge,Republic of Ireland
1388,B Bar,,+353(0)16185600,-6.248997,53.330533,Dublin,Dublin City,Republic of Ireland
1391,Hogan's Bar,,+353(0)16775904,-6.264604,53.341978,Dublin,Dublin City Centre,Republic of Ireland
1392,Sean Ogs Bar and Restaurant,http://uptoncourt.ie/kilmuckridge_bar,+353(0)539130128,-6.280268,52.517509,Wexford,Gorey,Republic of Ireland
1393,The Clarendon Bar,http://theclarendonbar.com,+353(0)16792909,-6.262431,53.341057,Dublin,Dublin City Centre,Republic of Ireland
1394,Odeon Nite Bar,http://www.odeon.ie,+353(0)14782088,-6.262809,53.334205,Dublin,Dublin City Centre,Republic of Ireland
1396,Brandons Bar,,+353(0)656841346,-8.983768,52.841428,Clare,Ennis,Republic of Ireland
1397,Cassidys Pub,http://www.cassidyspub.com,+353(0)657089109,-9.076522,53.035386,Clare,Carron,Republic of Ireland
1398,Molly's Bar,,+353(0)61376632,-8.438156,52.808854,Clare,Killaloe,Republic of Ireland
1399,The Old Lodge Gastro Pub,http://www.shannonspringshotel.com,+353(0)61364047,-8.861526089319,52.7149912057327,Clare,Shannon,Republic of Ireland
1402,Bells Bar,http://www.maldronhotelcork.com,+353(0)214529200,-8.474596,51.902753,Cork,Cork City,Republic of Ireland
1403,Bridge House Bar,,+353(0)2221057,-8.641057,52.132061,Cork,Mallow,Republic of Ireland
1406,O'Neill's Bar And Restaurant Cork,,+353(0)2773008,-10.044009,51.641474,Cork,Allihies,Republic of Ireland
1407,O'Reagan's Bar,,+353(0)2827621,-9.545359,51.526507,Cork,Schull,Republic of Ireland
1408,Roundy Bar,,+353(0)214222202,-8.476187,51.898741,Cork,Cork City,Republic of Ireland
1409,Dan Sheahan's Bar & Restaurant,http://www.dansheahansbar.com,+353(0)217331659,-8.6801962751465,51.8845428069255,Cork,Ovens,Republic of Ireland
1410,The Olde Fiddle Pub,,+353(0)2251187,-8.640744,52.135224,Cork,Mallow,Republic of Ireland
1412,Bonner's Corner Bar,,+353(0)749131361,-7.783248,54.799242,Donegal,Ballybofey,Republic of Ireland
1414,Olde Castle Bar,http://www.oldecastlebar.com,+353(0)749721262,-8.11047,54.654447,Donegal,Donegal Town,Republic of Ireland
1417,Alfie's Bar and Grill,http://www.conraddublin.com,+353(0)16028900,-6.257232,53.334945,Dublin,Dublin 2,Republic of Ireland
1419,Bowes Bar,http://www.doylesintown.com/bowes_bar,+353(0)16714038,-6.257896,53.345793,Dublin,Dublin City Centre,Republic of Ireland
1421,Charles Fitzgerald Pub,http://fitzgeraldsofsandycove.webs.com/,+353(0)12804469,-6.118598,53.285914,Dublin,Sandycove,Republic of Ireland
1422,The International Bar,http://www.international-bar.com,+353(0)16779250,-6.261746,53.343099,Dublin,Dublin City,Republic of Ireland
1425,Havana Tapas Bar,http://www.havana.ie,+353(0)14005990,-6.264667,53.343435,Dublin,Dublin City Centre,Republic of Ireland
1426,Irish Film Institute Cafe Bar,http://www.ifi.ie/cafebar,+353(0)16798712,-6.264943,53.344624,Dublin,Dublin City Centre,Republic of Ireland
1431,Madigan's Pub North Earl Street,http://www.madigansearlst.com/,+353(0)18740646,-6.25928658035661,53.3500294990138,Dublin,Dublin City Centre,Republic of Ireland
1436,Nearys Pub,,+353(0)16778596,-6.261229,53.340709,Dublin,Dublin City Centre,Republic of Ireland
1437,O'Neills Pub Pearse Street,http://www.oneillsdublin.com,+353(0)16714074,-6.252434,53.34491,Dublin,Dublin City Centre,Republic of Ireland
1440,Sandyford House Bar & Restaurant,http://www.sandyfordhouse.ie,+353(0)18824350,-6.22494535581972,53.269765453705,Dublin,Sandyford,Republic of Ireland
1444,The Bailey Bar,http://www.baileybarcafe.com,+353(0)16704939,-6.259432,53.342008,Dublin,Dublin City Centre,Republic of Ireland
1449,The Duke Pub,http://www.thedukedublin.com,+353(0)16799553,-6.25878,53.341978,Dublin,Dublin City Centre,Republic of Ireland
1450,The Globe Bar & Cafe,http://theglobe.ie/,+353(0)16711220,-6.264232,53.343391,Dublin,Dublin City,Republic of Ireland
1451,The Goat Bar and Grill,http://www.goatgrill.com,+353(0)12984145,-6.23084359921211,53.2901271053574,Dublin,Dublin 14,Republic of Ireland
1454,The Harp Lounge,http://www.carnegiecourthotel.com/harp-bar-pub-swords,+353(0)18404384,-6.217837,53.462472,Dublin,Swords,Republic of Ireland
1468,O'Boyles Pub,,+353(0)9345730,-8.603555,53.497203,Galway,Moylough,Republic of Ireland
1469,O'Connell's Bar Galway,,+353(0)91563634,-9.048343,53.274612,Galway,Galway City,Republic of Ireland
1470,O'Connor's Famous Pub,http://www.oconnorsbar.com,+353(0)91523468,-9.074596,53.261071,Galway,Salthill,Republic of Ireland
1471,Murty Rabbitt's Bar And Restaurant,https://www.facebook.com/Murty-Rabbitts-170087023085549/?rf=192316184117671,+353(0)91566490,-9.047148,53.274823,Galway,Galway City.,Republic of Ireland
1473,Sally Long's Bar,,+353(0)91565756,-9.053671,53.274022,Galway,Galway City,Republic of Ireland
1474,The Bunch Of Grapes Bar,,+353(0)91563325,-9.05386,53.27158,Galway,Galway City,Republic of Ireland
1477,Buckley's Bar,http://www.arbutuskillarney.com,+353(0)646631037,-9.50609,52.059566,Kerry,Killarney,Republic of Ireland
1479,Falvey's Bar And Lounge,,+353(0)669761384,-9.784358,52.106247,Kerry,Killorglin,Republic of Ireland
1480,Fertha Bar And Restaurant,,+353(0)669472023,-10.225852,51.946301,Kerry,Cahersiveen,Republic of Ireland
1481,Harty Costello Bar And Restaurant,,+353(0)6827129,-9.671038,52.511473,Kerry,Ballybunion,Republic of Ireland
1482,Páidí Ó'Sé's Pub,,+353(0)669159011,-10.3562523477783,52.1334006426255,Kerry,Dingle,Republic of Ireland
1483,Sheahan's Bar,,+353(0)6821250,-9.486056,52.448436,Kerry,Listowel,Republic of Ireland
1484,Spillane's Bar & Restaurant,http://www.spillanesbar.com,+353(0)667139125,-10.040051,52.303064,Kerry,Castlegregory,Republic of Ireland
1487,The Laune Bar And Restaurant,,+353(0)646632722,-9.510079,52.058956,Kerry,Killarney ,Republic of Ireland
1488,Fallon's Bar & Café,http://www.fallonb.ie/,+353(0)45481260,-6.74185,53.131511,Kildare,Kilcullen,Republic of Ireland
1489,Victors Bar and Restaurant,http://www.clubhousehotel.com/vistors-bar-restaurant-kilkenny.html,+353(0)567721994,-7.251784,52.649348,Kilkenny,Kilkenny,Republic of Ireland
1491,Riverview Bar and The Terrace Kitchen,http://www.rivercourthotel.com/en/dining/,+353(0)567723388,-7.248748,52.652697,Kilkenny,Kilkenny,Republic of Ireland
1492,Shirleys Pub,https://www.facebook.com/shirleys.kells,+353(0)567728302,-7.273304,52.539815,Kilkenny,Kells,Republic of Ireland
1494,O' Donoghues Pub,,+353(0)578621199,-7.30315,53.033397,Laois,Portlaoise,Republic of Ireland
1498,Fitzpatricks Bar & Restaurant,http://www.fitzpatricks-restaurant.com,+353(0)429376193,-6.293797,54.008628,Louth,Dundalk,Republic of Ireland
1499,McHughs Bar & Venue,http://mchughsvenue.ie/,+353(0)419835995,-6.346796,53.71607,Louth,Drogheda,Republic of Ireland
1501,Rouses  Bar,,+353(0)9621083,-9.154936,54.113847,Mayo,Ballina,Republic of Ireland
1503,Harnans Pub,http://www.facebook.com/harnanspub/,+353(0)862645565,-6.804578,53.487893,Meath,Rathmolyon,Republic of Ireland
1504,Jacks Railway Bar,,+353(0)879034792,-6.881864,53.721507,Meath,Kells,Republic of Ireland
1505,Tara Na Ri Pub,http://www.facebook.com/tnari,+353(0)469021460,-6.62067,53.603723,Meath,Navan ,Republic of Ireland
1506,John Langs Pub,,+353(0)719163105,-8.523584,54.393201,Sligo,Grange,Republic of Ireland
1507,Talbot Bar,https://www.facebook.com/TheTalbotBar,+353(0)6731211,-8.198041,52.861862,Tipperary,Nenagh,Republic of Ireland
1508,Anchor Bar Dungarvan,http://www.facebook.com/anchorbardungarvan?fref=ts,+353(0)5841249,-7.618756,52.089821,Waterford,Dungarvan,Republic of Ireland
1510,Enterprise Bar,http://www.facebook.com/Tynans1954/,+353(0)5841327,-7.621457,52.089632,Waterford,Dungarvan,Republic of Ireland
1511,Geoffs Bar,,+353(0)51874787,-7.111912,52.25811,Waterford,Waterford,Republic of Ireland
1513,The Moorings Bar,http://www.mooringsdungarvan.com/,+353(0)5841461,-7.617106,52.089558,Waterford,Dungarvan,Republic of Ireland
1514,The Palace Bar,https://www.facebook.com/ThePalaceBarAthlone,+353(0)906492229,-7.943798,53.423381,Westmeath,Athlone,Republic of Ireland
1515,Boggans Pub And Restaurant,,+353(0)539230181,-6.284169,52.513256,Wexford,Gorey,Republic of Ireland
1518,Christy's Lounge and Bar,https://www.facebook.com/Christys.Arklow/,+353(0)40229029,-6.153261,52.798203,Wicklow,Arklow,Republic of Ireland
1521,The Grove Bar,,+353(0)12874604,-6.11019,53.122138,Wicklow,Delgany,Republic of Ireland
1523,The Old Ship,http://vfi.ie/Pub/4537-The-Old-Ship,+353(0)40232271,-6.153912,52.798303,Wicklow,Arklow,Republic of Ireland
1545,McGrattans Cafe Bar,http://www.mcgrattans.ie,+353(0)16618808,-6.25125,53.338537,Dublin,Dublin City,Republic of Ireland
1556,Druid's Restaurant & The Kingfisher Bar,http://www.celticrosshotel.com,+353(0)238848722,-9.02894,51.57588,Cork,Rosscarbery,Republic of Ireland
1563,Nancy Hands Bar & Restaurant,http://www.nancyhands.ie/,+353(0)16770149,-6.294083,53.348189,Dublin,Dublin City,Republic of Ireland
1567,Arnie's Bar And Restaurant,,+353(0)667136074,-9.8579,52.301299,Kerry,Ardfert,Republic of Ireland
1568,Lobster Bar And Restaurant,,+353(0)669474629,-10.171821,51.827055,Kerry,Waterville,Republic of Ireland
1576,O'Reilly's Bar & Restaurant - Kilkenny Ormonde,http://www.kilkennyormonde.com,+353(0)567723900,-7.253222,52.649597,Kilkenny,Kilkenny,Republic of Ireland
1577,Scott's Bar and Gulliver's Restaurant,,+353(0)567760500,-7.250455,52.66436,Kilkenny,Kilkenny,Republic of Ireland
1583,The Roundwood Inn,http://visitwicklow.ie/food-drink/the-roundwood-inn-pub-restaurant/,+353(0)12818107,-6.225072,53.064572,Wicklow,Roundwood,Republic of Ireland
1609,Fitzsimons Temple Bar,http://www.fitzsimonshotel.com/,+353(0)16779315,-6.265291,53.345582,Dublin,Dublin City Centre,Republic of Ireland
1615,Whiskey Corner Bar & Restaurant,http://www.templebarhotel.com,+353(0)16773333,-6.260386,53.345836,Dublin,Fleet Street,Republic of Ireland
1621,Ashe's Bar And Restaurant,,+353(0)667130133,-9.909061,52.220557,Kerry,Tralee,Republic of Ireland
1622,Cable Bar And Restaurant,http://www.watervillegolflinks.ie,+353(0)669474102,-10.172045,51.831567,Kerry,Waterville,Republic of Ireland
1625,The Oarsman Pub,http://www.theoarsman.com/,+353(0)719621733,-8.094772,53.943912,Leitrim,Carrick-On-Shannon,Republic of Ireland
1629,Bar and Restaurant at the Haven Hotel,http://www.thehavenhotel.com/bar-food,+353(0)51383150,-6.995921,52.152231,Waterford,Dunmore East,Republic of Ireland
1634,Dry Dock Bar,http://www.ferrycarrighotel.com,+353(0)539120999,-6.506171,52.35414,Wexford,Ferrycarrig Bridge,Republic of Ireland
1649,Keoghs Bar,http://www.keoghsballyconneely.com/,+353(0)9523522,-10.075687,53.431148,Galway,Ballyconneely,Republic of Ireland
1651,Brogans Bar,,+353(0)16799570,-6.266366,53.344308,Dublin,Dublin City Centre,Republic of Ireland
1655,Egans Bar,,+353(0)657081430,-9.391873,52.938301,Clare,Liscannor,Republic of Ireland
1658,Lavelles Pub,,+353(0)9826049,-9.521616,53.800049,Mayo,Westport,Republic of Ireland
1659,Jake's Bar at Lynhams Hotel,http://www.lynhamsoflaragh.ie/,+353(0)40445345,-6.297239,53.008103,Wicklow,Glendalough,Republic of Ireland
1660,"Monks Ballyvaughan, Seafood Restaurant & Bar",http://www.monks.ie,+353(0)657077059,-9.15469914207415,53.1197614461439,Clare,Ballyvaughan,Republic of Ireland
1662,The Quays Bar,http://www.louisfitzgerald.com/quaysgalway,+353(0)91568347,-9.053915,53.271083,Galway,Galway City Centre,Republic of Ireland
1675,The Pembroke Seafood Bar & Grill,http://www.flynnhotels.com/Imperial_Hotel_Cork,+353(0)214274040,-8.470184,51.897162,Cork,Cork City,Republic of Ireland
1676,Goldsmiths,http://www.montclarehotel.ie/restaurant-and-bar.aspx,+353(0)16073800,-6.250999,53.341397,Dublin,Dublin City Centre,Republic of Ireland
1689,Knightsbridge Bar,http://www.arlington.ie/terrace-cafe.html,+353(0)18049100,-6.26068263615889,53.3473046454548,Dublin,O'Connell Bridge,Republic of Ireland
1691,Buswells Hotel Bar,http://www.buswells.ie/,+353(0)16146500,-6.25578,53.340756,Dublin,Dublin,Republic of Ireland
1693,Johnnie Fox's Pub and Restaurant,http://www.jfp.ie,+353(0)12955647,-6.219301,53.221711,Dublin,Kilternan,Republic of Ireland
1694,Magic Glasses Bar,http://www.stephensgreenhotel.ie/dining-en.html,+353(0)16073600,-6.263403,53.337401,Dublin,Dublin City,Republic of Ireland
1695,McDaids Pub,,+353(0)16794395,-6.261003,53.341221,Dublin,Dublin City,Republic of Ireland
1697,No 1 Merrion Street Bar,http://www.ocallaghanhotels.com,+353(0)16073800,-6.250999,53.341397,Dublin,Dublin City,Republic of Ireland
1698,Mulligans Pub,http://www.mulligans.ie,+353(0)16775582,-6.255612,53.346915,Dublin,Dublin City,Republic of Ireland
1701,The Portobello,http://www.portobellohotel.ie/Bar/,+353(0)14752715,-6.264121,53.330367,Dublin,Dublin City,Republic of Ireland
1702,The Shelbourne Hotel Horseshoe Bar,http://www.shelbournedining.ie,+353(0)16634500,-6.256063,53.339053,Dublin,Dublin City,Republic of Ireland
1707,Sheries Café Bar,http://www.sheries.ie/index.htm,+353(0)18747237,-6.25898,53.34872,Dublin,Dublin City Centre,Republic of Ireland
1708,"The Harcourt Hotel, Bar and Restaurant",http://www.harcourthotel.ie,+353(0)14783677,-6.262743,53.334425,Dublin,Dublin City Centre,Republic of Ireland
1710,The Pie Dish Bistro,http://www.stephensgreenhotel.ie/restaurant-bar.aspx,+353(0)16073600,-6.263403,53.337401,Dublin,Dublin City Centre,Republic of Ireland
1728,The Waterloo Bar,http://www.thewaterloobarandgrill.ie,+353(0)16600650,-6.24327377794452,53.333331716237,Dublin,Dublin City,Republic of Ireland
1729,Turks Head,http://www.paramounthotel.ie/turks-head.html,+353(0)16799701,-6.267649,53.344687,Dublin,Temple Bar,Republic of Ireland
1745,O'Connor's Bar,http://www.cloghane.com,+353(0)667138113,-10.182211,52.234693,Kerry,Dingle Peninsula,Republic of Ireland
1753,Market Bar,http://www.marketbar.ie,+353(0)16139094,-6.264005,53.342066,Dublin,Dublin City,Republic of Ireland
1809,Wilkins Bar,http://www.wilkinsbar.com,+353(0)749137019,-7.891871,54.988575,Donegal,Letterkenny,Republic of Ireland
1822,Maunsells Dining Pub & Off Licence,http://www.maunsellsbar.com,+353(0)579323394,-7.46646576721195,53.2674298479357,Offaly,Tullamore,Republic of Ireland
1830,John Joes Pub,https://www.facebook.com/pages/John-Joes-Pub/126677320695732,+353(0)749738493,-8.592044,54.632345,Donegal,Kilcar,Republic of Ireland
1831,JC Doorly's Pub,http://www.facebook.com/J.C.Doorlys.Bar/,+353(0)906626224,-8.190225,53.631879,Roscommon,Roscommon Town,Republic of Ireland
1841,Lough Lounge Bar & Restaurant at the Four Seasons Hotel Carlingford,http://www.4seasonshotelcarlingford.ie,+353(0)429373530,-6.181558,54.039306,Louth,Carlingford,Republic of Ireland
1844,Carlingford Arms Bar & Restaurant,http://www.carlingfordarms.com,+353(0)429373418,-6.186799,54.040425,Louth,Carlingford,Republic of Ireland
1858,Pepper's Bar and Restaurant,http://www.peppersoffeakle.com,+353(0)61924322,-8.636988,52.930951,Clare,Feakle,Republic of Ireland
1860,Teach Ui Bhriain Bar and The Island Restaurant,,+353(0)61921249,-8.540447,52.898728,Clare,Tuamgraney,Republic of Ireland
1868,"Canny’s Bar, Shop and Filling Station",,+353(0)61925148,-8.703296,52.9888,Clare,Near Feakle,Republic of Ireland
1869,Shortt's Bar and Lounge,http://www.visiteastclare.ie/company/shortts-bar-feakle/,+353(0)61924277,-8.649228,52.925882,Clare,Feakle,Republic of Ireland
1870,Slas Powerhouse Bar,,+353(0)656835880,-8.756135,52.867064,Clare,Tulla,Republic of Ireland
1871,Mc Namara’s Bar & Restaurant,,+353(0)61921020,-8.531733,52.910557,Clare,Scarriff,Republic of Ireland
1872,Ryan's Bar and Restaurant,,+353(0)61921167,-8.532148,52.91065,Clare,Scarriff,Republic of Ireland
1873,The Dungeon Bar,http://www.kinnittycastlehotel.com,+353(0)579137318,-7.697808,53.102557,Offaly,Birr,Republic of Ireland
1874,The Library Bar,http://www.kinnittycastle.com,+353(0)579137318,-7.697808,53.102557,Offaly,Kinnitty,Republic of Ireland
1876,The Thatch Pub,http://www.thethatchcrinkill.com,+353(0)579120682,-7.898239,53.079904,Offaly,Birr,Republic of Ireland
1879,"The Moving Stairs, Pub & Restaurant",,+353(0)719663586,-8.302482,53.970171,Roscommon,Boyle,Republic of Ireland
1921,Blue Bar,http://bluebar.ie/,+353(0)18490900,-6.104939,53.584985,Dublin,Skerries,Republic of Ireland
1936,Furey's Bar & Restaurant,https://www.facebook.com/pg/fureysbarmoyvalley/about/?ref=page_internal,+353(0)469551185,-6.916225,53.429487,Kildare,Moyvalley,Republic of Ireland
1940,Smiths Bar,,,-8.62344,52.663431,Limerick,Limerick City,Republic of Ireland
1943,Jerry Flannery's Bar,,+353(0)61414450,-8.627186,52.66136,Limerick,Limerick City,Republic of Ireland
1945,Hughies Bar & Gastro Bar,http://www.facebook.com/Hughies-Bar-Killybegs-197537020278602/,+353(0)749731095,-8.444233,54.6368,Donegal,Killybegs,Republic of Ireland
1958,Hackett's Bar,http://www.schull.ie,+353(0)2828625,-9.545365,51.526891,Cork,Schull,Republic of Ireland
1970,Casey's Steak Bar,http://www.facebook.com/pages/Caseys-Steak-Bar/171551066223046,+353(0)494337105,-7.407927,53.932403,Cavan,Ballinagh,Republic of Ireland
1985,O'Dwyers Bar,http://www.odwyersbar.com,+353(0)61315072,-8.633279,52.656375,Limerick,Limerick City Centre,Republic of Ireland
1989,The Beach House Bar & Restaurant,http://www.thebeachhouse.ie,+353(0)749361050,-7.4633,55.128447,Donegal,Buncrana,Republic of Ireland
2012,Bollard's Bar,https://www.facebook.com/pages/Bollards-Bar-Restaurant/195451840471515,+353(0)567761319,-7.253595,52.653486,Kilkenny,Kilkenny City,Republic of Ireland
2023,The Bailey Cafe Bar,http://www.thebailey.ie,+353(0)539230353,-6.568305,52.502699,Wexford,Enniscorthy,Republic of Ireland
2057,The Old Town Whiskey Bar,http://www.oldtownwhiskeybar.com,+353(0)214273756,-8.477051,51.899586,Cork,Cork City,Republic of Ireland
2069,Templars Inn Seafood Bar & Restaurant,http://www.thetemplarsinn.com/,+353(0)51397162,-6.894691,52.180042,Wexford,Feathard On Sea,Republic of Ireland
2123,PJ's Bar & Restaurant,http://www.pjoharescarlingford.com,+353(0)429373106,-6.186989,54.040011,Louth,Carlingford,Republic of Ireland
2125,The Rosses Bar & Restaurant,,+353(0)749543834,-8.352964,55.029753,Donegal,Kincasslagh,Republic of Ireland
2130,Windsor Bar and Restaurant,http://www.windsorbar.com,+353(0)429338146,-6.406087,53.999341,Louth,Dundalk,Republic of Ireland
2131,Healy's Café Bar,https://www.facebook.com/Healys-Cafe-Bar-More-Than-A-Pub-An-Experience-192494256885/,+353(0)949254863,-8.795629,53.964714,Mayo,Charlestown,Republic of Ireland
2133,Weirs Bar & Restaurant,http://www.weirsmultyfarnham.ie,+353(0)449371111,-7.390757,53.624644,Westmeath,Multyfarnham,Republic of Ireland
2138,The Prince Bar,http://www.theprinceofwales.ie/dine/the-prince-bar/,+353(0)906476666,-7.938442,53.423941,Westmeath,Athlone,Republic of Ireland
2144,Kayne's Bar & Bistro,http://www.dromhall.com,+353(0)646639300,-9.506293,52.053312,Kerry,Killarney,Republic of Ireland
2145,Butler's Bar and Restaurant,https://www.facebook.com/Butlers-Bar-Lounge-842816739084638/,+353(0)539131736,-6.382356,52.217281,Wexford,Broadway,Republic of Ireland
2147,Revoultion Craft Bar,http://www.revolutionwaterford.com,+353(0)51844444,-7.1118452159385,52.2574845763833,Waterford,Waterford City,Republic of Ireland
2173,Kate Browne's Pub and Restaurant,http://www.katebrownes.com,+353(0)667134055,-9.780146,52.325741,Kerry,Ardfert,Republic of Ireland
2174,Kavanaghs Pub - The Wrens Nest,http://www.kavanaghsportlaoise.com,+353(0)578621744,-7.298033,53.034229,Laois,Portlaoise,Republic of Ireland
2184,Roches Bar,http://www.rochesbar.ie/,+353(0)51389188,-6.933865,52.221329,Wexford,The Hook Peninsula,Republic of Ireland
2186,"Nevilles Bar, Fethard on Sea",http://www.nevilles.ie,+353(0)51397160,-6.839195,52.190743,Wexford,New Ross,Republic of Ireland
2187,The Spinnaker Bar,http://www.thespinnakerbar.com,+353(0)51383133,-6.995264,52.155769,Waterford,Dunmore East,Republic of Ireland
2193,The Bards Den Restaurant & Pub,http://www.bardsden.com,+353(0)9541042,-9.947931,53.553605,Galway,Letterfrack,Republic of Ireland
2199,Osta Cafe & Wine Bar,http://www.osta.ie/,+353(0)719144639,-8.473931,54.272019,Sligo,Sligo Town,Republic of Ireland
2271,Shanley's Piano Bar,,+353(0)238833790,-8.888962,51.621767,Cork,Clonakilty,Republic of Ireland
2272,Larkin's Bar and Restaurant,http://www.larkins.ie,+353(0)6723232,-8.345846,52.904587,Tipperary,Nenagh,Republic of Ireland
2273,Ó'Donnabháin's Bar,http://www.odonnabhain-kenmare.com,+353(0)646642106,-9.583696,51.879306,Kerry,Kenmare,Republic of Ireland
2325,"MV Cill Airne, Dublin's Floating Restaurant & Bar on the River Liffey",http://www.mvcillairne.com,+353(0)18178760,-6.236833,53.347152,Dublin,Dublin City Centre,Republic of Ireland
2326,"No. 27 Bar & Lounge, Shelbourne Hotel",http://www.shelbournedining.ie,,-6.256063,53.339053,Dublin,Dublin City Centre,Republic of Ireland
2354,The Field Bar & Restaurant,http://www.thefieldkilkenny.com,+353(0)567702763,-7.25206990674587,52.6505981069472,Kilkenny,Kilkenny City,Republic of Ireland
2371,MJ Henry's Bar,http://www.facebook.com/mjhenrys/,+353(0)861450901,-8.158707,53.984401,Roscommon,Boyle,Republic of Ireland
2378,Corkery's Bar,http://www.facebook.com/Corkeryskillarney/?rf=114925838581948,+353(0)646671831,-9.510097,52.059845,Kerry,Killarney,Republic of Ireland
2412,The Coach House Pub,http://coachhousegorey.com/,+353(0)539421280,-6.291106,52.676728,Wexford,Gorey,Republic of Ireland
2416,Michael Flannerys Bar,http://www.flannerysbar.ie,+353(0)61436677,-8.623443,52.663237,Limerick,Limerick City,Republic of Ireland
2422,Cornerstone Bar & Restaurant,,+353(0)657081277,-9.34619,52.932035,Clare,Lahinch,Republic of Ireland
2425,Jimmyz Bar,,+353(0)868124624,-6.235921,52.639086,Wexford,Courtown,Republic of Ireland
2444,Mulroy's Bar,,+353(0)949028954,-9.298815,53.85615,Mayo,Castlebar,Republic of Ireland
2446,The Tavern Bar & Restaurant,http://www.tavernmurrisk.com,+353(0)9864060,-9.630957,53.7782,Mayo,Westport,Republic of Ireland
2448,Iragh Tí Connor - Kilcooly's Bar & Restaurant,http://www.golfballybunion.com,+353(0)6827112,-9.67236,52.511535,Kerry,Ballybunion,Republic of Ireland
2455,Martine's Restaurant and Wine Bar,http://www.winebar.ie,+353(0)91565662,-9.054209,53.270881,Galway,Galway City Centre,Republic of Ireland
2548,Dillons Bar and Restaurant,http://www.vfi.ie/Pub/4676-Dillons,+353(0)656836395,-9.175123,52.87724,Clare,Ennis,Republic of Ireland
2549,The Club House Bar & Restaurant,,+353(0)9782292,-10.037006,54.225337,Mayo,Belmullet (Béal an Mhuirthead),Republic of Ireland
2555,Kehoes Pub And Parlour,,,-6.57658837481578,52.1782100646129,Wexford,Kilmore Quay,Republic of Ireland
2607,Connolly's Bar,http://www.facebook.com/connollys.bar,+353(0)91637131,-8.936346,53.139083,Galway,Kinvara,Republic of Ireland
2626,The Beach Bar,http://www.thebeachbarsligo.com,+00353(0)719176465,-8.757269,54.268984,Sligo,Templeboy,Republic of Ireland
2632,Griffin's Bar,,+353(0)9521370,-10.021501,53.488737,Galway,Clifden,Republic of Ireland
2637,Sheridan's Bar & Restaurant,http://www.sheridansmilltown.com,+353(0)9351313,-8.900796,53.615006,Galway,Milltown,Republic of Ireland
2653,Charlie Farrelly's Bar,http://www.facebook.com/Charley-Farrellys-Bar-Carrigallen-Leitrim-112853038737179/,+353(0)868552494,-7.644717,53.976821,Leitrim,Carrigallen,Republic of Ireland
2676,Patrick Larkin Bar & Lounge,http://www.larkinsbar.com,+353(0)469731594,-7.051238,53.343337,Offaly,Edenderry,Republic of Ireland
2683,Hibernian Bar and Harpers Restaurant,http://www.kilkennyhibernianhotel.com/harpers.html,+353(0)56-7771888,-7.25205127340768,52.6501958143292,Kilkenny,Kilkenny City,Republic of Ireland
2692,The Grapevine Wine & Tapas Bar,http://www.thegrapevinetapasbar.com,+353(0)567712956,-7.251243,52.651388,Kilkenny,Kilkenny City,Republic of Ireland
2693,"The Marble City Bar, Gastro-Pub & Tea Rooms",http://www.langtons.ie/marble-city-bar/,+353(0)567761143,-7.25353417790984,52.6530204241547,Kilkenny,Kilkenny City,Republic of Ireland
2699,The Munster Bar,http://themunsterbar.com,+353(0)51874656,-7.106371,52.260236,Waterford,Waterford City,Republic of Ireland
2717,Browne's Bar,http://www.brownesbar.com,+353(0)667142900,-9.463827,52.230728,Kerry,Castleisland,Republic of Ireland
2762,Stathams Bar & Restaurant,http://www.kilkennypembrokehotel.com,+353(0)567783500,-7.251331,52.649364,Kilkenny,Kilkenny City,Republic of Ireland
2810,Castlerea Railway Museum and Pub,http://www.hellskitchenmuseum.com,+353(0)872308152,-8.49493790478516,53.7698702240711,Roscommon,Castlerea,Republic of Ireland
2940,Fureys Pub,http://www.facebook.com/fureyspubsligo,+353(0)879583080,-8.471407,54.271932,Sligo,Sligo,Republic of Ireland
2963,Gilbert & Wright Wine Bar Swords,http://www.gilbertandwright.ie,+353(0)18408400,-6.220057,53.456576,Dublin,Swords,Republic of Ireland
2967,The Creamery Bar & Restaurant,http://www.creamerybar.com,+353(0)61364114,-8.813534,52.696582,Clare,Bunratty,Republic of Ireland
2970,The Glen Tavern Pub,http://www.glentavern.ie,+353(0)61411380,-8.630667,52.661149,Limerick,Limerick,Republic of Ireland
2971,Harrigan’s Bar and Restaurant,http://www.harrigans.ie,+353(0)45487704,-6.7947088048935,53.1822630609845,Kildare,Newbridge,Republic of Ireland
2972,Slevin’s,https://www.facebook.com/pages/Slevins-Pub/102423933167644,+353(0)18251068,-6.476548,53.419233,Meath,Dunboyne,Republic of Ireland
2974,The Tower Bar,http://www.facebook.com/Tower.Bar.Cork?ref=ts,+353(0)214304427,-8.476962,51.905069,Cork,Cork City,Republic of Ireland
2986,Raftery's Bar & Restaurant,https://www.facebook.com/rafterysbar.craughwell,+353(0)91846708,-8.733899,53.229559,Galway,Craughwell,Republic of Ireland
2992,Crotty’s Bar,http://www.crottyspubkilrush.com,+353(0)659052470,-9.484644,52.638247,Clare,Kilrush,Republic of Ireland
3004,Castle Bar,http://www.facebook.com/castlebardundalk,+353(0)429339841,-6.40370742426762,54.000148051597,Louth,Dundalk,Republic of Ireland
3006,Hartys Bar,http://www.hartyscloyne.com/,+353(0)214652401,-8.12008774313051,51.8624431756611,Cork,Cloyne,Republic of Ireland
3016,Kelly’s Pub,http://www.facebook.com/kellys.ashbourne/timeline,+353(0)18350173,-6.3832447,53.5641156,Meath,Ashbourne,Republic of Ireland
3019,O’Gormans Bar and Restaurant,http://www.ogormans.ie,+353(0)578682921,-7.2637949,53.0409417,Laois,Portlaoise,Republic of Ireland
3021,The Forge Bar and Restaurant,http://www.theforgepubmoycullen.com,+353(0)91868944,-9.1804162,53.3390963,Galway,Moycullen,Republic of Ireland
3022,The Forge Bar and Restaurant,,+353(0)91868944,-9.1804162,53.3390963,Galway,Moycullen,Republic of Ireland
3023,Kaz Bar,http://kazbar.ie,+353(0)51843730,-7.11168237079471,52.2581013779971,Waterford,Waterford City,Republic of Ireland
3028,Crossroads Bar,http://www.crossroadsbistrobar.com,+353(0)2241633,-8.67068327475341,52.2358130168056,Cork,Buttevant,Republic of Ireland
3030,Reddy's Bar and Restaurant,http://reddyscarlow.ie/,+353(0)599142224,-6.9263059,52.8361036,Carlow,Carlow Town,Republic of Ireland
3040,Flanagan's Gastro Pub,http://www.flanaganspub.ie,+353(0)949380101,-8.87657285620332,53.7220960000579,Mayo,Claremorris,Republic of Ireland
3041,Peter's Pub,http://www.peterspub.ie,+353(0)16793347,-6.26328141776957,53.3409636146571,Dublin,Dublin 2,Republic of Ireland
3042,Merry Ploughboy Pub Traditional Nights,http://www.mpbpub.com,+353(0)14931495,-6.2838544,53.3004978,Dublin,Rathfarnham,Republic of Ireland
3044,Front Door & Sonnys Bar and Restaurant,,+353(0)91563757,-9.053705,53.271604,Galway,Galway,Republic of Ireland
3047,Busker Brownes Bar,,+353(0)91563377,-9.05349823081201,53.2712740052167,Galway,Galway,Republic of Ireland
3048,The Cellar Bar,http://www.thecellar.ie/,+353(0)91563966,-9.0516928974838,53.2741942964205,Galway,Galway City,Republic of Ireland
3049,Derg Inn Bar,http://www.derginn.ie,,-8.2064856,53.0547737,Tipperary,Terryglass,Republic of Ireland
3051,Paddy Cullens Pub,http://www.paddycullens.com,+353(0)16684492,-6.22912111163736,53.3286089111142,Dublin,Dublin 4,Republic of Ireland
3061,Padraicins Seafood Bar & Lounge,http://www.padraicins.com,+353(0)91592444,-9.22468516931155,53.248715488833,Galway,Furbo,Republic of Ireland
3063,Cleeres Pub,http://www.cleeres.com,+353(0)567762573,-7.255182,52.655157,Kilkenny,Kilkenny City,Republic of Ireland
3066,Hanged Man's Pub,https://www.facebook.com/HangedMans-168881112472/,+353(0)45431515,-6.86465442380369,53.2034359944232,Kildare,Newbridge,Republic of Ireland
3067,Paddy's Bar & Restaurant,http://www.paddysbar.ie,+353(0)6722147,-8.2032300534729,53.05477510174,Tipperary,Terryglass,Republic of Ireland
3071,Muskerry Arms Bar,http://www.muskerryarms.com,+353(0)214385200,-8.5669615,51.9343585,Cork,Blarney,Republic of Ireland
3084,MacCarthys Bar Glengarriff,http://www.glengarriffpark.com/maccarthysbar.html,+353(0)2763000,-9.54965008130238,51.7501834890034,Cork,Glengarriff,Republic of Ireland
3095,Cox's Bar and Steak House,http://www.coxs-steakhouse.com/,,-7.9208348,53.8575697,Leitrim,Dromod,Republic of Ireland
3096,Kelly's Bar,,,-8.29513694370268,51.850468458603,Cork,Cork,Republic of Ireland
3101,Ollie Hayes Pub,http://www.olliehayesbar.com/,+353(0)868213939,-7.9559568,52.8816309,Offaly,Moneygall,Republic of Ireland
3103,Solas Bar & Restaurant,http://www.solasbars.com,+353(0)14780583,-6.2657269,53.336943,Dublin,Dublin 2,Republic of Ireland
3112,Quealy's Bar,http://www.lsbmarketing.ie/clients/quealys-bar-dungarvan-pub/,+353(0)5824555,-7.62225614603266,52.0894539269498,Waterford,Dungarvan,Republic of Ireland
3115,Shelbourne Bar,http://www.facebook.com/ShelbourneBar/,+353(0)214509615,-8.46803996997528,51.9014637617376,Cork,Cork City,Republic of Ireland
3128,Buskers Bar,http://www.buskersbar.com/,+353(0)866629575,-6.26046509830393,53.3457932167002,Dublin,Dublin City,Republic of Ireland
3144,The Esquire  Bar & Restaurant,http://www.esquire.ie,+353(0)51381324,-7.15246731534421,52.1610729096953,Waterford,Tramore,Republic of Ireland
3145,Bridge House Bar,,+353(0)579325600,-7.492504,53.274812,Offaly,Offaly,Republic of Ireland
3147,Uluru Bar and Restaurant,,+353(0)51855333,-7.084588,52.247561,Waterford,Waterford,Republic of Ireland
3158,Slí na Sláinte walking route - Westport,http://www.irishheart.ie/media/pub/slinaslainte/westport_sl_brochure_08.04.2010.pdf,+353(0)949024444,-9.52246170827879,53.8013859491182,Mayo,Castlebar,Republic of Ireland
3163,Arthur's Bar at the Courtyard Hotel,http://www.courtyard.ie/arthurs-bar.html,+353(0)877531040,-6.4886016587219,53.3639632494801,Kildare,Leixlip,Republic of Ireland
3164,Geary's Bar,http://www.facebook.com/Gearys-Bar-301764543170225,+353(0)6321002,-8.6830658,52.354765,Cork,Charleville,Republic of Ireland
3165,Munster Bar,,+353(0)667123257,-9.695327,52.263036,Kerry,Tralee,Republic of Ireland
3166,Spillane's Bar & Restaurant,http://www.spillanesbar.com,+353(0)667139125,-10.040051,52.303064,Kerry,Castlegregory,Republic of Ireland
3171,McGann's Pub,,+353(0)872069629,-9.37196,53.018236,Clare,Doolin,Republic of Ireland
3172,Mickey Finn's Pub,http://www.wicklowbrewery.ie/,+353(0)40441661,-6.144167,52.889167,Wicklow,Redcross,Republic of Ireland
3184,Seasons Restaurant at  Mulroy's Bar,http://www.seasonsmulroys.com/,+353(0)949028954,-9.298815,53.85615,Mayo,Castlebar,Republic of Ireland
3189,Thomond Bar,http://www.thomond-bar.20m.com/index.html,+353(0)214279747,-8.472956,51.898206,Cork,Cork,Republic of Ireland
3190,Sheridan's Bar & Restaurant,http://www.sheridansmilltown.com,+353(0)9351313,-8.900796,53.615006,Galway,Milltown,Republic of Ireland
3207,O’Dea’s Bar De Bucket,http://www.facebook.com/debucketbar,+353(0)61353028,-8.76604927116397,52.6200253921983,Limerick,Kildimo,Republic of Ireland
3223,Olesya's Wine Bar & Bistro,http://www.olesyaswinebar.com/,+353(0)16724087,-6.26326532451548,53.3429829544694,Dublin,Dublin,Republic of Ireland
3224,The Celt Bar,http://www.thecelt.ie/,+353(0)18788655,-6.25499339191355,53.3505646337133,Dublin,Dublin,Republic of Ireland
3227,"The Thatched Cottage Restaurant, Bar and Banquet Room",http://www.thethatchedcottage.ie,+353(0)6731426,-8.24443041115649,52.891342024558,Tipperary,Nenagh,Republic of Ireland
3242,Larkins Pub Restaurant B&B,http://www.larkinspub.ie,+353(0)669767217,-9.717521,52.145046,Kerry,Milltown,Republic of Ireland
3252,Talbot's Seafood Bar,http://www.thetalbothotel.ie/bars-restaurants-mayo,+353(0)9720484,-9.98546,54.22331,Mayo,Belmullet (Béal an Mhuirthead),Republic of Ireland
3257,Bosh Bar & Restaurant,http://www.bosh.ie,+353(0)949250534,-9.297926,53.858137,Mayo,Castlebar,Republic of Ireland
3261,The Glyde Inn Bar & Linn Duachaill Restaurant,http://www.theglydeinn.ie,+353(0)429372350,-6.344,53.886,Louth,Castlebellingham,Republic of Ireland
3263,Granvilles Bar & Restaurant,http://www.facebook.com/GranvillesBarRestaurant,+353(0)2620191,-8.9588478,51.9048039,Cork,Macroom,Republic of Ireland
3274,Henrys Bar & Restaurant,,+353(0)719173985,-8.5202916045655,54.3582154965507,Sligo,Sligo,Republic of Ireland
3275,Aunty Lena's Bar,http://www.auntylenas.com,+353(0)61396114,-8.79094,52.564096,Limerick,Adare,Republic of Ireland
3279,Bugler Doyles Bar,http://www.buglerdoyles.ie/,+353(0)539122261,-6.459559,52.335959,Wexford,Wexford,Republic of Ireland
3289,Hurley's Bar,http://www.hurleysbar.com,+353(0)214778200,-8.595968,51.66657,Cork,Kinsale,Republic of Ireland
3290,JJ O'Malley's Bar and Restaurant,http://www.jjomalleys.ie/,+353(0)9827307,-9.522869,53.798723,Mayo,Westport,Republic of Ireland
3291,The Abbey Bar,,+353(0)238848945,-9.031674,51.577483,Cork,Rosscarbery,Republic of Ireland
3315,The Huntsman Bar and Restaurant,http://thehuntsmanbelgooly.com/wp/,+353(0)214770666,-8.4836522846283,51.7362580798279,Cork,Kinsale,Republic of Ireland
3329,Stirrup & Reel Bar at Bloomfield House Hotel,http://www.bloomfieldhousehotel.ie/Stirup-and-Reel-Bar.html,+353(0)449340894,-7.3714555,53.4784663,Westmeath,Mullingar,Republic of Ireland
3336,The Poachers Inn Seafood Bar & Restaurant,,+353(0)238841159,-8.74515004045486,51.7394286693151,Cork,Bandon,Republic of Ireland
3346,La Caverna Restaurant and Wine Bar,http://www.lacaverna.ie,+353(0)16703110,-6.26329992331352,53.3451117012618,Dublin,Dublin City,Republic of Ireland
3349,The White House Bar & Bistro,https://www.whitehouse-kinsale.ie/accommodation-kinsale/restaurant,+353(0)214772125,-8.52336997249142,51.7065122970405,Cork,Kinsale,Republic of Ireland
3363,McHale's Bar and Grill,http://www.raheenwoodshotel.ie/wine-dine.html,+353(0)91875888,-8.76227432937355,53.3004307594447,Galway,Athenry,Republic of Ireland
3387,Patrick's Bar and Carvery at the Springfield Hotel Leixlip,http://www.springfieldhotel.ie/barandcarvery.html,+353(0)14581142,-6.47942891838989,53.3604663164002,Kildare,Leixlip,Republic of Ireland
3394,Ocean Bar and Grill,http://www.oceanbarandgrill.ie,+353(0)12865071,-6.10496937258194,53.1998548112539,Wicklow,Bray,Republic of Ireland
3399,The Maple Bar at Hotel Westport,http://www.hotelwestport.ie/TheMapleBar.html,+353(0)9825122,-9.527588730719,53.8013975778997,Mayo,Westport,Republic of Ireland
3407,Aperitif - Wine & Tapas Bar,http://www.aperitifkinsale.com,+353(0)214772209,-8.52417533685331,51.7057512682578,Cork,Kinsale,Republic of Ireland
3415,Bailey's Bar at Clanard Court Hotel,http://www.clanardcourt.ie/baileys-bar-bistro.html,+353(0)598640666,-6.95970258826901,52.9986713145027,Kildare,Athy,Republic of Ireland
3418,Bailey's Bar & Bistro at Clanard Court Hotel,http://www.clanardcourt.ie/baileys-bar-bistro.html,+353(0)598640666,-6.95982060546566,52.9987035993578,Kildare,Kildare,Republic of Ireland
3423,Conservatory Bar at The Glenview Hotel,http://www.glenviewhotel.com/conservatory-bistro-and-bar.html,+353(0)12873399,-6.12686839807781,53.1421473314142,Wicklow,Delgany,Republic of Ireland
3431,Pier Head Bar & Restaurant,http://www.pierhead.ie,+353(0)91638188,-8.93809821904903,53.140404378776,Galway,Kinvara,Republic of Ireland
3443,O'Keeffe's Bar and Restaurant,http://www.okeeffesbar.com/,+353(0)16287225,-6.66796504966805,53.3994289988318,Kildare,Kilcock,Republic of Ireland
3450,The Parnell Heritage Pub & Grill,http://www.theparnell.com,,-6.26208783558195,53.3522175258894,Dublin,Dublin City,Republic of Ireland
3452,The Skeff Bar & Kitchen,http://www.theskeff.ie/,+353(0)91563173,-9.0499071517288,53.274178000352,Galway,Galway,Republic of Ireland
3481,Sheridan's Cheesemongers & Wine Bar,http://www.sheridanscheesemongers.com,+353(0)91564829,-9.054295,53.2724638,Galway,Galway City,Republic of Ireland
3484,Celtic Designs,http://www.celticdesigns.ie,+353(0)16718835,-6.26323907301639,53.3449106594101,Dublin,Temple Bar,Republic of Ireland
3487,Harrys Bar and Gastro Pub,http://www.harrysrossespoint.com,+353(0)719177173,-8.55569502321782,54.305555871556,Sligo,Rosses Point,Republic of Ireland
3553,Fota Wildlife Park Slí na Sláinte,http://www.irishheart.ie/media/pub/slinaslainte/maps/fota_wildlife_island_map_railw183fb.pdf,,-8.31807422644044,51.895436196525,Cork,Carrigtwohill,Republic of Ireland
3647,Wrights Cafe Bar Swords,http://www.wrightscafebar.ie,+353(0)18406744,-6.22002976441808,53.4565908014639,Dublin,Swords,Republic of Ireland
3672,The Great Southern Garden Room Restaurant,http://www.greatsouthernkillarney.com/dining-and-bar.html,+353(0)646638000,-9.50279423439338,52.05894162841,Kerry,Killarney,Republic of Ireland
3673,The Hollow Bar and Seafood Restaurant,,+353(0)51389230,-6.91903753417966,52.2455307105274,Wexford,Co. Wexford,Republic of Ireland
3679,Eno' Bar & Grill,http://www.eno.ie,+353(0)429355467,-6.39954432023773,54.0046006305646,Louth,Dundalk,Republic of Ireland
3695,The Horse Show House Pub,http://www.horseshowhouse.ie/,+353(0)16689424,-6.22894636109924,53.3285421159668,Dublin,Ballsbridge,Republic of Ireland
3696,The Great Southern Hotel Brownes Bar,http://www.greatsouthernkillarney.com/dining-and-bar.html,+353(0)646638000,-9.50255820000007,52.0589284351476,Kerry,Killarney,Republic of Ireland
3699,Orso Kitchen and Bar,https://www.orso.ie,+353(0)212438000,-8.4698432,51.8975342,Cork,Cork City,Republic of Ireland
3712,Mullingar Park Hotel Horseshoe Bar,http://www.mullingarparkhotel.com/horse-shoe-bar.html,+353(0)449337500,-7.30227009141845,53.5228846862788,Westmeath,Mulingar,Republic of Ireland
3715,Bar and Restaurant At Enniscrone Golf Club,http://www.enniscronegolf.com/restaurant-2/,+353(0)9636297,-9.10363115820314,54.2062003747503,Sligo,Sligo,Republic of Ireland
3718,Madigan's Pub Kilbarrack,http://www.madigan.ie/,+353(0)18483575,-6.16709203807749,53.3885183939726,Dublin,Dublin City Suburbs North,Republic of Ireland
3720,Slieve League Lodge,http://www.slieveleaguelodge.com/bar-restaurant.htm,,-8.633836,54.657436,Donegal,Carrick,Republic of Ireland
3722,Madigan's Pub O'Connell Street,http://www.madigansdublin.com/,+353(0)18743692,-6.26051267196658,53.3514281326651,Dublin,Dublin City,Republic of Ireland
3723,Madigan's Pub Abbey Street,http://www.madigansabbeyst.com/,+353(0)18745456,-6.25884229999996,53.3486457988709,Dublin,Dublin City,Republic of Ireland
3728,"Imperial Hotel, Bar and Restaurant",http://www.imperialhoteltralee.com,+353(0)667127755,-9.7052089,52.2684812,Kerry,Tralee,Republic of Ireland
3748,O'Donnell's Bar & Restaurant,http://www.facebook.com/O-Donnells-Bar-Restaurant-Mounthawk-968212503238718/?fref=ts,+353(0)667189961,-9.7222399,52.282131,Kerry,Tralee,Republic of Ireland
3766,Ballinastoe Slí,http://www.irishheart.ie/iopen24/pub/slinaslainte/maps/roundwood_brochure.pdf,+353(0)16685001,-6.22117757426792,53.0704186337059,Dublin,Ballsbridge,Republic of Ireland
3771,Con and Maura's Bar Clonakilty,,+353(0)238834065,-8.888343,51.6232619,Cork,Clonakilty,Republic of Ireland
3774,Ballyroe Heights Hotel Bar & Restaurant,http://www.ballyroe.com,+353(0)667126796,-9.72798263752395,52.2859897690295,Kerry,Tralee,Republic of Ireland
3780,The Abbey Inn Bar & Restaurant,http://www.theabbeyinntralee.com,+353(0)667123390,-9.70197702968596,52.2718625293154,Kerry,Tralee,Republic of Ireland
3789,The Central Bar & Restaurant,http://www.thecentral.ie,+353(0)469027999,-6.68379494753693,53.6510992266215,Meath,Navan,Republic of Ireland
3792,Keanes of Curraheen Bar & Restaurant,http://www.keanesofcurraheen.com,+353(0)667128054,-9.7868713,52.2433588,Kerry,Tralee,Republic of Ireland
3796,Christina's Cafe & Wine Bar,http://www.facebook.com/Christinas-Cafe-Wine-Bar-926697120714525,+353(0)667181857,-9.7062841,52.2691276,Kerry,Tralee,Republic of Ireland
3804,Lilys Bar and Tea Room,http://www.lilysmalin.com,+353(0)749332969,-7.26361326243955,55.2943797684817,Donegal,Malin,Republic of Ireland
3810,West End Bar & Restaurant,http://www.westendfenit.ie,+353(0)667136246,-9.8523678027343,52.2822327854676,Kerry,Tralee,Republic of Ireland
3813,Gally's Bar & Restaurant,http://www.facebook.com/gallys.bar,+353(0)667192250,-9.6897258,52.2565112,Kerry,Tralee,Republic of Ireland
3819,Farren's Bar,https://www.facebook.com/pages/Farrens-Bar/195549303807809,+353(0)749370128,-7.3363421,55.3682768,Donegal,Malin Head,Republic of Ireland
3821,Olde Castle Bar,http://www.oldecastlebar.com,+353(0)749721262,-8.11047,54.654447,Donegal,Donegal Town,Republic of Ireland
3829,"Earl of Desmond Hotel, Bar & Restaurant",http://www.earlofdesmond.com,+353(0)667121299,-9.6619895,52.2521579,Kerry,Tralee,Republic of Ireland
3835,Charlie St George Traditional Bar,http://www.parnellplaza.ie,+353(0)61279900,-8.6254897,52.6593702,Limerick,Limerick City,Republic of Ireland
3836,Manor West Bar & Bistro,http://www.manorwesthotel.ie,+353(0)667194500,-9.67511093342238,52.2605703553364,Kerry,Tralee,Republic of Ireland
3845,Friel's Pub,https://www.facebook.com/frielspub,+353(0)657085883,-9.40124529259037,52.8545145303559,Clare,Miltown Malbay,Republic of Ireland
3850,Linnane's Lobster Bar,http://www.linnanesbar.com,+353(0)657078120,-9.1008522,53.1546131,Clare,The Burren,Republic of Ireland
3868,Jimmy Brien's Bar,,+353(0)879613482,-9.50583676190183,52.0598760691443,Kerry,Killarney,Republic of Ireland
3869,Celtic Tales - The Crane Bar,http://rabfultonstories.weebly.com/,+353(0)838653317,-9.060383,53.269875,Galway,Galway City,Republic of Ireland
3886,Mary's Bar & Hardware Shop,http://marysbar.ie,+353(0)16708629,-6.2603886,53.3428702,Dublin,Dublin City,Republic of Ireland
3897,Mourne Seafood Bar,http://www.mourneseafood.com,+353(0)16688862,-6.2369196,53.3428408,Dublin,Charlotte Quay,Republic of Ireland
3905,Cleaver East,http://www.cleavereast.ie,+353(0)15313500,-6.2666435,53.3450254,Dublin,Temple Bar,Republic of Ireland
3907,Garage Bar,https://www.facebook.com/GarageBarDublin,+353(0)16796543,-6.2657111,53.3451729,Dublin,Temple Bar,Republic of Ireland
3910,Vintage Cocktail Club,http://vintagecocktailclub.com/,+353(0)16753547,-6.2629597,53.3450623,Dublin,Temple Bar,Republic of Ireland
3916,Siopaella,http://www.siopaella.com,+353(0)16779106,-6.2641517,53.3445774,Dublin,Temple Bar,Republic of Ireland
3919,Tír na nÓg Bar & Restaraunt,https://www.facebook.com/TirnanOg.Bialann?fref=ts,+353(0)91593863,-9.4655489,53.2403113,Galway,Inverin,Republic of Ireland
3921,Eden Bar & Grill,http://www.edenbarandgrill.ie,+353(0)16706887,-6.2623051,53.3427211,Dublin,Dublin City,Republic of Ireland
3929,Quinlan's Seafood Bar,http://www.kerryfish.com,+353(0)646620666,-9.509752,52.0593688,Kerry,Killarney,Republic of Ireland
3944,The Cavern Bar,http://www.thecavern.ie,+353(0)749126733,-7.7382605,54.9480407,Donegal,Letterkenny,Republic of Ireland
3946,O'Donnell's Bar,http://www.odonnellsbar.com,+353(0)879186336,-10.181838,52.235723,Kerry,Tralee,Republic of Ireland
3954,Foleys Bar & Restaurant,http://www.foleys.ie,+353(0)16610115,-6.2558351,53.3388963,Dublin,Dublin City,Republic of Ireland
3955,Reillys Bar,http://www.foleys.ie,+353(0)16610115,-6.2558351,53.3388963,Dublin,Dublin City,Republic of Ireland
3957,Indigo and Cloth,http://indigoandcloth.com/,+353(0)16706403,-6.26616576679532,53.3451712148735,Dublin,Temple Bar,Republic of Ireland
3959,Padraicins Seafood Bar & Lounge,http://www.padraicins.com,+353(0)91592444,-9.22468516931155,53.248715488833,Galway,Furbo,Republic of Ireland
3974,Mother Reilly’s Bar & Restaurant at Uppercross Hotel,http://www.uppercrosshousehotel.com,+353(0)14975486,-6.26525375819699,53.3208367347816,Dublin,Rathmines,Republic of Ireland
3978,The Snug Bar,https://www.facebook.com/TheSnugSligo,+353(0)867348994,-8.48080712641232,54.2713073010575,Sligo,Sligo Town,Republic of Ireland
3979,The Tankard Bar and Seafood Restaurant,http://www.thetankardkerry.com/,+353(0)667136164,-9.8595306147581,52.2797083924763,Kerry,Tralee,Republic of Ireland
3980,Andy's Bar and Restaurant,http://www.andysnenagh.com/,+353(0)6732494,-8.20244681838528,52.8634593788446,Tipperary,Nenagh,Republic of Ireland
3989,Singing Pub,http://www.thesingingpub.ie/,+353(0)879171950,-7.84222509487267,55.1943249474732,Donegal,Downings,Republic of Ireland
4000,Kealys Seafood Bar,http://www.kealysseafoodbar.ie,+353(0)749381010,-6.98188497781182,55.2032925868761,Donegal,Greencastle,Republic of Ireland
4004,Moore's Pub and Restaurant,http://www.mooresofgrangecon.com,+353(0)878251714,-6.74282199088793,52.9982220717719,Wicklow,Dunlavin,Republic of Ireland
4012,Katie Daly's Bar and Restaurant,http://www.katiedalys.ie,+353(0)539483920,-6.2939601,52.6756859,Wexford,Gorey,Republic of Ireland
4017,HOUSE Wine Bar & Tap Room,https://www.facebook.com/housewinebarandtaproom,+353(0)863445108,-7.73671587256198,54.9511565041299,Donegal,Letterkenny,Republic of Ireland
4028,Sol y Sombra Tapas Bar & Restaurant,http://www.facebook.com/solysombraireland,+353(0)669762347,-9.78731205227656,52.1057280359857,Kerry,Killorglin,Republic of Ireland
4036,JC's Bar,http://www.downingsbayhotel.com,+353(0)749155586,-7.84222509487267,55.1943249474732,Donegal,Downings,Republic of Ireland
4038,An Sibin Bar & Restaurant,https://www.facebook.com/AranIslandsHotel,+353(0)9961104,-9.67561171738282,53.117802237923,Galway,Aran Islands,Republic of Ireland
4072,Seán Óg's Bar & Restaurant,https://www.facebook.com/seanogs,+353(0)749531999,-8.2966732953821,55.0714629916905,Donegal,Derrybeg,Republic of Ireland
4082,The Central Bar,http://www.thecentralbar-lk.com,+353(0)749124088,-7.73671587256198,54.9511565041299,Donegal,Letterkenny,Republic of Ireland
4092,Coyne's Bar & Bistro,https://www.facebook.com/pages/Tigh-Chadhain-Coynes-Bar-Bistro/148319605207664,+353(0)9533409,-9.73526644569984,53.3209297243891,Galway,Kilkieran,Republic of Ireland
4098,The Bridge Bar,http://www.moorings.ie,+353(0)669477108,-10.3693339931225,51.8837274514345,Kerry,Portmagee,Republic of Ireland
4099,Bar Square,http://www.barsquare.ie,+353(0)9621894,-9.15507203231098,54.1151859688673,Mayo,Ballina,Republic of Ireland
4101,The Coachouse Bar & Bistro at The Old Imperial Hotel,http://www.theoldimperialhotel.com,,-7.85000887835155,51.9555091439785,Cork,Youghal,Republic of Ireland
4108,McGourtys Bar,http://www.mcgourtysbar.com,+353(0)872599404,-8.48725829687942,53.766178477503,Roscommon,Castlerea,Republic of Ireland
4110,Walker’s Bar and Coffee,http://www.walkersbar.ie,+353(0)879637553,-10.2692550723326,52.1412568337814,Kerry,Dingle,Republic of Ireland
4126,Veldons Seafarer Bar & Restaurant,http://www.veldons.ie,+353(0)9541046,-9.94819065314982,53.5541222839805,Galway,Connemara,Republic of Ireland
4127,Veldons Seafarer Bar & Restaurant,http://www.veldons.ie,+353(0)9541046,-9.94819065314982,53.5541222839805,Galway,Connemara,Republic of Ireland
4137,The Pins Gastro Bar featuring Pizza Dozzina,http://www.thetwelvehotel.ie,+353(0)91597000,-9.15123220943474,53.2504350432091,Galway,Barna,Republic of Ireland
4150,Lowry’s Irish Music and Whiskey Bar,http://www.lowrysbar.ie/,+353(0)9521347,-10.0221869292136,53.4880980446473,Galway,Clifden,Republic of Ireland
4158,Dillons Bar and Grill,http://www.dillons-hotel.ie/grill.html,+353(0)749122977,-7.7367,54.95081,Donegal,Letterkenny,Republic of Ireland
4185,Pinocchio Italian restaurant & Wine bar,http://www.flavourofitaly.net/content/8-pinocchio-restaurant,+353(0)14970111,-6.25598079140172,53.3261483296159,Dublin,Ranelagh,Republic of Ireland
4186,Mary Murrin's Bar and Restaurant,http://www.facebook.com/marymurrinsbar,+353(0)749737061,-8.38859453517216,54.6400007468425,Donegal,Bruckless,Republic of Ireland
4205,The Gallery Bar,http://www.solislougheskecastle.ie,+353(0)749725100,-8.06617,54.6882,Donegal,Donegal Town,Republic of Ireland
4216,Austies Bar and Restaurant,http://www.austies.ie,+353(0)719117786,-8.5653045392703,54.3047401211802,Sligo,Rosses Point,Republic of Ireland
4251,Harrison's bar and restaurant,http://www.harrisonscliffoney.com/,+353(0)719166123,-8.45366992716067,54.4302077091662,Sligo,Cliffony,Republic of Ireland
4255,Thomas Connolly Bar,http://thomasconnollysligo.com,+353(0)719194920,-8.48080712641232,54.2713073010575,Sligo,Sligo,Republic of Ireland
4261,Garavan’s Bar,http://garavans.ie,+353(0)91562637,-9.04947254971209,53.2721788149031,Galway,Galway City,Republic of Ireland
4263,Murphy’s Harley-Davidson,http://harley.ie,+353(0)15160643,-6.26368439999998,53.3447367,Dublin,Temple Bar,Republic of Ireland
4276,The Towers Bar and Restaurant,http://thetowersbar.com,+353(0)9824844,-9.54302698338108,53.8015312424543,Mayo,Westport,Republic of Ireland
4298,Temple Bar Night Market,http://templebarnightmarket.com,+353(0)19602300,-6.26311681232448,53.3454785309812,Dublin,Temple Bar,Republic of Ireland
4301,Skylon Bar & Grill,http://dublinskylonhotel.com/bar-grill-drumcondra-dublin.html,+353(0)18843900,-6.25307835952457,53.3726165364077,Dublin,Dublin,Republic of Ireland
4334,The North Pole Bar,http://the-north-pole-bar.com,+353(0)749361349,-7.4140688949534,55.2556503987197,Donegal,Clonmany,Republic of Ireland
4345,Bar Rua,http://barrua.ie,+353(0)14414425,-6.2624311,53.3410567,Dublin,Dublin City,Republic of Ireland
4356,Sailor’s Bar & Restaurant,http://www.goexplorehostel.ie/bar-restaurant/,+353(0)9836307,-9.95301,53.80156,Mayo,Clare Island,Republic of Ireland
4376,O’Reilly’s Bar & Kitchen,http://oreillysbarandkitchen.ie,+353(0)91522610,-9.0766095,53.2596078,Galway,Galway City,Republic of Ireland
4427,Considine’s Bar,http://www.facebook.com/considines,+353(0)877986513,-9.42104139598382,52.9531583518799,Clare,Liscannor,Republic of Ireland
4440,Eatokyo Japanese Restaurant,http://eatokyo.ie,+353(0)15348576,-6.26257564047546,53.3461109905133,Dublin,Temple Bar,Republic of Ireland
4442,Beach Bar Surf School,http://beachbarsurfschool.com/,+353(0)860738869,-8.757129,54.269282,Sligo,Aughris Head,Republic of Ireland
4461,SALT Restaurant and Bar,https://saltgalway.com/,+353(0)91448441,-9.0749933,53.2604214,Galway,Galway,Republic of Ireland
4542,Johnnie Fox's Pub and Restaurant,http://www.jfp.ie,,-6.219193,53.22172,Dublin,Dublin City,Republic of Ireland
4566,Merry Ploughboy Pub Traditional Nights,http://www.mpbpub.com,,-6.2970059,53.264244,Dublin,Rathfarnham,Republic of Ireland
4590,Celtic Whiskey Bar & Larder,http://www.celticwhiskeybar.com,,-9.51122,52.0588,Kerry,Killarney,Republic of Ireland
4724,Gill’s Bar and Restaurant,http://gillsathenry.wordpress.com,+353(0)91844728,-8.74805192910719,53.2987609993671,Galway,Athenry,Republic of Ireland
4725,Hennessy's Pub,http://facebook.com/hennessysofferbane/,+353(0)906453963,-7.82772190734021,53.2714190332339,Offaly,Ferbane,Republic of Ireland
4751,The Harbour Restaurant and Bar,https://www.facebook.com/TheHarbourRestaurantDonegalTown,+353(0)749721702,-8.11101270436859,54.6527199696178,Donegal,Donegal Town,Republic of Ireland
4781,John Shaws Pub,http://www.facebook.com/Shaws-Of-Summerhill-1791039907884628/,+353(0)469557025,-6.732831,53.482286,Meath,Summerhill,Republic of Ireland
4809,"The Church, Café, Late Bar & Restaurant",http://www.thechurch.ie,+353 1 828102,-6.26693,53.34856,Dublin,Dublin City,Republic of Ireland
4810,"The Church, Café, Late Bar and Restaurant",http://www.thechurch.ie,+353(0)18280102,-6.26669964781569,53.3486200402974,Dublin,Dublin,Republic of Ireland
4814,3 Day Western Rocker Tour - Shamrocker Adventures,http://www.shamrockeradventures.com,+353(0)16727651,-6.269701,53.343801,Dublin,Temple Bar,Republic of Ireland
4816,5 Day Giant's Rocker Tour - Shamrocker Adventures,http://www.shamrockeradventures.com,+353(0)16727651,-6.269701,53.343801,Dublin,Temple Bar,Republic of Ireland
4820,3 Day Southern Tour - Shamrocker Adventures,http://www.shamrockeradventures.com,+353(0)16727651,-6.269701,53.343801,Dublin,Temple Bar,Republic of Ireland
4822,5 Day Celtic Rocker Tour - Shamrocker Adventures,http://www.shamrockeradventures.com,+353(0)16727651,-6.269701,53.343801,Dublin,Temple Bar,Republic of Ireland
4901,Ulysses Pub at the Greville Arms,http://www.grevillearmshotel.ie/eat-drink.html,+353(0)449348563,-7.34081513732314,53.5255924115327,Westmeath,Mullingar,Republic of Ireland
4905,E Brún,http://facebook.com/ebrun.bar/,+353(0)91565821,-9.05705690183504,53.2711630015141,Galway,Galway,Republic of Ireland
4908,Merry Ploughboy Irish Music Pub,http://mpbpub.com,+353(0)14931495,-6.29700524079203,53.2642455724764,Dublin,Dublin City,Republic of Ireland
4926,Malzards Pub and Hurling Experience,http://www.malzards.com,+353(0)879715304,-7.22671537103212,52.5360108990585,Kilkenny,Stoneyford,Republic of Ireland
4947,10 Fleet Street Restaurant & Bar,http://themorgan.com/en/10-fleet-street,+353(0)16437000,-6.26123221008219,53.345795818709,Dublin,Dublin City,Republic of Ireland
4948,Peacockes Fireside Bar and Restaurant,http://peacockes.ie/dining/bar-and-restaurant,+353(0)91552306,-9.53950125376354,53.4560864533688,Galway,Recess,Republic of Ireland
4971,Dennehy’s Bar,http://dennehysbar.com,+353(0)214272343,-8.47663360463502,51.9000999621624,Cork,Cork City,Republic of Ireland
4972,The Bayview Bar,https://facebook.com/bayviewbardungloe1,+353(0)749561682,-8.36098286132187,54.9511851048997,Donegal,Dungloe,Republic of Ireland
4984,Dicey Reillys Bar,,+353(0)14784066,-6.26367,53.335825,Dublin,Dublin City Centre,Republic of Ireland
4995,Ely Bar and Brasserie,http://www.elywinebar.ie/restaurants/ely-bar-brasserie,+353(0)16720010,-6.247944,53.348446,Dublin,Dublin ,Republic of Ireland
5028,Henry's Bistro & Wine Bar,https://henrysbistroandwinebar.ie,+353(0)656899393,-8.98536177430025,52.8419935328413,Clare,Ennis,Republic of Ireland
5042,JP Clarke’s Country Pub,http://gallaghersofbunratty.com/about-jp-clarkesbar,+353(0)61363363,-8.81583766627159,52.6991873818808,Clare,Bunratty,Republic of Ireland
5052,Zozimus Bar,https://zozimusbar.ie,+353(0)15369640,-6.25973654328026,53.3405882807492,Dublin,Dublin City,Republic of Ireland
5065,Owen Traynor Bar & Grocery,https://facebook.com/Owen-Traynor-125291630874060,+353(0)498541236,-7.16301590255761,53.7694696575694,Meath,Oldcastle,Republic of Ireland
5070,The Maple Tree Bar & Bistro,http://themapletree.ie,+353(0)14580477,-6.4464133698591,53.279491573567,Dublin,Saggart,Republic of Ireland
5076,LEON Restaurant,https://leon.co/ie,+353(0)12552552,-6.26290792016425,53.344972375066,Dublin,Temple Bar,Republic of Ireland
5089,OBNOXIOUS. Pub Tours,http://obnoxioustours.com,+353(0)831106043,-6.25893623949287,53.3472772166836,Dublin,Dublin City,Republic of Ireland
5095,Alex Findlater & Co. – Oyster & Seafood Bar,http://alexfindlaterandco.ie,+353(0)61516450,-8.62851094269297,52.6621256531982,Limerick,Limerick City,Republic of Ireland
