ID,NAME,URL,TELEPHONE,LONGITUDE,LATITUDE,ADDRESS_REGION,ADDRESS_LOCALITY,ADDRESS_COUNTRY
41,Druids Heath,http://www.druidsglenresort.com/golf-courses-wicklow.html,+353(0)12812278,-6.080229,53.091752,Wicklow,Newtownmountkennedy,Republic of Ireland
46,Strandhill Golf Club,http://www.strandhillgolfclub.com,+353(0)719168188,-8.604375,54.265578,Sligo,Strandhill,Republic of Ireland
47,Tubbercurry Golf Club,http://www.tubbercurrygolfclub.com,+353(0)719185849,-8.714401,54.052979,Sligo,Tubbercurry,Republic of Ireland
48,Knockanally Golf and Country Club,http://www.knockanally.com,+353(0)45869322,-6.784568,53.385285,Kildare,Donadea,Republic of Ireland
49,Kilkenny Golf Club,http://www.kilkennygolfclub.com,+353(0)567765400,-7.249659,52.671434,Kilkenny,Kilkenny City,Republic of Ireland
50,The Heath Golf Club Portlaoise,http://www.theheathgc.ie,+353(0)578646533,-7.213381,53.060311,Laois,Portlaoise,Republic of Ireland
51,County Longford Golf Club,http://www.countylongfordgolfclub.com,+353(0)433346310,-7.781031,53.721072,Longford,Longford,Republic of Ireland
52,Ardee Golf Club,http://www.ardeegolfclub.com,+353(0)416853227,-6.547894,53.861957,Louth,Ardee,Republic of Ireland
53,Greenore Golf Club,http://www.greenoregolfclub.com,+353(0)429373212,-6.136248,54.031342,Louth,Greenore,Republic of Ireland
54,Courtown Golf Club,http://www.courtowngolfclub.com,+353(0)539425166,-6.231333,52.659506,Wexford,Courtown,Republic of Ireland
55,Enniscorthy Golf Club,http://www.enniscorthygc.ie,+353(0)539233191,-6.594386,52.489221,Wexford,Enniscorthy,Republic of Ireland
56,Rosslare Golf Club,http://www.rosslaregolf.com,+353(0)539132203,-6.393435,52.28415,Wexford,Rosslare,Republic of Ireland
57,Blainroe Golf Club,http://www.blainroe.com,+353(0)40468168,-6.017685,52.945031,Wicklow,Blainroe,Republic of Ireland
58,Wexford Golf Club,http://www.wexfordgolfclub.ie,+353(0)539142238,-6.46569871031192,52.3265610514227,Wexford,Wexford,Republic of Ireland
59,Charleville Golf Club,http://www.charlevillegolf.com,+353(0)6381257,-8.723963,52.347375,Cork,Charleville,Republic of Ireland
60,Cork Golf Club,http://www.corkgolfclub.ie,+353(0)214353451,-8.354392,51.901428,Cork,Little Island,Republic of Ireland
61,Rathsallagh Golf Club,http://www.rathsallagh.com,+353(0)45403316,-6.738988,53.026141,Wicklow,Dunlavin,Republic of Ireland
62,Wicklow Golf Club,http://www.wicklowgolfclub.ie,+353(0)40467379,-6.026081,52.975045,Wicklow,Wicklow Town,Republic of Ireland
63,Fota Island Resort,http://www.fotaisland.ie/Welcome-to-Fota-Island-Golf-Club,+353(0)214883700,-8.291177,51.898761,Cork,Fota Island,Republic of Ireland
64,Woodenbridge Golf Club,http://www.woodenbridge.com,+353(0)40235202,-6.230618,52.83331,Wicklow,Arklow,Republic of Ireland
65,Clonmel Golf Club,http://www.clonmelgolfclub.com,+353(0)526124050,-7.651233,52.333158,Tipperary,Clonmel,Republic of Ireland
66,Dunmore East Golf Club,http://www.dunmoreeastgolfclub.ie,+353(0)51383151,-6.98707047088623,52.1580107886287,Waterford,Dunmore East,Republic of Ireland
67,Muskerry Golf Club,http://www.muskerrygolfclub.ie,+353(0)214385297,-8.609023,51.918108,Cork,Carrigrohane,Republic of Ireland
68,Faithlegg House Hotel & Golf Club,http://www.faithlegg.com,+353(0)51380587,-7.025256,52.2581,Waterford,Faithlegg,Republic of Ireland
69,Skibbereen & West Carbery Golf Club,http://www.skibbgolf.com,+353(0)2821227,-9.288321,51.531452,Cork,Skibbereen,Republic of Ireland
70,Tramore Golf Club,http://www.tramoregolfclub.com,+353(0)51386170,-7.171007,52.155895,Waterford,Tramore,Republic of Ireland
71,Waterford Golf Club,http://www.waterfordgolfclub.com,+353(0)51876748,-7.120968,52.268867,Waterford,Waterford,Republic of Ireland
72,West Waterford Golf  Club,http://www.westwaterfordgolf.com,+353(0)5843216,-7.697114,52.08156,Waterford,Dungarvan,Republic of Ireland
73,Beaufort Golf Club,http://www.beaufortgc.com,+353(0)646644440,-9.672628,52.068225,Kerry,Killarney,Republic of Ireland
74,Slieve Russell Hotel Golf and Country Club,http://www.slieverussell.ie/golf.php,+353(0)499526444,-7.55679604760746,54.0966989972114,Cavan,Ballyconnell,Republic of Ireland
75,Dooks Golf Links,http://www.dooks.com,+353(0)669768205,-9.926052,52.082737,Kerry,Glenbeigh,Republic of Ireland
76,Kenmare Golf Club,http://www.kenmaregolfclub.com,+353(0)646641291,-9.579708,51.878777,Kerry,Kenmare,Republic of Ireland
77,Dunfanaghy Golf Club,http://www.dunfanaghygolfclub.com,+353(0)749136335,-7.961201,55.18331,Donegal,Dunfanaghy,Republic of Ireland
78,Narin And Portnoo Golf Club,http://www.narinportnoogolfclub.ie,+353(0)749545107,-8.443001,54.840263,Donegal,Portnoo,Republic of Ireland
79,Killarney Golf And Fishing Club,http://www.killarneygolfclub.ie/,+353(0)646631034,-9.563436,52.060745,Kerry,Killarney,Republic of Ireland
80,North West Golf Club,http://www.northwestgolfclub.com,+353(0)749361715,-7.466711,55.112484,Donegal,Buncrana,Republic of Ireland
81,Portsalon Golf Club,http://www.portsalongolfclub.ie/,+353(0)749159459,-7.622599,55.207597,Donegal,Fanad,Republic of Ireland
82,Rosapenna Golf Resort,http://www.rosapenna.ie,+353(0)749155000,-7.82461,55.185339,Donegal,Downings,Republic of Ireland
83,Rossmore Golf Club,http://www.rossmoregolfclub.ie/,+353(0)4771222,-6.988241,54.217206,Monaghan,Monaghan,Republic of Ireland
84,Ross Golf Course,http://killarneyraces.ie/dining-membership/ross-golf-club/,+353(0)646631125,-9.514396,52.048793,Kerry,Killarney,Republic of Ireland
87,Bundoran Golf Club,http://www.bundorangolfclub.com,+353(0)719841302,-8.275958,54.4861,Donegal,Bundoran,Republic of Ireland
88,Donegal Golf Club,http://www.donegalgolfclub.ie,+353(0)749734054,-8.161285,54.612508,Donegal,Laghey,Republic of Ireland
105,Kilkea Castle Golf Club,http://www.kilkeacastle.ie/golf/,+353(0)599145555,-6.884657,52.943571,Kildare,Castledermot,Republic of Ireland
106,St  Helen's Bay Golf Resort,http://www.sthelensbay.com,+353(0)539133234,-6.325065,52.231954,Wexford,Rosslare Harbour,Republic of Ireland
107,Carne Golf Links,http://www.carnegolflinks.com,+353(0)9782292,-10.034334,54.224033,Mayo,Belmullet (BÃ©al an Mhuirthead),Republic of Ireland
114,Castle Barna Golf Club,http://www.castlebarna.ie,+353(0)579353384,-7.280943,53.298615,Offaly,Tullamore,Republic of Ireland
115,Dungarvan Golf Club,http://www.dungarvangolfclub.com,+353(0)5843310,-7.587202,52.108044,Waterford,Dungarvan,Republic of Ireland
116,Highfield Golf & Country Club,http://www.highfield-golf.ie,+353(0)469731021,-7.016362,53.36327,Kildare,Carbury,Republic of Ireland
117,Mount Temple Golf & Country Club,http://www.mounttemplegolfclub.com,+353(0)906481841,-7.775226,53.429141,Westmeath,Moate,Republic of Ireland
118,New Ross Golf Club,http://www.newrossgolfclub.ie/,+353(0)51421433,-6.973279,52.403456,Wexford,New Ross ,Republic of Ireland
123,Carrick-on-Suir Golf Club,http://www.carrickgolfclub.net,+353(0)51640047,-7.409194,52.33371,Tipperary,Carrick On Suir,Republic of Ireland
124,Roscommon Golf Club,http://www.roscommongolfclub.ie/,+353(0)906626382,-8.181117,53.618694,Roscommon,Roscommon,Republic of Ireland
126,Ballyhaunis Golf Club,http://www.ballyhaunisgolfclub.com,+353(0)949630014,-8.769676,53.795026,Mayo,Ballyhaunis,Republic of Ireland
127,Loughrea Golf Club,http://www.loughreagolfclub.com,+353(0)91841049,-8.560867,53.218213,Galway,Loughrea,Republic of Ireland
129,Portumna Golf Club,http://www.portumnagolfclub.ie,+353(0)909741059,-8.256448,53.091054,Galway,Portumna,Republic of Ireland
130,Lisselan Golf Club,http://www.lisselan.com,+353(0)238833249,-8.853286,51.657199,Cork,Clonakilty,Republic of Ireland
131,Claremorris Golf Club,http://www.claremorrisgolfclub.com,+353(0)949371527,-8.992087,53.700116,Mayo,Claremorris,Republic of Ireland
157,Cabra Castle Golf Course,http://www.cabracastle.com,+353(0)29667030,-6.77713647070311,53.9192165020622,Cavan,Kingscourt,Republic of Ireland
158,Ballinamore Golf Club,http://www.ballinamoregolf.club/,+353(0)719645951,-7.83404930718995,54.0553592860864,Leitrim,Ballinamore,Republic of Ireland
159,Mountain View Golf Club,http://www.mviewgolf.com,,-7.18210505816648,52.4551689026272,Kilkenny,Ballyhale,Republic of Ireland
160,Ballymoney Golf Course,http://www.ballymoneygolfclub.ie/,+353(0)539421976,-6.237209,52.676294,Wexford,Gorey,Republic of Ireland
171,Newbridge Golf Club,http://www.newbridgegolfclub.com,+353(0)45486110,-6.782232,53.20529,Kildare,Newbridge,Republic of Ireland
179,Castlegregory Golf And Fishing Club,http://www.castlegregorygolflinks.com,+353(0)667139444,-10.063345,52.255542,Kerry,Castlegregory,Republic of Ireland
180,Blacklion Golf Club,http://www.blackliongolf.com,+353(0)719853024,-7.8905,54.294546,Cavan,Blacklion,Republic of Ireland
182,Glen Of The Downs Golf Club,http://www.glenofthedowns.com,+353(0)12876240,-6.109716,53.152176,Wicklow,Delgany,Republic of Ireland
187,Buncrana Golf Club,http://www.buncranagolfclub.com,+353(0)749362279,-7.457937,55.126699,Donegal,Buncrana,Republic of Ireland
198,Williamstown Golf Club,,+353(0)51853131,-7.09484,52.236726,Waterford,Williamstown,Republic of Ireland
211,Coollattin Golf Club,http://www.coollattingolfclub.com,+353(0)539429125Admin,-6.501168,52.753296,Wicklow,Shillelagh,Republic of Ireland
212,Athy Golf Club,http://www.athygolfclub.com,+353(0)598631729,-6.962445,53.008327,Kildare,Athy,Republic of Ireland
216,Athenry Golf Club,http://www.athenrygolfclub.net,+353(0)91794466,-8.845527,53.282795,Galway,Athenry,Republic of Ireland
220,Westport Golf Club,http://www.westportgolfclub.ie,+353(0)9828262,-9.564877,53.812512,Mayo,Westport,Republic of Ireland
224,Castlebar Golf Club,http://www.castlebargolfclub.ie,+353(0)949021649,-9.271672,53.833609,Mayo,Castlebar,Republic of Ireland
225,Tuam Golf Club,http://www.tuamgolfclub.com,+353(0)9328993,-8.835863,53.494126,Galway,Tuam,Republic of Ireland
234,Bearna Golf and Country Club,http://www.bearnagolfclub.com,+353(0)91592677,-9.165241,53.278586,Galway,Bearna,Republic of Ireland
242,Esker Hills Golf Club,http://www.eskerhillsgolf.com,+353(0)579355999,-7.564294,53.295187,Offaly,Tullamore,Republic of Ireland
281,Ballymascanlon Golf Course,http://www.ballymascanlon.com,+353(0)429358200,-6.35250772537415,54.0316157749154,Louth,Dundalk,Republic of Ireland
290,Arklow Golf Club,http://www.arklowgolflinks.com,+353(0)40232492,-6.149669,52.789676,Wicklow,Arklow,Republic of Ireland
291,Ballyliffin Golf Club,http://www.ballyliffingolfclub.com,+353(0)749376119,-7.373339,55.292354,Donegal,Inishowen,Republic of Ireland
294,Glengarriff Golf Club,http://www.glengarriffgolfclub.com,+353(0)2763150,-9.522937,51.75042,Cork,Glengarriff,Republic of Ireland
296,Enniscrone Golf Club,http://www.enniscronegolf.com,+353(0)9636297,-9.10447998419192,54.2080976797533,Sligo,Enniscrone,Republic of Ireland
297,Gort Golf Club,http://www.gortgolf.com/,+353(0)91632244,-8.8713981798096,53.062538715892,Galway,Gort,Republic of Ireland
311,Delvin Castle Golf Club,,+353(0)449664315,-7.099272,53.614955,Westmeath,Delvin,Republic of Ireland
345,County Sligo Golf Club,http://www.countysligogolfclub.ie,+353(0)719177186,-8.565862,54.307154,Sligo,Sligo,Republic of Ireland
350,Greencastle Golf Club,http://greencastlegolfclub.com/?page_id=117,+353(0)749381013,-6.956506,55.210408,Donegal,Inishowen,Republic of Ireland
369,Slievenamon Golf Club,http://www.slievenamongolfclub.com,+353(0)526132213,-7.703406,52.425477,Tipperary,Lisronagh,Republic of Ireland
382,Djouce Golf Club,http://www.djoucegolfclub.com,+353(0)12818585,-6.194722,53.104715,Wicklow,Roundwood,Republic of Ireland
386,Mountrath Golf Club,http://www.mountrathgolfclub.ie,+353(0)578732558,-7.47961,52.979352,Laois,Mountrath,Republic of Ireland
388,Ballybofey and Stranorlar Golf Club,http://www.ballybofeyandstranorlargolfclub.ie,+353(0)749131093,-7.75914,54.808621,Donegal,Stranorlar,Republic of Ireland
416,Waterville Golf Links,http://www.watervillegolflinks.ie,+353(0)669474102,-10.173826,51.834169,Kerry,Waterville,Republic of Ireland
419,Newtown Golf Driving Range,http://www.bolstergroup.com/newtown-golf-practice-range/about-newtown-practice-range/about-newtown-golf-practice-range.html,+353(0)51381322,-7.17281,52.148457,Waterford,Tramore,Republic of Ireland
426,Callan Golf Club,http://www.callangolfclub.com,+353(0)567725136,-7.372338,52.530772,Kilkenny,Callan,Republic of Ireland
448,Monkstown Golf Club,http://www.monkstowngolfclub.com,+353(0)214841376,-8.346797,51.850825,Cork,Monkstown,Republic of Ireland
449,Mallow Golf Club,http://www.mallowgolfclub.net,+353(0)2221145,-8.62684,52.128009,Cork,Mallow,Republic of Ireland
450,Youghal Golf Club,http://www.youghalgolfclub.com/,+353(0)2492787,-7.84517,51.943492,Cork,Youghal,Republic of Ireland
456,Fermoy Golf Club,http://www.fermoygolfclub.ie,+353(0)2531472,-8.298737,52.113122,Cork,Fermoy,Republic of Ireland
459,Letterkenny Golf Club,http://www.letterkennygolfclub.com/,+353(0)749121150,-7.684505,54.964033,Donegal,Letterkenny,Republic of Ireland
460,Douglas Golf Club,http://www.douglasgolfclub.ie,+353(0)214895297,-8.420895,51.871295,Cork,Douglas,Republic of Ireland
463,Roscrea Golf Club,http://www.roscreagolfclub.ie,+353(0)50521130,-7.755079,52.958533,Tipperary,Roscrea,Republic of Ireland
465,Templemore Golf Course,http://templemoregolfclub.ie,+353(0)50431400,-7.842134,52.789483,Tipperary,Templemore,Republic of Ireland
468,Rathbane Golf Club,http://www.rathbanegolfclub.com,+353(0)61313655,-8.60304,52.641692,Limerick,Limerick City,Republic of Ireland
469,Shannon Golf Club,http://www.shannongolfclub.ie,+353(0)61471849,-8.93722,52.689261,Clare,Shannon,Republic of Ireland
473,Ballyneety Golf Club,http://www.ballyneetygolfclub.com,+353(0)61351881,-8.551665,52.590254,Limerick,Ballyneety,Republic of Ireland
474,Macroom Golf Club,http://www.macroomgolfclub.com,+353(0)2641072,-8.969427,51.900863,Cork,Macroom,Republic of Ireland
489,Nenagh Golf Club,http://www.nenaghgolfclub.com,+353(0)6731476,-8.129712,52.903221,Tipperary,Nenagh,Republic of Ireland
490,Kilkee Golf Club,http://www.gui.ie,+353(0)659056048,-9.65095,52.68686,Clare,Kilkee,Republic of Ireland
491,Ring of Kerry Golf & Country Club,http://www.ringofkerrygolf.com,+353(0)646642000,-9.672371,51.874798,Kerry,Kenmare,Republic of Ireland
501,Old Head Golf Links,http://www.oldhead.com,+353(0)214778444,-8.535474,51.608544,Cork,Kinsale,Republic of Ireland
508,Newcastle West Golf Club,http://www.newcastlewestgolf.com,+353(0)6976500,-9.044979,52.519843,Limerick,Newcastle West,Republic of Ireland
509,Kilrush Golf Club,http://www.kilrushgolfclub.com,+353(0)659051138,-9.466809,52.647763,Clare,Kilrush,Republic of Ireland
510,The Montgomerie Course at Carton House,http://www.cartonhousegolf.com/golf/montgomerie/,+353(0)15052000,-6.567725,53.389976,Kildare,Maynooth,Republic of Ireland
515,Ennis Golf Club,http://www.ennisgolfclub.com,+353(0)656824074,-8.99825,52.840825,Clare,Ennis,Republic of Ireland
550,Ballybunion Golf Club,http://www.ballybuniongolfclub.ie,+353(0)6827146,-9.676336,52.495087,Kerry,Ballybunion,Republic of Ireland
551,Bandon Golf Club,http://www.bandongolfclub.com,+353(0)238841111,-8.775356,51.739131,Cork,Bandon,Republic of Ireland
552,Berehaven Golf and Amenity Park,http://www.berehavengolf.com,+353(0)2770700,-9.860045,51.654244,Cork,Castletownbere,Republic of Ireland
553,Water Rock Golf Course,http://www.waterrockgolfcourse.com,+353(0)214613499,-8.195905,51.929331,Cork,Midleton,Republic of Ireland
554,Dunloe Golf Course,,+353(0)646644578,-9.622263,52.053406,Kerry,Beaufort,Republic of Ireland
555,Castlerosse Golf Course,http://www.castlerosse.ie/Castlerosse-Golf-Course.html,+353(0)646631144,-9.539973,52.065969,Kerry,Killarney,Republic of Ireland
559,Doonbeg Golf Club,http://www.doonbeggolfclub.com,+353(0)659055602,-9.504012,52.746751,Clare,Doonbeg,Republic of Ireland
572,East Clare Golf Club,http://www.eastclaregolfclub.ie/,+353(0)61921322,-8.597588,52.899884,Clare,Bodyke,Republic of Ireland
575,Seafield Golf & Country Club,http://www.seafieldgolf.com,+353(0)539424777,-6.214095,52.675196,Wexford,Gorey,Republic of Ireland
579,County Cavan Golf Club,http://www.cavangolf.ie,+353(0)494331541,-7.386819,54.000537,Cavan,Drumelis,Republic of Ireland
594,Carrick-On-Shannon Golf Club,http://www.carrickgolfclub.ie,+353(0)719667015,-8.174921,53.959399,Leitrim,Carrick-On-Shannon,Republic of Ireland
600,Adare Golf Club,http://www.adaremanor.com,+353(0)61605200,-8.7808,52.562299,Limerick,Adare,Republic of Ireland
603,Seapoint Golf Club,http://www.seapointgolfclub.com,+353(0)419822333,-6.251011,53.754525,Louth,Drogheda,Republic of Ireland
606,Limerick Golf Club,http://www.limerickgolfclub.ie/,+353(0)61415146,-8.62978061376952,52.6164254998552,Limerick,Limerick,Republic of Ireland
610,Ballinasloe Golf Club,http://www.ballinasloegolfclub.ie,+353(0)909642126,-8.241215,53.30346,Galway,Ballinasloe,Republic of Ireland
612,Castletroy Golf Club,http://www.castletroygolfclub.ie,+353(0)61335753,-8.567843,52.660186,Limerick,Limerick City,Republic of Ireland
632,Lee Valley Golf & Country Club,http://www.leevalleygcc.ie,+353(0)217331721,-8.700742,51.890291,Cork,Ovens,Republic of Ireland
664,Castleisland Golf Club,http://castleislandgc.com/,+353(0)667141709,-9.4694,52.262644,Kerry,Castleisland,Republic of Ireland
665,Tralee Golf Club,http://www.traleegolfclub.com,+353(0)667136379,-9.8579,52.301299,Kerry,Tralee,Republic of Ireland
671,Ballyheigue Castle Golf Course,http://www.ballyheiguecastlegolfclub.com,+353(0)667133555,-9.83988910317998,52.3931008712821,Kerry,Ballyheigue,Republic of Ireland
677,Killorglin Golf Club,http://www.killorglingolf.ie,+353(0)669761979,-9.752502,52.120356,Kerry,Killorglin,Republic of Ireland
679,Cahir Park Golf Club,http://www.cahirparkgolfclub.com,+353(0)527441474,-7.932804,52.362276,Tipperary,Cahir,Republic of Ireland
685,Irish Golf Tours Ltd.,http://www.irishgolftours.com,+353(0)51381728,-7.156092,52.165746,Waterford,Tramore,Republic of Ireland
698,Birr Golf Club,http://birrgolfclub.ie/,+353(0)579120082,-7.909589,53.127194,Offaly,Birr,Republic of Ireland
702,Craddockstown Golf Club,http://www.craddockstown.com,+353(0)45897610,-6.638975,53.206015,Kildare,Naas,Republic of Ireland
704,Carton House Golf Club The O'Meara Course,http://www.cartonhousegolf.com/golf/omeara/,+353(0)15052000,-6.559834,53.394462,Kildare,Maynooth,Republic of Ireland
705,Killeen Golf Course,http://www.killeengolf.com,+353(0)45866003,-6.617952,53.264831,Kildare,Kill,Republic of Ireland
709,Naas Golf Club,http://www.naasgolfclub.com,+353(0)45874644,-6.644573,53.248918,Kildare,Naas,Republic of Ireland
710,Carlow Golf Club,http://www.carlowgolfclub.ie/,+353(0)599131695,-6.894121,52.852398,Carlow,Carlow Town,Republic of Ireland
711,Killerig Castle Golf & Country Club,http://www.killerig-golf.ie/,+353(0)599163000,-6.791537,52.836766,Carlow,Killerrig,Republic of Ireland
713,The Heritage Killenard Golf Parkland,http://www.theheritage.com/golf.html,+353(0)578645500,-7.151624,53.13317,Laois,Killenard,Republic of Ireland
730,Belturbet Golf Club,http://www.belturbetgolfclub.com/,+353(0)499522287,-7.429733,54.100792,Cavan,Belturbet,Republic of Ireland
741,Palmerstown Stud Golf Club,http://www.palmerstownhouse.ie/golf-course.html,+353(0)45871404,-6.627429,53.246879,Kildare,Johnstown,Republic of Ireland
742,County Louth Golf Club,http://www.countylouthgolfclub.com,+353(0)419881530,-6.263675,53.73813,Louth,Drogheda,Republic of Ireland
743,Dundalk Golf Club,http://www.dundalkgolfclub.ie,+353(0)429321731,-6.373025,53.973304,Louth,Dundalk,Republic of Ireland
744,Headfort Golf Club - New Course,http://www.headfortgolfclub.ie,+353(0)469240146,-6.860283,53.725176,Meath,Kells,Republic of Ireland
745,Headfort Golf Club - Old Course,http://www.headfortgolfclub.ie,+353(0)469240146,-6.860283,53.725176,Meath,Kells,Republic of Ireland
746,Kilcock Golf Club,http://www.kilcockgolfclub.ie/,+353(0)16287592,-6.706873,53.433005,Meath,Kilcock,Republic of Ireland
748,Royal Tara Golf Club,http://www.royaltaragolfclub.com,+353(0)469025508,-6.637015,53.592465,Meath,Navan,Republic of Ireland
749,Blessington Lakes Golf Club,http://www.blessingtonlakesgolfclub.com,+353(0)45867146,-6.54104264600703,53.124242848098,Wicklow,Blessington,Republic of Ireland
750,Delgany Golf Club,http://www.delganygolfclub.com,+353(0)12874536,-6.101086,53.132644,Wicklow,Delgany,Republic of Ireland
752,Glenmalure Golf Club,http://www.glenmaluregolf.com,+353(0)40446679,-6.295431,52.932178,Wicklow,Rathdrum,Republic of Ireland
753,Greystones Golf Club,http://www.greystonesgc.com,+353(0)12874136,-6.073883,53.138975,Wicklow,Greystones,Republic of Ireland
754,Kilcoole Golf Club,http://www.kilcoolegolfclub.com,+353(0)12872066,-6.065103,53.09698,Wicklow,Kilcoole,Republic of Ireland
755,Millbrook Golf Course,http://www.rivervalleypark.com,+353(0)40441647,-6.144781,52.888931,Wicklow,Redcross,Republic of Ireland
776,Corballis Golf Club,http://corballislinks.com/,+353(0)18436583,-6.125269,53.472541,Dublin,Donabate,Republic of Ireland
778,Dublin City Golf Club,http://www.dublincitygolf.com,+353(0)14516430,-6.376196,53.25038,Dublin,Tallaght,Republic of Ireland
781,Edmondstown Golf Club,http://www.edmondstowngolfclub.ie,+353(0)14931082,-6.291356,53.273971,Dublin,Rathfarnham,Republic of Ireland
782,Elmgreen Golf Centre,http://elmgreengolfclub.ie/,+353(0)18200797,-6.349643,53.387157,Dublin,Castleknock,Republic of Ireland
800,Luttrellstown Castle Golf & Country Club,http://www.luttrellstown.ie,+353(0)18609600,-6.415572,53.374701,Dublin,Castleknock,Republic of Ireland
801,Malahide Golf Club,http://www.malahidegolfclub.ie,+353(0)18461611,-6.143488,53.431382,Dublin,Malahide,Republic of Ireland
811,The Royal Dublin Golf Club,http://www.theroyaldublingolfclub.com,+353(0)18336346,-6.170537,53.356746,Dublin,Dublin,Republic of Ireland
815,St Margaret's Golf and Country Club,http://www.stmargaretsgolf.com,+353(0)18640400,-6.303339,53.451815,Dublin,St. Margarets,Republic of Ireland
816,Stepaside Golf Centre,http://www.stepasidegolfcentre.ie,+353(0)12953326,-6.206455,53.244514,Dublin,Kilternan,Republic of Ireland
830,Silloge Park Public Golf Course,http://www.sillogeparkgolfcourse.com,+353(0)18429956,-6.266123,53.413051,Dublin,Swords,Republic of Ireland
831,Balcarrick Golf Club,http://www.balcarrickgolfclub.com,+353(0)18436957,-6.12911,53.471614,Dublin,Donabate,Republic of Ireland
833,Deer Park Golf Course,http://www.deerparkgolf.ie,+353(0)18323487,-6.078157,53.380528,Dublin,Howth,Republic of Ireland
834,Druids Glen Golf Resort,http://www.druidsglenresort.com,+353(0)12812550,-6.078576,53.096096,Wicklow,Newtownmountkennedy,Republic of Ireland
843,The Island Golf Club,http://www.theislandgolfclub.com,+353(0)18436205,-6.136137,53.463437,Dublin,Donabate,Republic of Ireland
860,Hollywood Lakes Golf Club,http://www.hollywoodlakesgolfclub.com,+353(0)18433407,-6.267958,53.552066,Dublin,Ballyboghill,Republic of Ireland
877,St Annes Golf Club,http://www.stanneslinksgolf.com,+353(0)18336471,-6.137523,53.374972,Dublin,Dollymount,Republic of Ireland
883,Roundwood Golf Club,http://www.roundwoodgolf.com,+353(0)12818488,-6.162823,53.084115,Wicklow,Newtownmountkennedy,Republic of Ireland
884,Abbeyleix Golf Club,http://www.abbeyleixgolfclub.ie,+353(0)578731450,-7.337058,52.921784,Laois,Abbeyleix,Republic of Ireland
885,Rathdowney Golf Club,http://www.rathdowneygolfclub.com,+353(0)50546170,-7.577865,52.850037,Laois,Rathdowney,Republic of Ireland
886,Edenderry Golf Club,http://edenderrygc.com/,+353(0)469731072,-7.023696,53.353531,Offaly,Edenderry,Republic of Ireland
887,Portarlington Golf Club,http://www.portarlingtongolfclub.ie,+353(0)578623115,-7.237909,53.146656,Laois,Portarlington,Republic of Ireland
888,Tullamore Golf Club,http://www.tullamoregolfclub.ie,+353(0)579321439,-7.520626,53.241524,Offaly,Tullamore,Republic of Ireland
889,Ballinlough Castle Golf Club,http://www.ballinloughcastle.ie,+353(0)469433760,-7.025624,53.636621,Westmeath,Clonmellon,Republic of Ireland
890,Moate Golf Club,http://www.moategolfclub.ie,+353(0)906481271,-7.726236,53.399452,Westmeath,Moate,Republic of Ireland
891,Mullingar Golf Club,http://www.mullingargolfclub.com,+353(0)449348366,-7.357337,53.481557,Westmeath,Mullingar,Republic of Ireland
897,Cobh Golf Club,http://www.cobhgolfclub.ie,+353(0)214812399,-8.316107,51.876256,Cork,Cobh,Republic of Ireland
898,East Cork Golf Club,http://www.eastcorkgolfclub.ie/Home.aspx,+353(0)214631687,-8.177474,51.939629,Cork,Midleton ,Republic of Ireland
899,Kinsale Golf Club,http://www.kinsalegolf.ie,+353(0)214774722,-8.541284,51.734968,Cork,Kinsale,Republic of Ireland
900,Mahon Golf Club,http://www.mahongolfcourse.ie/,+353(0)214292212,-8.425917,51.883935,Cork,Blackrock,Republic of Ireland
901,Farrangalway Golf Course,http://www.kinsalegolf.ie/,+353(0)214774722,-8.541291,51.734963,Cork,Kinsale,Republic of Ireland
902,Dunmore Golf Club,http://www.gogolfing.ie/golf-course.php?id_club=74,+353(0)238834644,-8.867638,51.590249,Cork,Clonakilty,Republic of Ireland
903,Kanturk Golf Club,http://www.kanturkgolf.com,+353(0)2950534,-8.92693,52.159434,Cork,Kanturk ,Republic of Ireland
904,Parknasilla Golf Club,http://www.parknasillahotel.ie,+353(0)646645195,-9.866688,51.815357,Kerry,Sneem ,Republic of Ireland
905,Golf Chumann Ceann Sibeal,http://www.dinglelinks.com,+353(0)669156255,-10.449858,52.158716,Kerry,Dingle,Republic of Ireland
906,Mount Wolseley Golf And Country Club,http://www.mountwolseley.ie,+353(0)599180100,-6.731364,52.791025,Carlow,Tullow,Republic of Ireland
907,Borris Golf Club,http://www.borrisgolfclub.ie,+353(0)599773143,-6.921296,52.592516,Carlow,Borris,Republic of Ireland
908,Carrigleade Golf Course,http://carrigleadegolf.wordpress.com/,+353(0)599724370,-6.925958,52.519743,Carlow,St Mullins,Republic of Ireland
912,Balbriggan Golf Club,http://www.balbriggangolfclub.com,+353(0)18412229,-6.182613,53.595817,Dublin,Balbriggan,Republic of Ireland
913,Dun Laoghaire Golf Club,http://www.dunlaoghairegolfclub.ie,+353(0)12721866,-6.161021,53.210922,Wicklow,Enniskerry,Republic of Ireland
914,Howth Golf Club,http://www.howthgolfclub.ie,+353(0)18323055,-6.087545,53.375651,Dublin,Howth,Republic of Ireland
915,Virginia Golf Club,http://www.virginiagolfclub.ie/,+353(0)498548066,-7.093476,53.835051,Cavan,Virginia,Republic of Ireland
916,Clonlara Golf And Leisure Club,http://www.gui.ie,+353(0)61354141,-8.536124,52.704429,Clare,Clonlara,Republic of Ireland
917,Lahinch Golf Club Castle Course,http://www.gui.ie,+353(0)657081003,-9.346282,52.935583,Clare,Lahinch,Republic of Ireland
918,Lahinch Golf Club Old Course,http://www.gui.ie,+353(0)657081003,-9.346282,52.935583,Clare,Lahinch,Republic of Ireland
919,Spanish Point Golf Club,http://www.spanishpointgolfing.com/,+353(0)657084198,-9.430545,52.839623,Clare,Milltown Malbay,Republic of Ireland
920,Curra West Golf Club,http://www.currawest.com,+353(0)909745121,-8.440304,53.114984,Galway,Loughrea,Republic of Ireland
921,Galway Golf Club,http://www.galwaygolf.com,+353(0)91522033,-9.095701,53.25938,Galway,Galway - Salthill Area,Republic of Ireland
922,Oldthort Golf Course,,+353(0)909741123,-8.254669,53.086724,Galway,Portumna,Republic of Ireland
923,Oughterard Golf Club,http://www.oughterardgolfclub.com,+353(0)91552131,-9.287132,53.421818,Galway,Oughterard,Republic of Ireland
924,Castlecomer Golf Club,http://www.castlecomergolf.ie/,+353(0)564441139,-7.205688,52.797709,Kilkenny,Castlecomer,Republic of Ireland
1190,Cloughaneely Golf Course,http://www.cloughaneelygolfclub.ie/,+353(0)749165416,-8.095574,55.144826,Donegal,Falcarragh,Republic of Ireland
1191,Cruit Island Golf Club,http://www.cruitislandgolfclub.com,+353(0)749543296,-8.431021,55.047381,Donegal,Kincasslagh,Republic of Ireland
1192,Gweedore Golf Club,http://www.gweedoregolfclub.com/,+353(0)749531140,-8.315589,55.083559,Donegal,Gweedore,Republic of Ireland
1193,Otway Golf Club,http://www.facebook.com/whiteleas1/,+353(0)749158319,-7.527836,55.135162,Donegal,Rathmullan,Republic of Ireland
1194,Balheary Open Golf Course,,+353(0)18401370,-6.22372,53.479415,Dublin,Swords,Republic of Ireland
1195,Beaverstown Golf Club,http://www.beaverstown.com,+353(0)18436439,-6.150905,53.497964,Dublin,Donabate,Republic of Ireland
1196,Beech Park Golf Club,http://www.beechpark.ie,+353(0)14580522,-6.498171,53.259952,Dublin,Rathcoole,Republic of Ireland
1197,Clontarf Golf Club,http://www.clontarfgolfclub.ie,+353(0)18331892,-6.220446,53.372443,Dublin,Clontarf,Republic of Ireland
1198,Corrstown Golf Club,http://www.corrstowngolfclub.com,+353(0)18640533,-6.323151,53.45936,Dublin,Kilsallaghan,Republic of Ireland
1199,Elm Park Golf & Sports Club,http://www.elmparkgolfclub.ie,+353(0)12693438,-6.218968,53.3145,Dublin,Donnybrook,Republic of Ireland
1200,Forrest Little Golf Club,http://www.forrestlittle.ie,+353(0)18401763,-6.249884,53.439419,Dublin,Swords,Republic of Ireland
1201,Grange Castle Golf Club,http://www.grangecastlegc.com/,+353(0)14641043,-6.433052,53.315406,Dublin,Clondalkin,Republic of Ireland
1202,Hazel Grove Golf Club,http://www.hazelgrove.ie,+353(0)14520911,-6.404278,53.273163,Dublin,Tallaght,Republic of Ireland
1203,Hermitage Golf Club,http://www.hermitagegolf.ie,+353(0)16268491,-6.411667,53.363353,Dublin,Lucan,Republic of Ireland
1204,Hollystown Golf Club,http://www.hollystown.com,+353(0)18207444,-6.377412,53.431205,Dublin,Dublin City,Republic of Ireland
1205,Killiney Golf Club,http://www.killineygolfclub.ie/,+353(0)12852823,-6.129958,53.265816,Dublin,Killiney,Republic of Ireland
1206,Leopardstown Golf Centre,http://www.leopardstown.com,+353(0)12895341,-6.189303,53.266282,Dublin,Leopardstown,Republic of Ireland
1207,Lucan Golf Club,http://www.lucangolfclub.ie,+353(0)16282106,-6.473955,53.351894,Dublin,Lucan,Republic of Ireland
1208,Milltown Golf Club,http://www.milltowngolfclub.ie,+353(0)14976090,-6.254605,53.306573,Dublin,Milltown,Republic of Ireland
1209,Newlands Golf Club,http://www.newlandsgolfclub.com,+353(0)14593157,-6.391879,53.308592,Dublin,Clondalkin,Republic of Ireland
1210,Skerries Golf Club,http://www.skerriesgolfclub.ie,+353(0)18491567,-6.114719,53.564246,Dublin,Skerries,Republic of Ireland
1211,Slade Valley Golf Club,https://www.sladevalleygolfclub.ie,+353(0)14582183,-6.471166,53.256479,Dublin,Brittas,Republic of Ireland
1212,Stackstown Golf Club,http://www.stackstowngolfclub.ie,+353(0)14941993,-6.266258,53.260696,Dublin,Rathfarnham,Republic of Ireland
1213,Sutton Golf Club,http://www.suttongolfclub.org,+353(0)18322965,-6.114383,53.395662,Dublin,Sutton,Republic of Ireland
1214,Swords Open Golf Course,http://www.swordsopengolfcourse.com,+353(0)18409819,-6.262012,53.487188,Dublin,Swords,Republic of Ireland
1215,Westmanstown Golf Club,http://www.westmanstowngolfclub.ie,+353(0)18205817,-6.442211,53.379697,Dublin,Clonsilla,Republic of Ireland
1216,Woodbrook Golf Club,http://www.woodbrook.ie,+353(0)12824799,-6.111137,53.2169,Wicklow,Bray,Republic of Ireland
1217,Swing South West Ireland Golf,http://www.swinggolfireland.com,+353(0)667125733,-9.705166,52.268418,Kerry,Tralee,Republic of Ireland
1218,Castlewarden Golf Club,http://www.castlewardengolfclub.com,+353(0)14589254,-6.545115,53.265576,Kildare,Straffan,Republic of Ireland
1219,Mount Juliet Golf Club,http://www.mountjuliet.ie,+353(0)567773070,-7.188734,52.52579,Kilkenny,Thomastown,Republic of Ireland
1226,Achill Golf Club,http://www.achillgolf.com/,+353(0)9843456,-10.067661,53.975652,Mayo,Achill Island,Republic of Ireland
1227,Ashford Castle Golf Club,http://www.ashford.ie/golf,+353(0)949546003,-9.285311,53.534499,Mayo,Cong,Republic of Ireland
1228,Balla Golf Club,http://www.ballagolfclub.com/,+353(0)949365470,-9.139796,53.805038,Mayo,Balla,Republic of Ireland
1229,Ballina Golf Club,http://www.ballina-golf.com,+353(0)9621050,-9.133927,54.108316,Mayo,Ballina,Republic of Ireland
1230,Ballinrobe Golf Club,http://www.ballinrobegolfclub.com,+353(0)949541118,-9.16126,53.647381,Mayo,Ballinrobe,Republic of Ireland
1231,Ashbourne Golf Club,http://www.ashbournegolfclub.ie,+353(0)18352561,-6.379249,53.503712,Meath,Ashbourne,Republic of Ireland
1232,Black Bush Golf Club,http://www.blackbushgolfclub.ie,+353(0)18250021,-6.527499,53.527611,Meath,Dunshaughlin,Republic of Ireland
1233,County Meath Golf Club,http://www.countymeathgolfclubtrim.ie,+353(0)469431463,-6.826931,53.521352,Meath,Trim,Republic of Ireland
1234,Glebe Golf Course,http://www.glebegolfclub.com/,+353(0)469431926,-6.817892,53.561037,Meath,Trim,Republic of Ireland
1235,Laytown & Bettystown Golf Club,http://www.landb.ie,+353(0)419827170,-6.247091,53.704773,Meath,Bettystown,Republic of Ireland
1236,South Meath Golf Club,http://www.southmeathgolf.com/,+353(0)469431471,-6.814769,53.528882,Meath,Trim,Republic of Ireland
1237,Clones Golf Club,http://www.clonesgolfclub.com/,+353(0)4756017,-7.233334,54.139997,Monaghan,Clones,Republic of Ireland
1238,Athlone Golf Club,http://athlonegolfclub.ie/,+353(0)906492073,-7.992233,53.466389,Roscommon,Athlone,Republic of Ireland
1239,Boyle Golf Club,http://www.boylegolfclub.com/,+353(0)719662594,-8.294879,53.951658,Roscommon,Boyle,Republic of Ireland
1240,Ballymote Golf Club,http://www.ballymotegolfclub.ie/,+353(0)719189059,-8.488375,54.082568,Sligo,Ballymote,Republic of Ireland
1241,Ballykisteen Golf & Country Club,http://www.ballykisteenhotel.com,+353(0)6233333,-8.216777,52.502133,Tipperary,Limerick Junction,Republic of Ireland
1242,Dundrum House Hotel Golf & Leisure Resort,http://www.dundrumhousehotel.com,+353(0)6271117,-8.029798,52.549714,Tipperary,Cashel,Republic of Ireland
1243,Thurles Golf Club,http://www.thurlesgolfclub.com,+353(0)50421983,-7.802374,52.662294,Tipperary,Thurles,Republic of Ireland
1245,Lismore Golf Club,http://www.facebook.com/LismoreGolfClub/,+353(0)5854026,-7.935603,52.146485,Waterford,Lismore,Republic of Ireland
1246,Ballinacarrig Park Golf Course,,+353(0)40447195,-6.044728,52.904244,Wicklow,Wicklow,Republic of Ireland
1247,Baltinglass Golf Club,http://www.baltinglassgolfclub.ie,+353(0)596481350,-6.717096,52.944863,Wicklow,Baltinglass,Republic of Ireland
1248,Bray Golf Club,http://www.braygolfclub.com,+353(0)12763200,-6.091911,53.182087,Wicklow,Bray,Republic of Ireland
1249,Old Conna Golf Club,http://www.oldconna.com,+353(0)12826055,-6.138118,53.215571,Wicklow,Bray,Republic of Ireland
1645,Castle Golf Club,http://www.castlegc.ie,+353(0)14904207,-6.27478,53.2991,Dublin,Rathfarnham,Republic of Ireland
1721,Mitchelstown Golf Club,http://www.mitchelstown-golf.com,+353(0)2524072,-8.285451,52.286998,Cork,Mitchelstown,Republic of Ireland
1722,Listowel Golf and Fishing Club,http://www.gogolfing.ie/golf-course.php?id_club=242,+353(0)872815605/6272069,-9.473374,52.445043,Kerry,Listowel,Republic of Ireland
1726,"Citywest Hotel, Conference, Leisure & Golf Resort.",http://www.citywesthotel.com,+353(0)14010878,-6.450051,53.285947,Dublin,Saggart,Republic of Ireland
1727,Donabate Golf Club,http://www.donabategolfclub.com,+353(0)18436346,-6.127202,53.480266,Dublin,Donabate,Republic of Ireland
1731,Millicent Golf & County Club,http://www.millicentgolfclub.com,+353(0)45893279,-6.689088,53.280963,Kildare,Clane,Republic of Ireland
1732,Knightsbrook Golf Club,http://www.knightsbrook.com,+353(0)469482100,-6.765464,53.548484,Meath,Trim,Republic of Ireland
1733,Dunmurry Springs Golf Club,http://www.dunmurrysprings.ie,+353(0)45531400,-6.933364,53.189386,Kildare,Kildare Town,Republic of Ireland
1734,New Forest Golf Club,http://www.newforest.ie,+353(0)449221100,-7.431566,53.388719,Westmeath,Tyrrellspass,Republic of Ireland
1740,Bellewstown Golf Club,http://www.bellewstowngolfclub.ie,+353(0)419882757,-6.338802,53.649939,Meath,Drogheda,Republic of Ireland
1741,Julianstown Golf Course,http://www.julianstowngolf.com/,+353(0)419811953,-6.283674,53.670002,Meath,Julianstown,Republic of Ireland
1761,Eire Golf,http://www.eiregolftours.com,+353(0)644114147,-9.492879,52.089305,Kerry,Killarney,Republic of Ireland
1763,Golf & Travel Services,,+353(0)646630100,-9.529687,52.077275,Kerry,Killarney,Republic of Ireland
1764,JD Golf Tours,http://www.jdgolftours.com,+353(0)61364000,-8.887611,52.706822,Clare,Shannon,Republic of Ireland
1765,Ireland Golf,http://www.irelandgolf.com,+353(0)667181708,-9.731788,52.28277,Kerry,Tralee,Republic of Ireland
1766,Speciality Golf Tours,http://www.specialtygolftrips.com,+353(0)526170630,-7.697028,52.352922,Tipperary,Clonmel,Republic of Ireland
1767,Ireland Golf and Leisure,,+353(0)61204444,-8.628037,52.663691,Limerick,Limerick City,Republic of Ireland
1770,Ballaghaderreen Golf Course,http://www.ballaghaderreengolfclub.com,+353(0)871463628,-8.573403,53.875375,Roscommon,Ballaghaderreen,Republic of Ireland
1771,Ballinascorney Golf Club,http://www.ballinascorneygolfclub.com/,+353(0)14937755,-6.281345,53.267932,Dublin,Rathfarnham,Republic of Ireland
1772,Carrickmines Golf Club,,+353(0)12955972,-6.17244,53.247965,Dublin,Carrickmines,Republic of Ireland
1774,Castlerea Golf Club,http://www.facebook.com/CastlereaGolf/,+353(0)949620068,-8.501213,53.771547,Roscommon,Castlerea,Republic of Ireland
1775,Celbridge Elm Hall  Golf Club,http://www.celbridgeelmhallgolfclub.ie/,+353(0)16288208,-6.511164,53.339503,Kildare,Celbridge,Republic of Ireland
1776,Cill Dara Golf Club,http://www.cilldaragolfclub.com/teetimes/,+353(0)45521295,-6.896601,53.173603,Kildare,Curragh,Republic of Ireland
1777,Coosheen Golf Club,http://www.westcorkweb.ie/coosheen/,+353(0)2828182,-9.523855,51.524875,Cork,Schull,Republic of Ireland
1778,Dublin Mountain Golf Club,,+353(0)14582622,-6.438816,53.233694,Dublin,Brittas,Republic of Ireland
1779,Dunmore Demesne Golf Course,,+353(0)9338709,-8.744383,53.615673,Galway,Dunmore,Republic of Ireland
1780,Rathcore Golf and Country Club,http://www.rathcoregolfandcountryclub.com,+353(0)469541855,-6.840236,53.449972,Meath,Enfield,Republic of Ireland
1781,Foxrock Golf Club,http://www.foxrockgolfclub.com,+353(0)12893992,-6.18396,53.272353,Dublin,Foxrock,Republic of Ireland
1782,Grange Golf Club,http://www.grangegc.com/,+353(0)14932889,-6.282925,53.280755,Dublin,Rathfarnham,Republic of Ireland
1783,Mulranny Golf Club,https://mulrannygolfclub.com/,+353(0)9836262,-9.763482,53.902421,Mayo,Mulrany,Republic of Ireland
1784,Raffeen Creek Golf Club,http://raffeencreek.ie/,+353(0)214378430,-8.352032,51.833599,Cork,Ringaskiddy,Republic of Ireland
1785,Rathfarnham Golf Club,,+353(0)14931201,-6.308157,53.269041,Dublin,Rathfarnham,Republic of Ireland
1787,Rush Golf Club,http://www.rushgolfclub.com,+353(0)18438177,-6.103853,53.513557,Dublin,Rush,Republic of Ireland
1788,Swinford Golf Club,http://www.swinfordgolf.com,+353(0)949251378,-8.952515,53.935683,Mayo,Swinford,Republic of Ireland
1789,Summerhill Golf Club,http://www.summerhillgolfclub.com/website/,+353(0)469557587,-6.770405,53.467696,Meath,Rathmolyon,Republic of Ireland
1790,Strokestown Golf Club,http://www.strokestowngolfclub.com,+353(0)834648156,-8.075361,53.769617,Roscommon,Strokestown,Republic of Ireland
1793,The Royal Curragh Golf Club,http://www.royalcurraghgolf.ie,+353(0)45441238,-6.81197,53.14661,Kildare,Curragh,Republic of Ireland
1797,Tipperary Golf Club,http://www.tipperarygolfclub.com,+353(0)6251119,-8.159614,52.459604,Tipperary,Tipperary,Republic of Ireland
1923,Tailor-Made Golf Tours,http://www.tailormadegolftours.com,+353(0)214633002,-8.17264668937832,51.9167511054556,Cork,Midleton,Republic of Ireland
1931,Links Golf Ireland (Emerald Elite Ltd.),http://www.linksgolf-ireland.com/,18005504162,-6.223125,53.425287,Dublin,Santry,Republic of Ireland
1949,Castle Dargan Golf Club,http://www.castledargan.com,+353(0)719118080,-8.436763,54.197854,Sligo,Ballygawley,Republic of Ireland
1966,Redcastle Golf Club,http://www.redcastlehoteldonegal.com/golf/golf-course,+353(0)749385555,-7.127613,55.159676,Donegal,Moville,Republic of Ireland
1979,Mannan Castle Golf Club,http://www.mannancastlegolfclub.ie,+353(0)429663308,-6.699608,54.002947,Monaghan,Carrickmacross,Republic of Ireland
2018,Tinhalla Golf Course,http://www.facebook.com/Tinhalla-Golf-Driving-Range-18-Hole-Golf-Course-625266117511720/,51640338,-7.375035,52.336616,Waterford,Carrick On Suir,Republic of Ireland
2073,Blarney Golf Resort,http://www.theblarneyhotel.ie/golf/golf-course.htm,+353(0)214384477,-8.627994,51.938933,Cork,Blarney,Republic of Ireland
2076,Ballinastoe Golf Club,http://www.ballinastoegolfclub.com,+353(0)12818480,-6.216308,53.104816,Wicklow,Roundwood,Republic of Ireland
2116,Abbey Par 3 Golf Club,,,-6.862713,52.231827,Wexford,New Ross,Republic of Ireland
2139,Bantry Bay Golf Club,http://www.bantrygolf.com,+353(0)2750579,-9.448134,51.701075,Cork,Bantry,Republic of Ireland
2148,Cregmore Park Golf Club,http://www.cregmorepark.com,+353(0)91799799,-8.864552,53.328929,Galway,Claregalway,Republic of Ireland
2277,Concra Wood Golf and Country Club,http://www.concrawood.ie,+353(0)429749485,-6.709208,54.107554,Monaghan,Castleblayney,Republic of Ireland
2280,Gold Coast Golf Club,http://www.goldcoastgolfclub.com,+353(0)58-44055,-7.570264,52.085292,Waterford,Dungarvan,Republic of Ireland
2281,North East Golf Passport,,+353(0)419881530,-6.26431474897286,53.737703140986,Louth,Baltray,Republic of Ireland
2322,Glasson Golf Club,http://www.glassongolf.com,+353(0)906485120,-7.900718,53.475674,Westmeath,Athlone,Republic of Ireland
2389,Pirate's Adventure Mini Golf & Bowling Centre,http://www.piratesadventure.ie,+353(0)51393651,-7.136204,52.168772,Waterford,Tramore,Republic of Ireland
2618,Mountbellew Golf Club,http://www.mountbellewgolfclub.com,+353(0)909679259,-8.532596,53.465763,Galway,Mountbellew,Republic of Ireland
2660,Roganstown Golf and Country Club,http://www.roganstown.com,+353(0)18433118,-6.270786,53.486049,Dublin,Swords,Republic of Ireland
2661,Charlesland Golf Club,http://www.charlesland.com,+353(0)12878200,-6.055387,53.130651,Wicklow,Greystones,Republic of Ireland
2665,Dromoland Castle Golf Course,http://www.dromolandgolf.com,+353(0)61368444,-8.90811968122864,52.7827475399301,Clare,Newmarket-on-Fergus,Republic of Ireland
2666,Glenlo Abbey Hotel Golf Course,http://www.glenloabbeyhotel.ie/en/golf-resort-galway/,+353(0)915196998,-9.098089,53.300203,Galway,Galway,Republic of Ireland
2667,Nuremore Golf Course,http://www.nuremore.com,+353(0)429661438,-6.695004,53.962933,Monaghan,Carrickmacross,Republic of Ireland
2668,Portmarnock Hotel and Golf Links,http://www.portmarnock.com,+353(0)18460611,-6.126388,53.429652,Dublin,Portmarnock,Republic of Ireland
2669,Tulfarris Hotel Golf Course,http://www.tulfarrishotel.com,+353(0)45867600,-6.560348,53.125272,Wicklow,Blessington,Republic of Ireland
2670,Waterford Castle Golf Club,http://www.waterfordcastleresort.com/golf-home.html,+353(0)51871633,-7.058465,52.251676,Waterford,Waterford City,Republic of Ireland
2671,Woodstock Hotel Golf Course,http://www.woodstockgolfclub.com,+353(0)656899800,-9.027523,52.841029,Clare,Ennis,Republic of Ireland
2674,Rinn Duin Castle Loop,http://visitroscommon.com/IntoNature/RinnDuinWarrenPointLoopandCastleLoop.aspx,+353(0)906630252,-8.00432573022647,53.5441966619341,Roscommon,"Roscommon West Business Park, Golf Links Road",Republic of Ireland
2675,Rinn Duin - Warren Point Loop,http://www.irishtrails.ie/Trail/Rinn-Duin---Warren-Point-Loop/387/,+353(0)867713550,-7.99694429101748,53.5410344934507,Roscommon,Golf Links Road,Republic of Ireland
2682,Castleknock Golf Club,http://www.castleknockgolfclub.ie,+353(0)16408736,-6.395547,53.365751,Dublin,Castleknock,Republic of Ireland
2688,Bunclody Golf & Fishing Club,http://www.bunclodygfc.ie,+353(0)539374444,-6.659808,52.664993,Wexford,Bunclody,Republic of Ireland
2689,Powerscourt Golf Club,http://powerscourtgolfclub.com,+353(0)12046033,-6.186245,53.187075,Wicklow,Enniskerry,Republic of Ireland
2691,Killeen Castle,http://www.killeencastle.com/golf-club/about-killeen-golf-club.asp,+353(0)16893015,-6.594196,53.535326,Meath,Dunsany,Republic of Ireland
2718,Portmarnock Golf Club,http://www.portmarnockgolfclub.ie,+353(0)18462968,-6.12849796614705,53.4168591977057,Dublin,Portmarnock,Republic of Ireland
2798,Golf Vacations Ireland,http://www.golfvacationsireland.com,+353(0)16246366,-6.480969,53.363156,Kildare,Leixlip,Republic of Ireland
2799,Thru The Links Golf Travel,http://www.thruthelinks.com,+353(0)214580978,-8.445678,51.871029,Cork,Douglas,Republic of Ireland
2801,Adams & Butler,http://www.adamsandbutler.com/golf,+353(0)12889355,-6.215285,53.300625,Dublin,Mount Merrion,Republic of Ireland
2830,Slieve Russell Hotel Golf and Country Club,http://www.slieverussell.ie/ciuin-spa.php,+353(0)499526444,-7.558341,54.096246,Cavan,Ballyconnell,Republic of Ireland
2857,"The River Spa  at Knightsbrook Hotel, Spa and Golf Resort",http://www.knightsbrook.com,+353(0)469482100,-6.7644,53.548435,Meath,Trim,Republic of Ireland
2895,Celtic Fairways Golf,http://www.CelticFairways.com,+353(0)18284008,-6.137908,53.437931,Dublin,Dublin 13,Republic of Ireland
2906,Irish Golf Classics,http://www.irishgolfclassics.ie/,+353(0)12890830,-6.166771,53.267788,Dublin,Cornelscourt,Republic of Ireland
2932,Galway Bay Golf Resort,http://www.galwaybaygolfresort.com/,+353(0)91790711,-8.976056,53.24942,Galway,Oranmore,Republic of Ireland
2936,JDL Golf Ltd,http://www.playandstayireland.com/,+353(0)876686900,-6.332779,52.245585,Wexford,Rosslare Harbour,Republic of Ireland
2954,Ballinteskin Par 3 Golf Course,http://ballinteskinpar3golf.com/,+353(0)51422779,-6.940909,52.349225,Wexford,New Ross,Republic of Ireland
2988,The Spa at Druids Glen Hotel & Golf Resort,http://www.druidsglenresort.com/spa-hotel-wicklow/,+353(0)12870834,-6.07744910285373,53.0915453104873,Wicklow,Newtownmountkennedy,Republic of Ireland
3009,Farnham Estate Golf Club,http://www.farnhamestate.ie/golf-resort.html,+353(0)494326482,-7.39924056007692,53.9934276086889,Cavan,Cavan Town,Republic of Ireland
3036,Marlay Golf Course,http://dlrleisure.ie/marlay/golf/,+353(0)14069745,-6.27188008483744,53.2693358311328,Dublin,Rathfarnham,Republic of Ireland
3060,Moyvalley Golf Club,http://www.moyvalleygolfclub.com/,+353(0)469548080,-6.92238889160159,53.4133632665911,Kildare,Moyvalley,Republic of Ireland
3083,Glasson Hotel and Country Club,http://www.glassongolfhotel.ie/EN/Golf-Course.html,+353(0)906485120,-7.90047149512327,53.4754086745756,Westmeath,Athlone,Republic of Ireland
3143,Glen Mill Golf Club,http://www.glenmillgolfclub.ie,+353(0)12810977,-6.09022140910644,53.0676904119475,Wicklow,Newcastle,Republic of Ireland
3146,Just Golf,http://www.JustGolf.ie,+353(0)16855095,-6.26134754506983,53.3297634306725,Dublin,Canal Road,Republic of Ireland
3711,Individuality Golf Travel,https://twitter.com/IndividualityGT,,-8.56914576918256,54.6544884490911,Donegal,Kilcar,Republic of Ireland
3768,Ballybunion Crazy Golf,,+353(0)872723650,-9.65655044433594,52.4956673113177,Kerry,Ballybunion,Republic of Ireland
4015,Old Country Golf & Tours,http://www.octireland.com,+353(0)873607864,-9.70051681721145,52.2731768453068,Kerry,Kenmare,Republic of Ireland
4054,Green Landscapes Social Golf Breaks Ireland,http://landscapesgreen.com/,+353(0)876817089,-6.192047423585,53.609231285418,Dublin,Balbriggan,Republic of Ireland
4060,Connemara Isles Golf Club,http://www.connemaraislesgolf.com,+353(0)876251832,-9.66859756391148,53.2902943822425,Galway,Lettermore,Republic of Ireland
4197,Castlemartyr Resort,http://www.castlemartyrresort.ie/golf-ireland/,+353(0)214219001,-8.06874063186035,51.9081883391456,Cork,Castlemartyr,Republic of Ireland
4448,Footgolf at Deer Park Golf and Poc Fada,http://deerparkgolf.ie/footgolf/,+353(0)18323487,-6.07522757128913,53.3821384624811,Dublin,Howth,Republic of Ireland
4449,Poc Fada at Deer Park Golf and Footgolf,http://deerparkgolf.ie/poc-fada-golf/,+353(0)18323487,-6.0764149,53.382554,Dublin,Howth,Republic of Ireland
4579,Luttrellstown Castle Golf & Country Club,http://www.luttrellstowncastle.com,,-6.41557,53.3747,Dublin,Castleknock,Republic of Ireland
4594,Galway Bay Golf Resort,http://www.galwaybaygolfresort.com,,-8.9742739,53.2498052,Galway,Galway City,Republic of Ireland
4654,Curran Golf,http://currangolf.com,+353(0)15514485,-6.2542181,53.325772,Dublin,Ranelagh,Republic of Ireland
4707,Experience Ireland Golf and Travel,http://experienceirelandgolfandtravel.com,+353(0)646622830,-9.51422360370293,52.1002136004769,Kerry,Killarney,Republic of Ireland
4877,Wild Atlantic Golf Tours,http://wildatlanticgolftours.com,+353(0)861721326,-8.99457460942096,52.8198483164811,Clare,Ennis,Republic of Ireland
4887,G Golf Ireland,http://ggolfireland.org,+353(0)14429688,-6.10196961590588,53.5703968475106,Dublin,Skerries,Republic of Ireland
5010,Carr Golf Travel,http://www.carrgolf.com,+353(0)18226662,-6.349643,53.387157,Dublin,Clonsilla,Republic of Ireland
5098,Green Golf Ball Ltd.,http://www.greengolfball.com,+353(0)19059716,-6.21597222470461,53.4699796977717,Dublin,Swords,Republic of Ireland
