ID,NAME,URL,TELEPHONE,LONGITUDE,LATITUDE,ADDRESS_REGION,ADDRESS_LOCALITY,ADDRESS_COUNTRY
35,Castle Leslie Restaurant,http://www.castleleslie.com,+353(0)4788100,-6.895825,54.316282,Monaghan,Glaslough,Republic of Ireland
36,Marconi Restaurant,http://www.foyleshotel.com,+353(0)9521801,-10.022791,53.48865,Galway,Clifden,Republic of Ireland
85,The Lord Bagenal Restaurant,http://www.lordbagenal.com/restaurant-carlow.html,+353(0)599774000,-6.97627156679539,52.7367646658214,Carlow,Leighlinbridge,Republic of Ireland
108,Castle Murray Hotel and Restaurant,http://www.castlemurray.com,+353(0)749737022,-8.375056,54.620455,Donegal,Dunkineely,Republic of Ireland
154,The Yellow Pepper Restaurant,http://www.yellowpepperrestaurant.com,+353(0)749124133,-7.738146,54.948175,Donegal,Letterkenny,Republic of Ireland
155,Richmond House Restaurant,http://www.richmondhouse.net,+353(0)5854278,-7.846722,52.139252,Waterford,Cappoquin,Republic of Ireland
161,The Lake Room Restaurant,http://www.aghadoeheights.com,+353(0)646631766,-9.556431,52.077414,Kerry,Killarney,Republic of Ireland
162,Blind Piper Restaurant,http://www.blindpiperpub.com/,+353(0)669475126,-10.100764,51.769538,Kerry,Caherdaniel,Republic of Ireland
163,Bricín Craft Shop & Restaurant,http://www.bricin.ie,+353(0)646634902,-9.510202562583,52.0609446588225,Kerry,Killarney,Republic of Ireland
190,The Chart House Restaurant,http://www.thecharthousedingle.com,+353(0)669152255,-10.270688,52.138492,Kerry,Dingle,Republic of Ireland
218,White Gables Restaurant,http://www.whitegables.com,+353(0)91555744,-9.18053812764742,53.3380179961077,Galway,Moycullen,Republic of Ireland
231,Glasson Village Restaurant,http://glassonvillagerestaurant.ie/,+353(0)906485001,-7.863486,53.474006,Westmeath,Athlone,Republic of Ireland
235,Michelangelo Restaurant,http://www.michelangelo.ie/,+353(0)16271809,-6.53770130919269,53.3408717261853,Kildare,Celbridge,Republic of Ireland
258,Blairscove House & Restaurant,http://www.blairscove.ie,+353(0)2761127,-9.538311,51.608745,Cork,Bantry,Republic of Ireland
260,Gearoidin's Restaurant,,+353(0)238834444,-8.889883,51.623211,Cork,Clonakilty,Republic of Ireland
267,Murphy's Restaurant,,+353(0)2770244,-9.909832,51.651926,Cork,Castletownbere,Republic of Ireland
268,The Original Blarney Stone Restaurant,http://www.blarneystonerestaurant.com,+353(0)214385482,-8.566773,51.934413,Cork,Blarney,Republic of Ireland
269,O'Connor's Seafood Restaurant,http://www.oconnorseafood.com,+353(0)2755664,-9.453613,51.680211,Cork,Bantry,Republic of Ireland
270,Packie's Restaurant,,+353(0)646641508,-9.583425,51.878479,Kerry,Kenmare,Republic of Ireland
271,Scéal Eile Restaurant - Marguerite's Bakery,http://www.facebook.com/Sceal-Eile-127006777374000/,+353(0)646635066,-9.509862,52.059543,Kerry,Killarney,Republic of Ireland
273,The Cottage Restaurant,,+353(0)667130176,-9.928528,52.226203,Kerry,Tralee,Republic of Ireland
274,The Lime Tree Restaurant,http://www.limetreerestaurant.com,+353(0)646641225,-9.58217171966077,51.87830753543,Kerry,Kenmare,Republic of Ireland
275,Tung Sing Restaurant,,+353(0)214274616,-8.47115,51.898609,Cork,Cork City,Republic of Ireland
276,Wylam Chinese Restaurant,,+353(0)214341063,-8.50538,51.892378,Cork,Cork City,Republic of Ireland
277,Mac's Restaurant,http://www.macsofmainstreet.com,+353(0)646635213,-9.509407,52.058726,Kerry,Killarney,Republic of Ireland
278,B's Restaurant at Castle Hotel & Leisure Centre,http://www.castlehotel.ie/en/bs-restaurant/,+353(0)2641074,-8.95839328339764,51.9048873096783,Cork,Macroom,Republic of Ireland
309,Mulcahy's  Restaurant,http://www.mulcahys.ie,+353(0)526125054,-7.701555,52.353601,Tipperary,Clonmel,Republic of Ireland
312,The Strand Inn - Seafood Restaurant,http://www.dunmoreeast.com,+353(0)51383174,-6.994312,52.155239,Waterford,Dunmore East,Republic of Ireland
330,Courthouse Restaurant,http://www.thecourthouserest.com,+353(0)719842391,-8.285263,54.447583,Leitrim,Kinlough,Republic of Ireland
332,The Silver Tassie Restaurant,http://www.silvertassiehotel.com/dining-letterkenny.html,+353(0)749125619,-7.670483,54.986084,Donegal,Letterkenny,Republic of Ireland
336,Ginos Pizza Restaurant,http://www.facebook.com/GinosW/,+353(0)51879513,-7.111429,52.25821,Waterford,Waterford City,Republic of Ireland
351,Munster Room Restaurant at Waterford Castle,http://www.waterfordcastlehotel.com,+353(0)51878203,-7.059379,52.253377,Waterford,Waterford City,Republic of Ireland
363,Pats Craft Shop & Restaurant,http://www.patscraftshop.com,+353(0)669477601,-10.098386,52.012986,Kerry,Kells,Republic of Ireland
374,Fenton's Restaurant,http://www.fentonsrestaurantdingle.com/,+353(0)669152172,-10.271669,52.140025,Kerry,Dingle,Republic of Ireland
391,Amicus Restaurant,http://www.amicusrestaurant.ie,+353(0)214276455,-8.474645,51.899198,Cork,Cork City,Republic of Ireland
403,Nick's Restaurant,,+353(0)669761219,-9.785164,52.106165,Kerry,Killorglin,Republic of Ireland
406,Coach Lane Restaurant,http://www.coachlane.com,+353(0)719162417,-8.480476,54.271705,Sligo,Sligo Town,Republic of Ireland
413,Gaby's Seafood Restaurant,,+353(0)646632519,-9.510169,52.061066,Kerry,Killarney,Republic of Ireland
422,Doyle's Seafood Restaurant,http://www.doylesofdingle.ie,+353(0)669152674,-10.26656,52.140689,Kerry,Dingle,Republic of Ireland
429,Annalee Restaurant,http://www.hotelkilmore.ie/annalee-restaurant.html,+353(0)494332288,-7.322566,53.986931,Cavan,Cavan Town,Republic of Ireland
430,CJ's Restaurant,http://www.thelandmarkhotel.com,+353(0)719622222,-8.092845,53.94355,Leitrim,Carrick-On-Shannon,Republic of Ireland
436,Beaches Restaurant at Kelly's Resort Hotel,http://www.kellys.ie,+353(0)539132114,-6.387774,52.275493,Wexford,Rosslare,Republic of Ireland
441,Lemon Tree Restaurant,http://www.thelemontreerestaurant.com/,+353(0)749125788,-7.738529,54.948332,Donegal,Letterkenny,Republic of Ireland
458,The Galleon Restaurant,http://thegalleonrestaurant.ie/,+353(0)91522963,-9.075967,53.260369,Galway,Salthill,Republic of Ireland
471,Sol Rio Restaurant,http://www.solrio.ie,+353(0)9828944,-9.522386,53.799089,Mayo,Westport,Republic of Ireland
480,The Hazelwood Restaurant at The Sligo Park Hotel,http://www.leehotels.com,+353(0)719190400,-8.470572,54.254178,Sligo,Sligo Town,Republic of Ireland
502,Acorn Restaurant,http://www.castleoaks.ie,+353(0)61377666,-8.4931555268555,52.7155214608249,Limerick,Castleconnell,Republic of Ireland
504,The Wild Geese Restaurant,http://www.bookatable.com,+353(0)61396451,-8.787281,52.564734,Limerick,Adare,Republic of Ireland
505,Conall Cearnach Restaurant,http://www.slieverussell.ie,+353(0)499526444,-7.55709645501713,54.0968877445894,Cavan,Ballyconnell,Republic of Ireland
526,Cullinan's Restaurant & Guesthouse,http://www.cullinansdoolin.com,+353(0)657074183,-9.377322,53.01641,Clare,Doolin,Republic of Ireland
530,Derg Room Restaurant,http://www.lakesidehotel.ie/dining-killaloe,+353(0)61376122,-8.444087,52.810485,Tipperary,Killaloe,Republic of Ireland
536,Byrnes Restaurant,http://www.byrnes-ennistymon.ie/,+353(0)657071080,-9.29352988372091,52.9397012120524,Clare,Ennistymon,Republic of Ireland
539,Vaughans Anchor Inn,http://www.vaughans.ie/restaurant.htm,+353(0)657081548,-9.391002,52.938804,Clare,Liscannor,Republic of Ireland
543,Legends Restaurant,http://www.templegatehotel.com,+353(0)666823300,-8.981726,52.843523,Clare,Ennis,Republic of Ireland
546,Galway Bakery Company Restaurant and Coffee Shop,http://www.facebook.com/GBC,+353(0)91563087,-9.05079,53.274075,Galway,Galway City,Republic of Ireland
573,Bofey Quinns Restaurant,http://www.bofeyquinns.weebly.com,+353(0)656837321,-9.06522,52.94515,Clare,Corofin,Republic of Ireland
576,Muckross Park Hotel Restaurant,http://www.muckrosspark.com,+353(0)646631938,-9.48982,52.024808,Kerry,Killarney,Republic of Ireland
591,The Galway Plate Restaurant,http://www.facebook.com/galwayplate/,+353(0)91770589,-9.017215,53.294094,Galway,Galway City,Republic of Ireland
615,Weeping Thaiger Restaurant,https://www.facebook.com/weepingthaiger?fref=ts,+353(0)599137000,-6.936515,52.836543,Carlow,Mill Lane ,Republic of Ireland
620,Moghul Indian Restaurant,,+353(0)2755799,-9.450216,51.680015,Cork,Bantry,Republic of Ireland
622,The Bakehouse Restaurant,http://www.bakehouse.ie/,+353(0)61382475,-8.548111,52.474757,Limerick,Bruff,Republic of Ireland
630,Fisher Street Restaurant,http://www.actonshotelkinsale.com,+353(0)214779900,-8.521201,51.703315,Cork,Kinsale,Republic of Ireland
633,La Cascade Restaurant,http://www.sheenfallslodge.ie,+353(0)646641600,-9.563494,51.8743,Kerry,Kenmare,Republic of Ireland
653,Caisleáin Oir Restaurant,http://www.caisleainoir.ie,+353(0)749548113,-8.325378,55.020816,Donegal,Annagry,Republic of Ireland
655,Lemongrass Asian Restaurant,http://www.lemongrass.ie,+353(0)599139392,-6.930446,52.83502,Carlow,Carlow Town,Republic of Ireland
668,The Cliff Restaurant,,+353(0)6827777,-9.673277,52.514457,Kerry,Ballybunion,Republic of Ireland
712,Castlelough Restaurant,http://www.lakehotel.com,+353(0)646631035,-9.499802,52.038296,Kerry,Killarney,Republic of Ireland
715,Barnabrow Country House,http://www.barnabrowhouse.ie/restaurant/,+353(0)214652534,-8.088801,51.869017,Cork,Midleton,Republic of Ireland
747,Ripple's Restaurant,http://www.facebook.com/Ripples-Restaurant-230762570335285/,+353(0)749150110,-7.671082,55.13863,Donegal,Kerrykeel,Republic of Ireland
761,Bon Appetit Restaurant,http://www.bonappetit.ie,+353(0)18450314,-6.151899,53.451642,Dublin,Malahide,Republic of Ireland
772,Chapter One Restaurant,http://www.chapteronerestaurant.com,+353(0)18732266,-6.263985,53.354366,Dublin,Dublin City,Republic of Ireland
773,Coachman's Inn Restaurant,,+353(0)18401227,-6.229251,53.432459,Dublin,Dublin City,Republic of Ireland
783,FXB Restaurant Monkstown,http://www.fxbuckley.ie/contact-us/,+353(0)12846187,-6.153444,53.294065,Dublin,Monkstown,Republic of Ireland
784,FXB Steak & Seafood Restaurant Pembroke Street,http://www.fxbuckley.ie/pembroke/,+353(0)16764606,-6.25180869501492,53.337509355893,Dublin,Dublin City,Republic of Ireland
786,Govinda's Restaurant,http://www.govindas.ie,+353(0)14750309,-6.265299,53.341158,Dublin,Dublin city centre,Republic of Ireland
788,Il Vignardo Restaurant,http://www.beresfordhotelifsc.com/en/restaurant/,+353(0)18134700,-6.252751,53.350087,Dublin,Dublin City,Republic of Ireland
795,Lalis Restaurant,,+353(0)18464044,-6.125109,53.432469,Dublin,Portmarnock,Republic of Ireland
797,Les Freres Jacques Restaurant,http://www.lesfreresjacques.com,+353(0)16794555,-6.266237,53.344313,Dublin,Dublin City,Republic of Ireland
809,Alex Restaurant,http://conradhotels3.hilton.com/en/hotels/ireland/conrad-dublin-DUBHCCI/index.html,+353(0)16028900,-6.257232,53.334945,Dublin,Dublin city centre,Republic of Ireland
823,Trocadero Restaurant,http://www.trocadero.ie/,+353(0)16775545,-6.261744,53.343382,Dublin,Dublin City,Republic of Ireland
835,Mao Restaurant,http://www.mymao.ie,+353(0)16704899,-6.262594,53.341098,Dublin,Dublin City,Republic of Ireland
855,"Kilkenny Shop, Cafe & Restaurant",http://www.kilkennyshop.com,+353(0)16777075,-6.255074,53.342141,Dublin,Dublin City,Republic of Ireland
867,El Bahia Moroccan Restaurant,http://www.elbahia.com,+353(0)16770213,-6.260771,53.342803,Dublin,37 Wicklow Street,Republic of Ireland
880,Comara Restaurant,,+353(0)2771111,-9.910071,51.651769,Cork,Castletownbere,Republic of Ireland
1028,Tyrrellspass Castle Restaurant,https://www.facebook.com/tyrrellspasscastle/,+353(0)449223105,-7.38146850354303,53.3861203795529,Westmeath,Tyrrellspass,Republic of Ireland
1128,Durty Nellys Loft Restaurant,http://www.durtynellys.ie,+353(0)61364861,-8.81169,52.696428,Clare,Bunratty,Republic of Ireland
1129,Durty Nellys Oyster Restaurant,http://www.durtynellys.ie,+353(0)61364861,-8.81169,52.696428,Clare,Bunratty,Republic of Ireland
1130,Flappers Restaurant,http://www.facebook.com/Flappers-Restaurant-296732780346189/,+353(0)656835711,-8.757404,52.867331,Clare,Tulla,Republic of Ireland
1133,The Cottage Restaurant Liscannor,,+353(0)657081760,-9.40122152324413,53.0253525049348,Clare,Liscannor,Republic of Ireland
1136,Greenes Restaurant,http://www.greenesrestaurant.com,+353(0)214552279,-8.468089,51.901594,Cork,Cork City,Republic of Ireland
1137,The Mill Restaurant,http://www.blarneywoollenmillshotel.com,+353(0)214385011,-8.565266,51.933237,Cork,Blarney,Republic of Ireland
1138,Gulfstream Restaurant,http://www.inchydoneyisland.com/dining.html,+353(0)238833143,-8.862292,51.597367,Cork,Clonakilty,Republic of Ireland
1144,Grill Restaurant at Silver Springs,http://www.claytonhotelsilversprings.com/dining-options/restaurant/,+353(0)214507533,-8.423457,51.904219,Cork,Tivoli,Republic of Ireland
1145,Castle Grove Country House and Restaurant,http://www.castlegrove.com,+353(0)749151118,-7.648227,54.986987,Donegal,Letterkenny,Republic of Ireland
1150,Raglan's Restaurant,http://www.ballsbridgehotel.com/dining-options/raglans-restaurant/,+353(0)16379300,-6.232693,53.330221,Dublin,Ballsbridge,Republic of Ireland
1151,Flanagans Restaurant And Pizzeria,http://www.flanagansrestaurantdublin.com/,+353(0)18731388,-6.261025,53.350309,Dublin,Dublin City Centre,Republic of Ireland
1153,Kingfisher Restaurant,http://www.kingfisherdublin.com,+353(0)18728732,-6.263301,53.351832,Dublin,Dublin City Centre,Republic of Ireland
1161,L' Ecrivain Restaurant,http://www.lecrivain.com/,+353(0)16611919,-6.248751,53.336231,Dublin,Dublin City Centre,Republic of Ireland
1162,Victoria Chinese Restaurant,,+353(0)14572389,-6.393712,53.320968,Dublin,Clondalkin,Republic of Ireland
1164,Mitchells Restaurant,http://www.mitchellsrestaurantclifden.com/,+353(0)9521867,-10.022122,53.488162,Galway,Clifden,Republic of Ireland
1166,Tulsi Restaurant Galway,http://www.facebook.com/TulsiIndianGalway/,+353(0)91564831,-9.051776,53.272196,Galway,Galway City,Republic of Ireland
1168,Foley's Seafood And Steak Restaurant,,+353(0)646631217,-9.509911,52.060817,Kerry,Killarney ,Republic of Ireland
1169,Fossa Rooftop Restaurant,,+353(0)646631497,-9.58930992304496,52.0703670623251,Kerry,Killarney ,Republic of Ireland
1170,Half Door Restaurant,http://www.facebook.com/The-Half-Door-Restaurant-201462569876802/,+353(0)669151600,-10.266645,52.140728,Kerry,Dingle,Republic of Ireland
1172,Sacre Coeur Restaurant,http://www.sacrecoeurrestaurant.com/,+353(0)646645186,-9.902949,51.838857,Kerry,Sneem,Republic of Ireland
1178,Triple House Restaurant,,+353(0)419822616,-6.271901,53.761923,Louth,Termonfeckin,Republic of Ireland
1179,Bianconi  Restaurant at the Granville,http://www.granville-hotel.ie/en/bianconi-restaurant-waterford/,+353(0)51305555,-7.112174,52.262103,Waterford,Waterford City Centre,Republic of Ireland
1180,Maxim House Restaurant,,+353(0)51875820,-7.116049,52.262431,Waterford,Waterford City,Republic of Ireland
1495,Treacy's Restaurant,http://www.treacys.ie,+353(0)578646539,-7.217094,53.067811,Laois,Portlaoise,Republic of Ireland
1516,Ye Olde Coopers Inn & Loft Restaurant,,+353(0)539158942,-6.455567,52.256681,Wexford,Rosslare,Republic of Ireland
1519,Germaine's of Baltinglass,http://www.germaines.ie/dining_eating_in_wicklow/restaurant.html,+353(0)596481783,-6.707448,52.941407,Wicklow,Baltinglass,Republic of Ireland
1529,One Pico Restaurant,http://www.onepico.com,+353(0)16760300,-6.257302,53.340583,Dublin,Dublin City Centre,Republic of Ireland
1533,China Garden Restaurant,,+353(0)469022621,-6.688524,53.652001,Meath,Navan,Republic of Ireland
1535,Jasmine Palace Restaurant,http://www.jasminepalace.ie,+353(0)61412484,-8.628329,52.661991,Limerick,Limerick City,Republic of Ireland
1537,Silks Restaurant,,+353(0)18453331,-6.151677,53.450704,Dublin,Malahide,Republic of Ireland
1538,The Amber Court Chinese Restaurant & Take Away,http://ambercourtmullingar.com,+353(0)449341241,-7.34588178769684,53.5246087073752,Westmeath,Mullingar,Republic of Ireland
1539,Wongs Chinese Restaurant Clontarf Road,http://www.wongs.ie/,+353(0)18334400,-6.173452,53.366929,Dublin,Clontarf,Republic of Ireland
1540,Yung's Restaurant,,+353(0)12842156,-6.129808,53.289714,Dublin,Dún Laoghaire,Republic of Ireland
1541,The Blue Haven Bistro & Restaurant,http://www.bluehavenkinsale.com/,+353(0)214772209,-8.522925,51.706425,Cork,Kinsale,Republic of Ireland
1542,Coast  Restaurant,http://www.thegrand.ie,+353(0)18450000,-6.147441,53.450745,Dublin,Malahide,Republic of Ireland
1543,Deerfields Restaurant,http://www.clareinnhotel.com/index.html,+353(0)61368161,-8.914757,52.788968,Clare,Newmarket-on-fergus,Republic of Ireland
1544,Seasons Restaurant,http://www.whitford.ie,+353(0)539143444,-6.460584,52.336598,Wexford,Wexford Town,Republic of Ireland
1546,Old Mill Restaurant,http://oldmilltemplebar.com/,+353(0)16719262,-6.262958,53.345655,Dublin,Dublin City,Republic of Ireland
1547,The Barn Restaurant,http://www.barn-restaurant.com/,+353(0)214866211,-8.417678,51.919002,Cork,Glanmire,Republic of Ireland
1549,Bombay Palace Restaurant,http://www.bombaypalace.ie,+353(0)214273366,-8.471536,51.897328,Cork,Cork City ,Republic of Ireland
1551,Punjabi by Nature Indian Restaurant & Takeaway,http://www.punjabibynature.ie,+353(0)14960808,-6.255696,53.325786,Dublin,Ranelagh,Republic of Ireland
1552,Saagar Indian Restaurant,http://www.saagarindianrestaurants.com,+353(0)14755012,-6.263579,53.336351,Dublin,Dublin City,Republic of Ireland
1553,Tulsi Restaurant Castlebar,http://www.tulsirestaurantcastlebar.com,+353(0)949025066,-9.29491655092624,53.8583178927162,Mayo,Castlebar,Republic of Ireland
1555,Innfusion Restaurant,http://www.jurysinns.com,+353(0)214943000,-8.464113,51.899415,Cork,Cork City,Republic of Ireland
1558,Isaac's Restaurant,http://www.isaacsrestaurant.ie,+353(0)214503805,-8.468089,51.901594,Cork,Cork City,Republic of Ireland
1561,Orchids Restaurant,http://www.hayfieldmanor.ie/orchids-cork-city-restaurant,+353(0)214845900,-8.490156,51.890985,Cork,Cork City,Republic of Ireland
1562,Hanora D Restaurant,http://www.lucanspahotel.ie/diningatlucanspa.html,+353(0)16280494,-6.463761,53.355392,Dublin,Lucan,Republic of Ireland
1564,The Shack Restaurant,http://www.shackrestaurant.ie,+353(0)16790043,-6.264393,53.34541,Dublin,Dublin City Centre,Republic of Ireland
1565,Boluisce Restaurant,,+353(0)91553286,-9.30654,53.244375,Galway,Spiddal,Republic of Ireland
1570,The Arches Restaurant,,+353(0)61396246,-8.791493,52.564057,Limerick,Adare,Republic of Ireland
1572,Porters Restaurant,http://www.radissonblu.ie/hotel-limerick,+353(0)61456200,-8.710108,52.684376,Limerick,Limerick,Republic of Ireland
1574,The Restaurant at the Abbey Hotel,http://www.abbeyhotel.ie/food-and-wine.html,+353(0)906626240,-8.193698,53.624746,Roscommon,Roscommon Town,Republic of Ireland
1580,Savour Restaurant,http://www.kilkennyormonde.com,+353(0)567723900,-7.253222,52.649597,Kilkenny,Kilkenny,Republic of Ireland
1581,The New Ship Restaurant,http://www.dooleys-hotel.ie,+353(0)51873531,-7.115815,52.262899,Waterford,Waterford City Centre,Republic of Ireland
1582,Reeds Restaurant,http://www.ferrycarrighotel.ie,+353(0)539120999,-6.504497,52.349781,Wexford,Wexford Town,Republic of Ireland
1584,Lime Tree Restaurant,http://tulfarrishotel.com/,+353(0)45867555,-6.560324,53.125532,Wicklow,Blessington,Republic of Ireland
1585,The Wicklow Heather Restaurant,http://www.thewicklowheather.com,+353(0)40445157,-6.302596,53.009253,Wicklow,Glendalough,Republic of Ireland
1586,Lannigan's Restaurant Quality Hotel Clonakilty,,+353(0)238835858,-8.895699,51.616382,Cork,Clonakilty,Republic of Ireland
1587,Robertino's Italian Restaurant,http://www.robertinosrestaurant.com/,+353(0)646634966,-9.509654,52.059879,Kerry,Killarney,Republic of Ireland
1590,The Waterfront Restaurant,http://www.waterfordmarinahotel.com,+353(0)51856600,-7.101714,52.258345,Waterford,Waterford City Centre,Republic of Ireland
1592,Ballinalacken Castle Country House and Restaurant,http://www.ballinalackencastle.com,+353(0)657074025,-9.34113475267031,53.0463618511484,Clare,Lisdoonvarna,Republic of Ireland
1593,Lannigans Restaurant Quality Hotel Shannon,http://www.irishcourthotels.com,+353(0)61364588,-8.861916,52.714767,Clare,Shannon Town,Republic of Ireland
1594,Sheedy's Hotel and Restaurant,http://www.sheedys.com,+353(0)657074026,-9.29131698159933,53.0277478377522,Clare,Lisdoonvarna,Republic of Ireland
1598,Riverview Restaurant,http://www.gresham-hotels-cork.com/,+353(0)214643750,-8.467765,51.901253,Cork,Cork City,Republic of Ireland
1599,Scoozi Restaurant,http://www.scoozis.ie,+353(0)214275077,-8.470011,51.898518,Cork,Cork City,Republic of Ireland
1600,The States Restaurant,,+353(0)214811277,-8.29627,51.849844,Cork,Cobh,Republic of Ireland
1601,Harveys Point Restaurant,http://www.harveyspoint.com,+353(0)749722208,-8.053666,54.695931,Donegal,Donegal Town,Republic of Ireland
1602,Fat Freddy's Restaurant,http://galwayrestaurants.net,+353(0)91567279,-9.054103,53.270943,Galway,Galway City,Republic of Ireland
1603,Park House Hotel And Park Room Restaurant,http://www.parkhousehotel.ie,+353(0)91564924,-9.047021,53.274489,Galway,Galway City Centre,Republic of Ireland
1613,Red Bank Restaurant,http://www.redbank.ie,+353(0)18490439,-6.109053,53.579678,Dublin,Skerries,Republic of Ireland
1617,The Purple Sage Restaurant,http://www.stillorganpark.com,+353(0)12001819,-6.202768,53.294977,Dublin,Stillorgan,Republic of Ireland
1618,The Shanard Restaurant,http://www.regencyhoteldublin.com,+353(0)18373544,-6.246224,53.377535,Dublin,Whitehall,Republic of Ireland
1619,Winding Stair Bookshop and Restaurant,http://www.winding-stair.com,+353(0)18727320,-6.263651,53.346763,Dublin,Dublin City Centre,Republic of Ireland
1620,Trumans Restaurant,http://www.buswells.ie/,+353(0)16146500,-6.255815,53.340752,Dublin,Dublin City Centre,Republic of Ireland
1623,The Park Restaurant Killarney,http://www.killarneyparkhotel.ie,+353(0)646635555,-9.504757,52.057762,Kerry,Killarney ,Republic of Ireland
1624,Pygmalion Restaurant,http://www.parknasillahotel.ie/restaurants,+353(0)646645122,-9.874793,51.815668,Kerry,Parknasilla,Republic of Ireland
1628,Lady Clementina's Restaurant,http://www.dundrumhousehotel.com/tipperary-restaurant.html,+353(0)6271116,-8.03086,52.55045,Tipperary,Cashel,Republic of Ireland
1632,Ath Luain Restaurant - Shamrock Lodge Hotel,http://www.shamrocklodgehotel.ie/food-beverage.html,+353(0)906492601,-7.95046313768819,53.4215265179987,Westmeath,Athlone,Republic of Ireland
1635,The Terrace Restaurant,http://www.whitesofwexford.ie,+353(0)539122311,-6.464011,52.340348,Wexford,Wexford Town,Republic of Ireland
1672,Jade Garden Restaurant,,+353(0)429330379,-6.403911,54.002343,Louth,Dundalk,Republic of Ireland
1674,Auburn Lodge Oyster Restaurant,http://www.auburnlodge.com/,+353(0)656821247,-8.980638,52.865339,Clare,Ennis,Republic of Ireland
1677,Jacques Restaurant,http://www.jacquesrestaurant.ie,+353(0)214277387,-8.469676,51.897854,Cork,Cork City,Republic of Ireland
1678,Da Vincis Restaurant,http://www.davincis.ie,+353(0)16244908,-6.491372,53.363406,Kildare,Leixlip,Republic of Ireland
1681,Ragazzi Italian Restaurant,,+353(0)12847280,-6.102749,53.277243,Dublin,Dalkey,Republic of Ireland
1682,Unicorn Cafe And Restaurant,https://www.facebook.com/#!/pages/The-Unicorn-Restaurant/242221512535257?fref=ts&rf=146132722098381,+353(0)16762182,-6.254792,53.338076,Dublin,Dublin City Centre,Republic of Ireland
1703,Baan Thai Restaurant - Ballsbridge,http://www.baanthai.ie,+353(0)16608833,-6.230224,53.328989,Dublin,Dublin City,Republic of Ireland
1704,Beshoffs Restaurant,http://www.beshoffrestaurant.com/,+353(0)18724400,-6.2600837233981,53.3502615197419,Dublin,Dublin,Republic of Ireland
1705,Joels Restaurant Newlands Cross,http://www.joels.ie,+353(0)14033336,-6.392954,53.320814,Dublin,Clondalkin,Republic of Ireland
1709,The Old Schoolhouse Restaurant,http://www.theoldschoolhouse.ie/,+353(0)18402846,-6.222929,53.456663,Dublin,Swords,Republic of Ireland
1711,Caravaggios Restaurant,http://www.ocallaghanhotels.com,+353(0)16073700,-6.249085,53.341851,Dublin,Dublin City Centre,Republic of Ireland
1712,Nicos Restaurant,,+353(0)16773062,-6.264166,53.344307,Dublin,Dublin City Centre,Republic of Ireland
1718,Thai House Restaurant,http://www.thaihouse.ie,+353(0)12847304,-6.103244,53.276706,Dublin,Dalkey,Republic of Ireland
1720,King Sitric Fish Restaurant,http://www.kingsitric.ie,+353(0)18325235,-6.06366,53.388203,Dublin,Howth,Republic of Ireland
1747,The Candle Room Restaurant,http://www.killarneyroyal.ie,+353(0)646631853,-9.505592,52.060059,Kerry,Killarney,Republic of Ireland
1748,Tung Sing Restaurant,,+353(0)214382138,-8.561638,51.933633,Cork,Blarney,Republic of Ireland
1754,Mayflower Chinese & Seafood Restaurant,,+353(0)646632212,-9.507616,52.058431,Kerry,Killarney,Republic of Ireland
1795,Richy's Restaurant & R Café,http://www.richysbarandbistro.com,+353(0)238821852,-8.88606175327299,51.6233422411448,Cork,Clonakilty,Republic of Ireland
1801,Kelly's Restaurant,,+353(0)214273375,-8.473961,51.897096,Cork,Cork City,Republic of Ireland
1807,Dynasty Chinese Restaurant,,+353(0)2823419,-9.270498,51.549883,Cork,Skibbereen,Republic of Ireland
1815,Bridge House Restaurant,http://www.bridgehousehoteltullamore.ie,+353(0)579322000,-7.49265269444276,53.2751108827717,Offaly,Tullamore,Republic of Ireland
1819,Windmill Restaurant,http://www.tullamorecourthotel.ie,+353(0)579346666,-7.49252255952455,53.2704283856735,Offaly,Tullamore,Republic of Ireland
1823,Mezzo Italian Restaurant,http://www..mezzorestaurant.ie,+353(0)579329333,-7.494028,53.275789,Offaly,Tullamore,Republic of Ireland
1824,Sirocco’s Italian Restaurant,http://www.siroccos.net,+353(0)579352839,-7.49434561474993,53.2757655991001,Offaly,Tullamore,Republic of Ireland
1862,Chopsticks Oriental Restaurant and Take Away,,+353(0)61921283,-8.532148,52.91065,Clare,Scarriff,Republic of Ireland
1864,Dhaka Indian Tandouri Restaurant and Take Away,,+353(0)61640688,-8.532222,52.910152,Clare,Scarriff,Republic of Ireland
1933,Fuchsia House Restaurant,http://www.fuchsiahouse.ie,+353(0)416858432,-6.540749,53.862291,Louth,Ardee,Republic of Ireland
1939,Copper and Spice Restaurant,http://www.copperandspice.com,+353(0)61338791,-8.622674,52.663452,Limerick,Limerick City Centre,Republic of Ireland
1952,Vanilla Pod Restaurant,http://www.headfortarms.ie,+353(0)469240084,-6.874785,53.727007,Meath,Kells,Republic of Ireland
1959,Breffni Arms Hotel Restaurant,http://www.breffniarms.ie,+353(0)494335127,-7.58367322090146,53.9250448118212,Cavan,Arvagh,Republic of Ireland
1960,The Pike Restaurant at the Pikers Lodge,http://www.pikerslodge.com,+353(0)436683109,-7.53401,53.87287,Cavan,Lough Gowna,Republic of Ireland
1964,Reynards Restaurant at Errigal Country House Hotel,http://www.errigalhotel.com/dining/,+353(0)495556901,-7.102662,54.06511,Cavan,Cootehill,Republic of Ireland
1965,The Keepers Arms Restaurant,http://www.keepersarms.com/,+353(0)499523318,-7.676686,54.12045,Cavan,Bawnboy,Republic of Ireland
1967,Classiebawn Restaurant,http://www.sligo.radissonsas.com,+353(0)719140008,-8.500701,54.299059,Sligo,Rosses Point,Republic of Ireland
1968,The Courtroom Restaurant at Cabra Castle,http://www.cabracastle.com,+353(0)429667030,-6.77495150769038,53.9136730783664,Cavan,Kingscourt,Republic of Ireland
1971,The Oak Room Restaurant,http://www.theoakroom.ie,+353(0)494371414,-7.36183117196651,53.9896997019192,Cavan,Cavan Town,Republic of Ireland
1972,Holly Tree Restaurant,http://www.ballyliffinlodge.com/dining/jacks-restaurant-menu,+353(0)749378200,-7.395356,55.280175,Donegal,Ballyliffin,Republic of Ireland
1973,Tribeca Restaurant,http://www.radissonsas.com,+353(0)749194444,-7.733528,54.947011,Donegal,Letterkenny,Republic of Ireland
1974,Ard Na Breatha Restaurant,http://www.ardnabreatha.com,+353(0)749722288,-8.101196,54.662845,Donegal,Donegal Town,Republic of Ireland
1977,Granary Restaurant,http://www.millparkhotel.com/granary.aspx,+353(0)749722880,-8.118215,54.65912,Donegal,Donegal Town,Republic of Ireland
1978,Aileach Restaurant,http://www.clanreehotel.com,+353(0)749124369,-7.698523,54.943583,Donegal,Letterkenny,Republic of Ireland
1980,Fiacri Country House Restaurant,http://www.fiacrihouse.com,+353(0)50543017,-7.739576,52.886779,Tipperary,Roscrea,Republic of Ireland
1990,Fara's Restaurant,http://www.villarose.net,+353(0)749132266,-7.781476,54.799599,Donegal,Ballybofey,Republic of Ireland
2022,Stella Maris Country House Hotel Restaurant,http://www.stellamarisireland.com,+353(0)9643322,-9.393234,54.298718,Mayo,Ballycastle,Republic of Ireland
2126,Stonecutters Restaurant,http://www.stonecutterskitchen.com,+353(0)657075962,-9.403037,52.992716,Clare,Doolin,Republic of Ireland
2141,Cellar One Restaurant,http://www.theross.ie,+353(0)646631855,-9.507787,52.058101,Kerry,Killarney,Republic of Ireland
2143,Checkers Restaurant,http://www.randlescourt.com,+353(0)646635333,-9.50645,52.053937,Kerry,Killarney,Republic of Ireland
2159,Vittos Restaurant,http://www.vittosrestaurant.com,+353(0)719627000,-8.095588,53.945118,Leitrim,Carrick On Shannon,Republic of Ireland
2185,Sqigl Restaurant,http://sqiglrestaurant.com,+353(0)51389188,-6.933831,52.221495,Wexford,Duncannon,Republic of Ireland
2193,The Bards Den Restaurant & Pub,http://www.bardsden.com,+353(0)9541042,-9.947931,53.553605,Galway,Letterfrack,Republic of Ireland
2229,White Oak Restaurant - Kilford Arms Hotel,http://www.kilfordarms.ie,+353(0)567761018,-7.24767463004207,52.6541010671109,Kilkenny,Kilkenny City,Republic of Ireland
2230,The Forge Restaurant,http://www.theforgekilbride.ie,+353(0)599159939,-6.722975,52.720151,Carlow,Ballon,Republic of Ireland
2233,Lady Helen Restaurant at Mount Juliet,http://www.mountjuliet.ie,+353(0)567773000Ext.1113,-7.19078,52.527848,Kilkenny,Thomastown ,Republic of Ireland
2234,Kendals Brasserie,http://www.mountjuliet.ie/kendals-restaurant.html,+353(0)567773000Ext.1213,-7.190792,52.527851,Kilkenny,Thomastown,Republic of Ireland
2239,Crew's Steak and Seafood Restaurant,http://www.crews.ie,+353(0)5823422,-7.617161,52.088626,Waterford,Dungarvan,Republic of Ireland
2240,The Signal Restaurant,http://www.stationhousehotel.ie,+353(0)469025239,-6.66682120734026,53.5638189761184,Meath,Kilmessan,Republic of Ireland
2243,The Yard Restaurant,http://www.theyard.ie,+353(0)539144083,-6.463659,52.341259,Wexford,Wexford Town,Republic of Ireland
2250,Marlfield House Restaurant,http://www.marlfieldhouse.com,+353(0)539421124,-6.275252,52.668619,Wexford,Gorey,Republic of Ireland
2251,The Tannery Restaurant,http://www.tannery.ie,+353(0)5845420,-7.616855,52.088591,Waterford,Dungarvan,Republic of Ireland
2267,Jacob's Ladder Restaurant,http://www.watersedgehotel.ie,+353(0)214815566,-8.297908,51.849027,Cork,Cobh,Republic of Ireland
2268,Restaurant d'Antibes,http://www.whitehouse-kinsale.ie/accommodation-kinsale/Restaurant,+353(0)214772125,-8.523351,51.706606,Cork,Kinsale,Republic of Ireland
2279,Carrig Country House Restaurant,http://www.carrighouse.com,+353(0)669769100,-9.850168,52.073957,Kerry,Caragh Lake,Republic of Ireland
2316,The Pig's Ear Restaurant,http://www.thepigsear.com,+353(0)16703865,-6.254989,53.342132,Dublin,Dublin City Centre,Republic of Ireland
2318,Coole Park Restaurant,http://www.coolepark.ie,+353(0)91631669,-8.837481,53.092379,Galway,Gort,Republic of Ireland
2319,Aqua Restaurant,http://www.aqua.ie,+353(0)18320690,-6.06638090223151,53.3880061928278,Dublin,Howth,Republic of Ireland
2321,Red Oak Restaurant,,+353(0)877974079,-8.318872,53.089164,Galway,Portumna,Republic of Ireland
2323,Mirchi Cafe and Restaurant,,+353(0)469773800,-7.04171910052491,53.3447731179405,Offaly,Edenderry,Republic of Ireland
2329,Saba Restaurant at Clarendon Street,http://www.sabadublin.com,+353(0)16792000,-6.262036,53.341097,Dublin,Dublin City Centre,Republic of Ireland
2355,"Benny's Deli, Restaurant and Café",http://www.bennysdeli.com,+353(0)949620575,-8.494804,53.769288,Roscommon,Castlerea,Republic of Ireland
2392,Jackson's Restaurant,,+353(0)906634140,-8.190078,53.631014,Roscommon,Roscommon Town,Republic of Ireland
2404,The Bay Leaf Restaurant,http://www.thebayleaf.ie/,+353(0)949289743,-9.198124,53.886866,Mayo,Castlebar,Republic of Ireland
2429,Cornstore Restaurant,http://www.cornstorelimerick.com,+353(0)61609000,-8.62525,52.662551,Limerick,Limerick City,Republic of Ireland
2430,Poppadom Restaurant,http://www.poppadom.ie,+353(0)61446444,-8.623261,52.663554,Limerick,Limerick City,Republic of Ireland
2431,Milano Restaurant,http://www.milano.ie,+353(0)61462030,-8.630177,52.663623,Limerick,Limerick City,Republic of Ireland
2433,The French Table Restaurant,http://www.frenchtable.ie,+353(0)61609274,-8.635194,52.660632,Limerick,Limerick City,Republic of Ireland
2434,Bambu Restaurant,,+353(0)61410503,-8.628241,52.662776,Limerick,Limerick City,Republic of Ireland
2436,Thai Gourmet Restaurant,http://www.thaigourmet.ie,+353(0)61312012,-8.629312,52.660938,Limerick,Limerick City,Republic of Ireland
2518,Cavistons Seafood Restaurant and Food Emporium,http://www.cavistons.com,+353(0)12809245,-6.122874,53.287157,Dublin,Glasthule,Republic of Ireland
2556,The Silver Fox Seafood Restaurant,http://www.thesilverfox.ie,+353(0)539129888,-6.589223,52.173224,Wexford,Kilmore Quay,Republic of Ireland
2608,Cinnamon Garden Restaurant,http://www.cinnamongarden.ie,+353(0)18352777,-6.398761,53.512588,Meath,Ashbourne,Republic of Ireland
2609,L'Arco Italian Restaurant,http://www.burrenrestaurant.com,+0353(0)657083900,-9.148691,53.115408,Clare,Ballyvaughan,Republic of Ireland
2615,La Fougére Restaurant,http://www.khh.ie,+00353(0)9828600,-9.507916,53.802153,Mayo,Westport,Republic of Ireland
2651,Treyvaud's Restaurant,http://www.treyvaudsrestaurant.com,+353(0)646633062,-9.510084,52.060048,Kerry,Killarney,Republic of Ireland
2677,Torrinos Italian Restaurant,http://www.torrinos.ie,+353(0)9828338,-9.521792,53.7995,Mayo,Westport,Republic of Ireland
2685,Little Italy Restaurant,http://www.littleitaly.ie,+353(0)567712765,-7.248574,52.6531809999999,Kilkenny,Kilkenny City,Republic of Ireland
2686,La Rivista Restaurant,http://larivista.ie/,+353(0)567771666,-7.255044,52.654683,Kilkenny,Kilkenny City,Republic of Ireland
2690,Zuni Restaurant,http://www.zuni.ie,+353(0)567723999,-7.251932,52.649611,Kilkenny,Kilkenny City,Republic of Ireland
2696,L'Athmosphere,http://www.restaurant-latmosphere.com,+353(0)51858426,-7.107938,52.26062,Waterford,Waterford City,Republic of Ireland
2701,Les Gourmandises Restaurant,http://www.lesgourmandises.ie/,+353(0)214251959,-8.471493,51.897213,Cork,Cork City Centre,Republic of Ireland
2898,Mozart's Restaurant,http://www.mozarts.ie,+353(0)667127977,-9.704201,52.269587,Kerry,Tralee,Republic of Ireland
2902,Roadford House Restaurant,http://www.roadfordrestaurant.com,+353(0)657075050,-9.372543,53.020494,Clare,Doolin,Republic of Ireland
2903,The Wytchway Inn & Restaurant,https://www.facebook.com/thewytchwayinnholycross/timeline,+353(0)50443117,-7.89886,52.632879,Tipperary,Thurles,Republic of Ireland
2910,Jack's Coastguard Restaurant,http://www.jackscromane.com,+353(0)669769102,-9.90266,52.111235,Kerry,Killorglin,Republic of Ireland
2912,Derg Inn Restaurant,http://www.thederginn.ie,+353(0)6722037,-8.203841,53.054784,Tipperary,Nenagh,Republic of Ireland
2935,An Dún Restaurant,http://www.inismeainaccommodation.com,+353(0)9973047,-9.58424490465404,53.085765478319,Galway,Aran Islands,Republic of Ireland
3007,La Trattoria Restaurant,https://www.facebook.com/LaTrattoriaKilkenny/,+353(0)567770907,-7.24937538465576,52.6522300615077,Kilkenny,Kilkenny City,Republic of Ireland
3013,QC's Seafood Restaurant,http://www.qcbar.com,+353(0)669472244,-10.2270267999999,51.9458830332867,Kerry,Cahersiveen,Republic of Ireland
3142,Randaddy's Café & Restaurant,http://www.randaddys.ie,+353(0)657082740,-9.34568451029546,52.9361329094594,Clare,Lahinch,Republic of Ireland
3201,The Trappers Inn & Jackson's Restaurant,https://twitter.com/TrappersInn,+353(0)91751228,-9.02408876455683,53.2887249410503,Galway,Castlegar,Republic of Ireland
3208,Dax Restaurant,http://www.dax.ie/restaurant/,+353(0)16761494,-6.25443012802043,53.3348121259198,Dublin,Dublin,Republic of Ireland
3219,The Barony Restaurant,http://www.thetalbothotel.ie/,+353(0)9720484,-9.98546,54.22331,Mayo,Belmullet (Béal an Mhuirthead),Republic of Ireland
3220,China Sichuan Restaurant,http://www.china-sichuan.ie/,+353(0)12935100,-6.2107245227279,53.2781987278113,Dublin,Sandyford,Republic of Ireland
3221,Anocht  Restaurant - Kilkenny Design Centre,http://www.kilkennydesign.com,+353(0)567722118,-7.24943352638933,52.6497738071761,Kilkenny,Kilkenny,Republic of Ireland
3251,Royal Spice Indian Restaurant,http://www.royalspice.ie,+353(0)567786010,-7.25523455214533,52.6552685010105,Kilkenny,Kilkenny City,Republic of Ireland
3300,The Claddagh Restaurant - Springhill Court Hotel,http://www.springhillcourt.com/dining-in-kilkenny.html,+353(0)567721122,-7.2514187099731,52.6320949606379,Kilkenny,Kilkenny City,Republic of Ireland
3307,The Imperial Garden Chinese Restaurant,http://imperialgarden.ie/,+353(0)51583690,-7.11722017676766,52.2517836681842,Waterford,Waterford City,Republic of Ireland
3310,Toscana Restaurant City Centre Dublin,http://www.toscanarestaurant.ie/,+353(0)16709785,-6.26757419307637,53.344106137688,Dublin,Dame Street,Republic of Ireland
3313,John Gray's Restaurant at the McWilliam Park Hotel,http://www.mcwilliampark.ie,+353(0)949378000,-9.0017356,53.7238764,Mayo,Claremorris,Republic of Ireland
3314,Temptations Restaurant,http://www.milltimeshotel.ie,+353(0)9829200,-9.52230749635623,53.7984935695416,Mayo,Westport,Republic of Ireland
3316,Achill Cliff House Restaurant,http://www.achillcliff.com/,+353(0)9843400,-10.0823997707668,53.9763425294236,Mayo,"Dooagh, Achill Island",Republic of Ireland
3335,The Shack Restaurant,,+353(0)2127740972,-8.52371667911177,51.7055651053267,Cork,Kinsale,Republic of Ireland
3343,Divino Italian Tapas Restaurant,http://www.facebook.com/pages/Divino-Tapas-Skerries/258876914186883,,-6.1069349,53.5780034,Dublin,Skerries,Republic of Ireland
3344,Cellar Restaurant,http://www.stephousehotel.ie/cellar-restaurant.html,+353(0)599773209,-6.9230824,52.5998053,Carlow,Borris,Republic of Ireland
3345,Chez K's Restaurant,http://www.fitzwiltonhotel.ie,+353(0)51846900,-7.11964489371712,52.2634339735265,Waterford,Waterford,Republic of Ireland
3351,Kirwan's Lane Restaurant,http://kirwanslane.com,+353(0)91568266,-9.05475542764736,53.2711577829038,Galway,Galway,Republic of Ireland
3360,The Charles Brinsley Restaurant at Bloomfield House Hotel,http://www.bloomfieldhousehotel.ie/charles-brinsley-restaurant.html,+353(0)449343767,-7.36180731418323,53.4882491520381,Westmeath,Mullingar,Republic of Ireland
3374,McLoughlins Restaurant,http://www.roganstown.com,+353(0)18433118,-6.27227438895704,53.4869425966719,Dublin,Swords,Republic of Ireland
3389,Avenue Café Restaurant,http://www.avenuecafe.ie,+353(0)16285003,-6.58877158755797,53.3820643876728,Kildare,Maynooth,Republic of Ireland
3397,The Islands Restaurant at Hotel Westport,http://www.hotelwestport.ie,+353(0)9825122,-9.52773893442383,53.8013975778997,Mayo,Westport,Republic of Ireland
3400,The River Room Restaurant at The K Club,http://www.kclub.ie/en/the-river-room-restaurant/,+353(0)16017200,-6.62540210262386,53.3072200154548,Kildare,Straffan,Republic of Ireland
3404,The Legends Restaurant at The K Club,http://www.kclub.ie/?r=4307000&gclid=CJu9-Yiq58gCFeKx2wodEhkCpQ,+353(0)16017200,-6.62514997497646,53.3070918004984,Kildare,Straffan,Republic of Ireland
3405,J.J O'Malleys Restaurant,http://www.jjomalleys.ie,+353(0)9827307,-9.52265009391783,53.7988402020807,Mayo,Westport,Republic of Ireland
3413,Kilkieran Cottage Restaurant,http://www.kilkierancottage.ie,+353(0)51645110,-7.3806606,52.3829968,Tipperary,Carrick On Suir,Republic of Ireland
3414,Hugo's Restaurant at Druids Glen Hotel & Golf Resort,http://www.druidsglenresort.com,+353(0)12870847,-6.07884943890383,53.0915186748266,Wicklow,Newtownmountkennedy,Republic of Ireland
3422,Woodlands Restaurant at the Glenview Hotel,http://www.glenviewhotel.com/woodlands-restaurant.html,+353(0)12873399,-6.127082974799,53.1423275249557,Wicklow,Delgany,Republic of Ireland
3430,Terrace Restaurant at The Mullingar Park Hotel,http://www.mullingarparkhotel.com,+353(0)449337500,-7.3030023,53.5228145,Westmeath,Mullingar,Republic of Ireland
3433,The West Wing Restaurant,http://www.westwingrestaurant.ie,+353(0)9360394,-8.88072766866162,53.5069559418771,Galway,Tuam,Republic of Ireland
3435,Alvito's Italian Restaurant,http://www.alvitos.ie,+353(0)16242160,-6.48840110859828,53.3643245325203,Kildare,Leixlip,Republic of Ireland
3439,Rasam Restaurant,http://www.rasam.ie,+353(0)12300600,-6.12326137301636,53.2869139724284,Dublin,Dun Laoghaire,Republic of Ireland
3440,River Bank Restaurant - Court Yard Hotel,http://www.courtyard.ie,+353(0)16295100,-6.48873906693415,53.3639404011404,Kildare,Leixlip,Republic of Ireland
3442,The Flying Enterprise Lounge & Restaurant,http://www.theflyingenterprise.com/,+353(0)214311846,-8.475217,51.895423,Cork,Cork City,Republic of Ireland
3475,Brunel Restaurant at Tinakilly Country House,http://www.tinakilly.ie,+353(0)40469274,-6.07707,52.994382,Wicklow,Rathnew,Republic of Ireland
3478,Suesey Street Restaurant,http://www.sueseystreet.ie/,+353(0)16694600,-6.25274385152056,53.3327737724048,Dublin,Dublin City,Republic of Ireland
3493,Canal Boat Restaurant,http://www.canalboatrestaurant.com,+353(0)14731000,-6.24793794066158,53.3332160115043,Dublin,Dublin City,Republic of Ireland
3506,Courthouse Restaurant,https://www.courthouserestaurant.ie,+353(0)429692848,-6.71922757122615,53.9780386662391,Monaghan,Carrickmacross,Republic of Ireland
3507,Whites Restaurant at the Shirley Arms Hotel,http://www.shirleyarmshotel.ie/,+353(0)429673100,-6.71971036884883,53.9778967004901,Monaghan,Carrickmacross,Republic of Ireland
3518,Eala Bhan Restaurant,http://www.ealabhan.ie,+353(0)719145823,-8.47282487238396,54.2712697105581,Sligo,Sligo Town,Republic of Ireland
3535,Brooks Restaurant at Ballygarry House,http://ballygarryhouse.com,+353(0)667123322,-9.66022039974211,52.261225724332,Kerry,Tralee,Republic of Ireland
3571,Pepe's Restaurant,http://www.pepes.ie,+353(0)6743883,-8.197775512828,52.8615875994311,Tipperary,Nenagh,Republic of Ireland
3573,The Peppermill Restaurant,http://www.thepeppermill.ie,+353(0)6734598,-8.1981242,52.8617382,Tipperary,Nenagh,Republic of Ireland
3633,St Kyrans Restaurant,http://www.stkyrans.com/,+353(0)498547087,-7.06625891417229,53.8286857039966,Cavan,Virginia,Republic of Ireland
3637,Dawsons Restaurant,,+353(0)667127745,-9.7049496,52.2695299,Kerry,Tralee,Republic of Ireland
3644,dela Restaurant,http://www.dela.ie,+353(0)91449252,-9.05714560555725,53.2710530071245,Galway,Galway City,Republic of Ireland
3645,Captain House Restaurant,http://www.captainhouserestaurant.ie/,+353(0)579320888,-7.49574675202893,53.2751178317638,Offaly,Tullamore,Republic of Ireland
3649,Emmet Restaurant,http://www.doolyshotel.com/,+353(0)579120032,-7.91066278567177,53.0960863583807,Offaly,Birr,Republic of Ireland
3667,Scholars Townhouse Hotel Restaurant,http://www.scholarshotel.com,+353(0)419835410,-6.34828681630301,53.7176522433682,Louth,Drogheda,Republic of Ireland
3686,The Blueberry Tearoom and Restaurant,,+353(0)749723663,-8.11032240117163,54.6538146701443,Donegal,Donegal Town,Republic of Ireland
3700,Eco Pizzeria and Restaurant,http://www.ecogorey.com,+353(0)539421100,-6.2967902,52.6752146,Wexford,Gorey,Republic of Ireland
3704,Bush Hotel Restaurant and Coffee Shop,http://www.bushhotel.com/,+353(0)719671000,-8.09436266091302,53.946160729706,Leitrim,Carrick on Shannon,Republic of Ireland
3707,The Garden Restaurant,http://www.jacksons-hotel.ie,+353(0)749131021,-7.78508952421566,54.7998337912183,Donegal,Ballybofey,Republic of Ireland
3732,Redmond Restaurant - Woodenbridge Hotel,http://www.woodenbridgehotel.com/food.182.html,+353(0)40235146,-6.2368299,52.8297463,Wicklow,Arklow,Republic of Ireland
3734,Finnegan's Basement Restaurant & Wine Cellar,http://www.finneganswinecellar.com,+353(0)667181400,-9.7060813,52.2679955,Kerry,Tralee,Republic of Ireland
3741,Turntable Restaurant,http://www.tarahotel.ie/,+353(0)749741700,-8.44127020870666,54.6368705138003,Donegal,Killybegs,Republic of Ireland
3744,Inch House Country House and Restaurant,http://www.inchhouse.ie,+353(0)50451348,-7.92271678872066,52.7206757060054,Tipperary,Thurles,Republic of Ireland
3751,The Boatyard Restaurant,http://theboatyardrestaurant.ie/,+353(0)669150920,-10.2758720819723,52.1393012040178,Kerry,Dingle,Republic of Ireland
3756,Lord Kenmare's Restaurant,http://www.murphysofkillarney.com/kenmares.html,+353(0)646637245,-9.506209,52.0594612,Kerry,Killarney,Republic of Ireland
3758,The Copper Canopy Restaurant,http://www.menupages.ie/Meath/meath_central/athboy/the_copper_canopy/requestbooking,+353(0)469430625,-6.91986571349184,53.6223659799521,Meath,Athboy,Republic of Ireland
3761,Mandarin Court Chinese Restaurant,,,-8.47748390845947,54.2723966518573,Sligo,Sligo Town,Republic of Ireland
3778,Spa Seafoods Deli and Restaurant,http://www.spaseafoods.com,+353(0)667136901,-9.75417749511712,52.2830729189974,Kerry,Tralee,Republic of Ireland
3784,Cronin's Restaurant,http://croninsrestaurant.com/,+353(0)646630903,-9.50670012270188,52.0592681813856,Kerry,Killarney,Republic of Ireland
3787,The Bective Restaurant,http://www.thebective.ie,+353(0)469247780,-6.8802616,53.725148,Meath,Kells,Republic of Ireland
3788,La Bucca Restaurant,http://www.labucca.ie,+353(0)18357763,-6.39571340297454,53.5133239348052,Meath,Ashbourne,Republic of Ireland
3815,Cassidy's Restaurant,,+353(0)667128833,-9.7079117,52.2690044,Kerry,Tralee,Republic of Ireland
3817,"O'Connell Restaurant, Ballyseede Castle Hotel",http://www.ballyseedecastle.com,+353(0)667125799,-9.6619895,52.2521579,Kerry,Tralee,Republic of Ireland
3823,The Cosy Cottage Restaurant,http://www.thecosycottage.com,+353(0)749385740,-7.0387151,55.1895524,Donegal,Inishowen,Republic of Ireland
3838,Rose Garden Chinese Restaurant & Takeway,,+353(0)667129393,-9.707682,52.2712278,Kerry,Tralee,Republic of Ireland
3839,"Eithna's By the Sea, Seafood Restaurant",http://www.bythesea.ie,+353(0)868515607,-8.44822980750075,54.4667686887473,Sligo,Mullaghmore,Republic of Ireland
3860,The Hot Stove Restaurant,http://www.thehotstove.ie,+353(0)18747778,-6.26489124907379,53.3529834009662,Dublin,Dublin City,Republic of Ireland
3903,Thornton's Restaurant,http://www.thorntonsrestaurant.com,+353(0)14787008,-6.261306,53.339442,Dublin,128 St Stephen’s Green,Republic of Ireland
3917,Stir Restaurant,http://www.claytonhotelcardifflane.com/dining-options/stir-restaurant/,+353(0)16439500,-6.24113,53.345259,Dublin,Dublin,Republic of Ireland
3932,Lakeview Restaurant,http://www.theavon.ie,+353(0)45900670,-6.5331825004639,53.1617051437165,Wicklow,Blessington,Republic of Ireland
3951,Old Music Shop Restaurant,https://www.facebook.com/OldMusicShopRestaurant?fref=ts,+353(0)18797888,-6.2636492,53.3546689,Dublin,Dublin City,Republic of Ireland
3971,McGarrigles Restaurant,https://www.facebook.com/mcgarriglesrestaurant1,+353(0)879528662,-8.27415431638065,54.4804722604193,Donegal,Bundoran,Republic of Ireland
3981,Jade Court Chinese Restaurant,https://www.facebook.com/Jadecourt,+353(0)6741544,-8.20250392093624,52.8609265391457,Tipperary,Nenagh,Republic of Ireland
3991,The Market House Restaurant,http://www.abbeyhoteldonegal.com/food-drink/market-house-restaurant/,+353(0)749721014,-8.11032240117163,54.6538146701443,Donegal,Donegal Town,Republic of Ireland
4035,Haven Restaurant,http://www.downingsbayhotel.com,+353(0)749155586,-7.84222509487267,55.1943249474732,Donegal,Downings,Republic of Ireland
4042,Burzza Restaurant,http://www.burzza.com,+353(0)51844969,-7.11163218650813,52.2577363310744,Waterford,Waterford City,Republic of Ireland
4058,The Butterbean Restaurant,https://www.facebook.com/pages/The-Butterbean-Restaurant-Carndonagh/207595309269035,+353(0)749373693,-7.26220179213885,55.2520971810473,Donegal,Carndonagh,Republic of Ireland
4087,Moorings Seafood Restaurant,http://www.moorings.ie,+353(0)669477108,-10.3693339931225,51.8837274514345,Kerry,Portmagee,Republic of Ireland
4095,An Port Mor Restaurant,http://www.anportmor.com,+353(0)9826730,-9.52277094090058,53.7997063541055,Mayo,Westport,Republic of Ireland
4133,Bastion Restaurant,https://www.facebook.com/BastionKinsale,+353(0)871348510,-8.52250691268921,51.7060440831364,Cork,Kinsale,Republic of Ireland
4138,Upstairs @ West Restaurant,http://www.thetwelvehotel.ie/west-restaurant,+353(0)91597000,-9.15123220943474,53.2504350432091,Galway,Barna,Republic of Ireland
4164,La Cote Seafood Restaurant,http://lacote.ie/,+353(0)539122122,-6.45976427829589,52.3388503439585,Wexford,Wexford Town,Republic of Ireland
4206,Cedars Restaurant,http://www.solislougheskecastle.ie,+353(0)749725100,-8.06617,54.6882,Donegal,Donegal Town,Republic of Ireland
4234,The Ardagh Restaurant,http://www.ardaghhotel.com,+353(0)9521384,-10.0761839823998,53.4327564198856,Galway,Clifden,Republic of Ireland
4237,Red Cliff Lodge Restaurant,http://redclifflodge.ie/,+353(0)657085756,-9.43150520074709,52.8381874533093,Clare,Spanish Point,Republic of Ireland
4244,Romaris Motor Yacht Restaurant and Cruise Boat,http://romaris.ie,+353(0)858326403,-7.94210672128543,53.4232282269749,Westmeath,Athlone,Republic of Ireland
4258,Restaurant 104,http://restaurant104.ie/,+353(0)17978936,-6.25270147731555,53.372106699009,Dublin,Drumcondra,Republic of Ireland
4262,Budd's Restaurant,http://budds.ie,+353(0)2825842,-9.46051,51.562715,Cork,Ballydehob,Republic of Ireland
4269,The Greenery Restaurant,http://www.thegreenery.ie,+353(0)12195966,-6.2351133,53.3208982,Dublin,Donnybrook,Republic of Ireland
4277,Royal Villa Chinese Restaurant,http://royalvilla.ie,+353(0)867279638,-9.0704274,53.2625652,Galway,Galway City,Republic of Ireland
4292,Coach House Hotel Restaurant,http://coachhousesligo.com/restaurant,+353(0)719183111,-8.51517572741677,54.0891313996167,Sligo,Ballymote,Republic of Ireland
4293,The Red Door Country House Restaurant,http://thereddoor.ie,+353(0)749360289,-7.46642239445873,55.0850308136415,Donegal,Buncrana,Republic of Ireland
4349,Indulge restaurant,http://indulgesligo.ie,+353(0)719138585,-8.48080712641232,54.2713073010575,Sligo,Sligo Town,Republic of Ireland
4367,Bayview Restaurant,http://www.bayviewrestaurantinishmore.com,+353(0)867929925,-9.66315312490235,53.123003326319,Galway,Inis Mor,Republic of Ireland
4377,56 Central Restaurant,http://56central.com,+353(0)91569511,-9.04947254971209,53.2721788149031,Galway,Galway City,Republic of Ireland
4380,Berehaven Lodge Restaurant,http://www.berehavenlodge.com/dining-castletownbere.html,+353(0)2771464,-9.833790683551,51.659402790302,Cork,Castletownbere,Republic of Ireland
4388,Quay West Restaurant,http://quaywestdonegal.ie,+353(0)749721590,-8.11132599999996,54.652139,Donegal,Donegal Town,Republic of Ireland
4392,Falguni Indian Restaurant,http://falguni.ie,+353(0)91540006,-9.07272237268832,53.26264775325,Galway,Galway,Republic of Ireland
4396,FIRE Restaurant & Lounge,http://firerestaurant.ie,+353(0)16767200,-6.25827789140169,53.3404527262929,Dublin,Dublin City,Republic of Ireland
4397,The Loft Café & Restaurant,http://theloftmanorhamilton.ie/,+353(0)719835322,-8.173695,54.303569,Leitrim,Manorhamilton,Republic of Ireland
4401,Ballymaloe House Restaurant,http://ballymaloe.ie/our-restaurant-cork/our-restaurant,+353(0)214652531,-8.075021,51.865083,Cork,Shanagarry,Republic of Ireland
4404,Zaragoza Restaurant,http://zaragozadublin.com,+353(0)16794020,-6.26252515557666,53.3421875186425,Dublin,Dublin City Centre,Republic of Ireland
4406,ROUGE Restaurant,http://rougegalway.com,+353(0)91530681,-9.0571893,53.2704869,Galway,Galway City,Republic of Ireland
4413,Saba Restaurant-Baggot Street,http://www.sabadublin.com,+353(0)15631999,-6.24374065230938,53.3335745015308,Dublin,Dublin City Centre,Republic of Ireland
4424,"Tinahely Farm Shop, Restaurant, Activity Centre & Animal Walkway",http://tinahelyfarm.ie,+353(0)878168457,-6.46864459336245,52.7966569388921,Wicklow,Tinahely,Republic of Ireland
4462,Kai Restaurant,http://kaicaferestaurant.com/,,-9.06113143250615,53.2695843307288,Galway,Galway,Republic of Ireland
4479,Hilden Brewery & Tap Room Restaurant,http://www.taproomhilden.com,+44 (0)28 9266 3863,-6.027749,54.520175,Antrim,Lisburn,Northern Ireland
4573,O'Connells Restaurant,http://www.oconnellsrestaurant.com,,-6.2384993,53.3228383,Dublin,Donnybrook,Republic of Ireland
4608,Fifty4 Restaurant & Pizzeria,http://www.fifty4restaurant.com,+353(0)18492724,-6.1056043,53.5777221,Dublin,Dublin,Republic of Ireland
4624,Wild & Native Seafood Restaurant,http://www.wildandnative.ie,+353(0)539132668,-6.38706214729916,52.2737655488536,Wexford,Rosslare,Republic of Ireland
4631,The President’s Restaurant at Longueville House,http://longuevillehouse.ie,+353(0)2247156,-8.72246214472193,52.1362633991551,Cork,Mallow,Republic of Ireland
4643,Dillon's Restaurant,http://www.dillonsrestaurant.ie,+353(0)238869609,-8.76586999023163,51.6438882497821,Cork,Timoleague,Republic of Ireland
4652,The Restaurant by Johnnie Cooke,http://johnniecooke.ie,+353(0)16171163,-6.25992865650096,53.3424376941033,Dublin,Dublin City,Republic of Ireland
4685,Chandpur Indian Restaurant,http://www.chandpurdonegal.com,+353(0)749725452,-8.10815241920659,54.6534848555196,Donegal,Donegal Town,Republic of Ireland
4699,Restaurant Chestnut,http://restaurantchestnutwestcork.ie,+353(0)2825766,-9.46068437363737,51.5625503170716,Cork,Ballydehob,Republic of Ireland
4701,AJLA Restaurant,http://ajla.ie,+353(0)91485413,-8.88156140969385,53.2271480358862,Galway,Clarinbridge,Republic of Ireland
4706,Everett’s Restaurant,http://everetts.ie,+353(0)51325174,-7.10834307075674,52.2604207191105,Waterford,Waterford,Republic of Ireland
4740,O’Regan’s Restaurant,http://flyingboatmuseum.com/restaurant/,+353(0)6965416,-9.10989880848922,52.6113380695954,Limerick,Foynes,Republic of Ireland
4753,Bang Restaurant,http://www.bangrestaurant.com,+353(0)14004229,-6.25401534320826,53.3383327264618,Dublin,Dublin City,Republic of Ireland
4778,Pichet Restaurant,http://www.pichet.ie,+353(0)16771060,-6.26223765026247,53.3438640666899,Dublin,Dublin City,Republic of Ireland
4874,James Joyce Restaurant at the Greville Arms,http://www.grevillearmshotel.ie/eat-drink.html,+353(0)449348563,-7.34081513732314,53.525592610843,Westmeath,Mullingar,Republic of Ireland
4907,Stoneview Restaurant,http://stoneview.ie,+353(0)212021119,-8.54692348606954,51.946507250716,Cork,Blarney,Republic of Ireland
4964,East Restaurant,http://thespencerhotel.com/east-restaurant.html,+353(0)14338800,-6.24345922259726,53.3480237550219,Dublin,Dublin City,Republic of Ireland
4980,Druids Restaurant At The Lansdowne Hotel,http://www.lansdownehotel.com,+353(0)16682522,-6.241315,53.332243,Dublin,Ballsbridge,Republic of Ireland
4986,Castle Leslie Restaurant,http://www.castleleslie.com,+353(0)4788100,-6.895825,54.316282,Monaghan,Glaslough,Republic of Ireland
4987,Marconi Restaurant,http://www.foyleshotel.com,+353(0)9521801,-10.022791,53.48865,Galway,Clifden,Republic of Ireland
4991,Carlo Restaurant,http://www.cafecarlo.net/,+353(0)18880856,-6.260934,53.350157,Dublin,Dublin City Centre,Republic of Ireland
4992,Chameleon Restaurant,http://www.chameleonrestaurant.com,+353(0)16710362,-6.263343,53.345773,Dublin,Dublin City Centre,Republic of Ireland
4997,Fallon and Byrne Restaurant,http://www.fallonandbyrne.com,+353(0)14721010,-6.26328841468046,53.3432012275799,Dublin,Dublin City Centre,Republic of Ireland
5014,The Wildflower Restaurant,http://www.thewildatlanticlodge.com/the-wildflower-restaurant,+353(0)657077003,-9.14815193292691,53.1157908785849,Clare,Ballyvaughan,Republic of Ireland
5015,The Bay Tree Restaurant,http://belvederehouse.ie/bay-tree-restaurant.html,+353(0)429383848,-6.18692526190182,54.0408579219952,Louth,Carlingford,Republic of Ireland
5073,Tara Lounge & Mornington Restaurant,https://www.citynorthhotel.com/en/hotel-dining-meath,+353(0)16906666,-6.25753894494858,53.6392140585585,Meath,Gormanston,Republic of Ireland
